<?xml version="1.0"?>
<osm version="0.6" generator="uvmogr2osm" upload="false">
<node id="-1" lat="34.708581999" lon="135.505174" visible="true"><tag k="place" v="neighbourhood" /><tag k="name" v="&#20013;&#23822;&#19977;&#19969;&#30446;" /></node>
<node id="-2" lat="34.709091999" lon="135.508816" visible="true"><tag k="place" v="neighbourhood" /><tag k="name" v="&#28014;&#30000;&#19968;&#19969;&#30446;" /></node>
<node id="-3" lat="34.706081999" lon="135.508907" visible="true"><tag k="place" v="quarter" /><tag k="name" v="&#23665;&#23822;&#30010;" /></node>
<node id="-4" lat="34.707827999" lon="135.502471" visible="true"><tag k="place" v="neighbourhood" /><tag k="name" v="&#20013;&#23822;&#35199;&#19977;&#19969;&#30446;" /></node>
<node id="-5" lat="34.694847999" lon="135.51018" visible="true"><tag k="place" v="quarter" /><tag k="name" v="&#22825;&#31070;&#35199;&#30010;" /></node>
<node id="-6" lat="34.702989999" lon="135.501002" visible="true"><tag k="place" v="quarter" /><tag k="name" v="&#23567;&#26494;&#21407;&#30010;" /></node>
<node id="-7" lat="34.709175999" lon="135.503319" visible="true"><tag k="place" v="neighbourhood" /><tag k="name" v="&#20013;&#23822;&#35199;&#22235;&#19969;&#30446;" /></node>
<node id="-8" lat="34.697426999" lon="135.493487" visible="true"><tag k="place" v="neighbourhood" /><tag k="name" v="&#26366;&#26681;&#23822;&#26032;&#22320;&#20108;&#19969;&#30446;" /></node>
<node id="-9" lat="34.699133999" lon="135.513632" visible="true"><tag k="place" v="quarter" /><tag k="name" v="&#32005;&#26757;&#30010;" /></node>
<node id="-10" lat="34.705471999" lon="135.504522" visible="true"><tag k="place" v="quarter" /><tag k="name" v="&#19975;&#27507;&#30010;" /></node>
<node id="-11" lat="34.711323999" lon="135.514724" visible="true"><tag k="place" v="neighbourhood" /><tag k="name" v="&#38263;&#26564;&#20013;&#19968;&#19969;&#30446;" /></node>
<node id="-12" lat="34.696588999" lon="135.510137" visible="true"><tag k="place" v="neighbourhood" /><tag k="name" v="&#21335;&#26862;&#30010;&#19968;&#19969;&#30446;" /></node>
<node id="-13" lat="34.711562999" lon="135.512734" visible="true"><tag k="place" v="neighbourhood" /><tag k="name" v="&#22269;&#20998;&#23546;&#20108;&#19969;&#30446;" /></node>
<node id="-14" lat="34.701676999" lon="135.50385" visible="true"><tag k="place" v="quarter" /><tag k="name" v="&#22826;&#34701;&#23546;&#30010;" /></node>
<node id="-15" lat="34.707656999" lon="135.51155" visible="true"><tag k="place" v="neighbourhood" /><tag k="name" v="&#22825;&#31070;&#27211;&#20116;&#19969;&#30446;" /></node>
<node id="-16" lat="34.709643999" lon="135.507957" visible="true"><tag k="place" v="neighbourhood" /><tag k="name" v="&#28014;&#30000;&#20108;&#19969;&#30446;" /></node>
<node id="-17" lat="34.698851999" lon="135.50308" visible="true"><tag k="place" v="neighbourhood" /><tag k="name" v="&#26366;&#26681;&#23822;&#19968;&#19969;&#30446;" /></node>
<node id="-18" lat="34.698862999" lon="135.505136" visible="true"><tag k="place" v="neighbourhood" /><tag k="name" v="&#35199;&#22825;&#28288;&#20845;&#19969;&#30446;" /></node>
<node id="-19" lat="34.701230999" lon="135.508693" visible="true"><tag k="place" v="quarter" /><tag k="name" v="&#21335;&#25159;&#30010;" /></node>
<node id="-20" lat="34.708873999" lon="135.506367" visible="true"><tag k="place" v="neighbourhood" /><tag k="name" v="&#20013;&#23822;&#20108;&#19969;&#30446;" /></node>
<node id="-21" lat="34.707332999" lon="135.508453" visible="true"><tag k="place" v="quarter" /><tag k="name" v="&#40658;&#23822;&#30010;" /></node>
<node id="-22" lat="34.709844999" lon="135.511862" visible="true"><tag k="place" v="neighbourhood" /><tag k="name" v="&#22825;&#31070;&#27211;&#20845;&#19969;&#30446;" /></node>
<node id="-23" lat="34.704816999" lon="135.515656" visible="true"><tag k="place" v="neighbourhood" /><tag k="name" v="&#22825;&#28288;&#27211;&#19977;&#19969;&#30446;" /></node>
<node id="-24" lat="34.694892999" lon="135.494076" visible="true"><tag k="place" v="neighbourhood" /><tag k="name" v="&#22530;&#23798;&#27996;&#20108;&#19969;&#30446;" /></node>
<node id="-25" lat="34.706896999" lon="135.506328" visible="true"><tag k="place" v="neighbourhood" /><tag k="name" v="&#20013;&#23822;&#19968;&#19969;&#30446;" /></node>
<node id="-26" lat="34.707633999" lon="135.501109" visible="true"><tag k="place" v="quarter" /><tag k="name" v="&#40372;&#37326;&#30010;" /></node>
<node id="-27" lat="34.698708999" lon="135.510081" visible="true"><tag k="place" v="neighbourhood" /><tag k="name" v="&#21335;&#26862;&#30010;&#20108;&#19969;&#30446;" /></node>
<node id="-28" lat="34.701241999" lon="135.509987" visible="true"><tag k="place" v="quarter" /><tag k="name" v="&#26411;&#24195;&#30010;" /></node>
<node id="-29" lat="34.712332999" lon="135.499025" visible="true"><tag k="place" v="neighbourhood" /><tag k="name" v="&#35914;&#23822;&#20116;&#19969;&#30446;" /></node>
<node id="-30" lat="34.709208999" lon="135.514223" visible="true"><tag k="place" v="quarter" /><tag k="name" v="&#33733;&#26628;&#30010;" /></node>
<node id="-31" lat="34.701141999" lon="135.507085" visible="true"><tag k="place" v="quarter" /><tag k="name" v="&#37326;&#23822;&#30010;" /></node>
<node id="-32" lat="34.700976999" lon="135.513905" visible="true"><tag k="place" v="quarter" /><tag k="name" v="&#19982;&#21147;&#30010;" /></node>
<node id="-33" lat="34.693009999" lon="135.510373" visible="true"><tag k="place" v="quarter" /><tag k="name" v="&#33733;&#21407;&#30010;" /></node>
<node id="-34" lat="34.696593999" lon="135.515865" visible="true"><tag k="place" v="neighbourhood" /><tag k="name" v="&#26481;&#22825;&#28288;&#19968;&#19969;&#30446;" /></node>
<node id="-35" lat="34.707179999" lon="135.504428" visible="true"><tag k="place" v="neighbourhood" /><tag k="name" v="&#20013;&#23822;&#35199;&#19968;&#19969;&#30446;" /></node>
<node id="-36" lat="34.693625999" lon="135.515371" visible="true"><tag k="place" v="neighbourhood" /><tag k="name" v="&#22825;&#28288;&#19977;&#19969;&#30446;" /></node>
<node id="-37" lat="34.705967999" lon="135.50233" visible="true"><tag k="place" v="neighbourhood" /><tag k="name" v="&#20013;&#23822;&#35199;&#20108;&#19969;&#30446;" /></node>
<node id="-38" lat="34.698972999" lon="135.516411" visible="true"><tag k="place" v="quarter" /><tag k="name" v="&#26494;&#12465;&#26525;&#30010;" /></node>
<node id="-39" lat="34.710602999" lon="135.501354" visible="true"><tag k="place" v="neighbourhood" /><tag k="name" v="&#35914;&#23822;&#20108;&#19969;&#30446;" /></node>
<node id="-40" lat="34.695449999" lon="135.491253" visible="true"><tag k="place" v="neighbourhood" /><tag k="name" v="&#22530;&#23798;&#19977;&#19969;&#30446;" /></node>
<node id="-41" lat="34.707727999" lon="135.516655" visible="true"><tag k="place" v="quarter" /><tag k="name" v="&#27147;&#20043;&#21475;&#30010;" /></node>
<node id="-42" lat="34.711106999" lon="135.503145" visible="true"><tag k="place" v="neighbourhood" /><tag k="name" v="&#35914;&#23822;&#19968;&#19969;&#30446;" /></node>
<node id="-43" lat="34.710989999" lon="135.505472" visible="true"><tag k="place" v="neighbourhood" /><tag k="name" v="&#26412;&#24196;&#35199;&#19968;&#19969;&#30446;" /></node>
<node id="-44" lat="34.701908999" lon="135.486012" visible="true"><tag k="place" v="neighbourhood" /><tag k="name" v="&#22823;&#28096;&#21335;&#20108;&#19969;&#30446;" /></node>
<node id="-45" lat="34.712966999" lon="135.51114" visible="true"><tag k="place" v="neighbourhood" /><tag k="name" v="&#22825;&#31070;&#27211;&#19971;&#19969;&#30446;" /></node>
<node id="-46" lat="34.708404999" lon="135.510176" visible="true"><tag k="place" v="quarter" /><tag k="name" v="&#28010;&#33457;&#30010;" /></node>
<node id="-47" lat="34.696390999" lon="135.493729" visible="true"><tag k="place" v="neighbourhood" /><tag k="name" v="&#22530;&#23798;&#20108;&#19969;&#30446;" /></node>
<node id="-48" lat="34.703778999" lon="135.482644" visible="true"><tag k="place" v="neighbourhood" /><tag k="name" v="&#22823;&#28096;&#20013;&#22235;&#19969;&#30446;" /></node>
<node id="-49" lat="34.703468999" lon="135.506127" visible="true"><tag k="place" v="quarter" /><tag k="name" v="&#31070;&#23665;&#30010;" /></node>
<node id="-50" lat="34.718051999" lon="135.514762" visible="true"><tag k="place" v="neighbourhood" /><tag k="name" v="&#38263;&#26564;&#20013;&#19977;&#19969;&#30446;" /></node>
<node id="-51" lat="34.696592999" lon="135.497659" visible="true"><tag k="place" v="neighbourhood" /><tag k="name" v="&#22530;&#23798;&#19968;&#19969;&#30446;" /></node>
<node id="-52" lat="34.706842999" lon="135.491603" visible="true"><tag k="place" v="neighbourhood" /><tag k="name" v="&#20013;&#27941;&#20116;&#19969;&#30446;" /></node>
<node id="-53" lat="34.702978999" lon="135.488941" visible="true"><tag k="place" v="neighbourhood" /><tag k="name" v="&#22823;&#28096;&#21335;&#19968;&#19969;&#30446;" /></node>
<node id="-54" lat="34.705194999" lon="135.51341" visible="true"><tag k="place" v="quarter" /><tag k="name" v="&#37670;&#30010;" /></node>
<node id="-55" lat="34.713946999" lon="135.515234" visible="true"><tag k="place" v="neighbourhood" /><tag k="name" v="&#38263;&#26564;&#20013;&#20108;&#19969;&#30446;" /></node>
<node id="-56" lat="34.697839999" lon="135.514538" visible="true"><tag k="place" v="neighbourhood" /><tag k="name" v="&#26481;&#22825;&#28288;&#20108;&#19969;&#30446;" /></node>
<node id="-57" lat="34.706975999" lon="135.495791" visible="true"><tag k="place" v="neighbourhood" /><tag k="name" v="&#33437;&#30000;&#20108;&#19969;&#30446;" /></node>
<node id="-58" lat="34.694215999" lon="135.507002" visible="true"><tag k="place" v="neighbourhood" /><tag k="name" v="&#35199;&#22825;&#28288;&#19968;&#19969;&#30446;" /></node>
<node id="-59" lat="34.712825999" lon="135.501399" visible="true"><tag k="place" v="neighbourhood" /><tag k="name" v="&#35914;&#23822;&#22235;&#19969;&#30446;" /></node>
<node id="-60" lat="34.704931999" lon="135.508165" visible="true"><tag k="place" v="neighbourhood" /><tag k="name" v="&#25159;&#30010;&#20108;&#19969;&#30446;" /></node>
<node id="-61" lat="34.704609999" lon="135.511669" visible="true"><tag k="place" v="neighbourhood" /><tag k="name" v="&#22825;&#31070;&#27211;&#22235;&#19969;&#30446;" /></node>
<node id="-62" lat="34.703565999" lon="135.509203" visible="true"><tag k="place" v="neighbourhood" /><tag k="name" v="&#25159;&#30010;&#19968;&#19969;&#30446;" /></node>
<node id="-63" lat="34.695271999" lon="135.498431" visible="true"><tag k="place" v="neighbourhood" /><tag k="name" v="&#22530;&#23798;&#27996;&#19968;&#19969;&#30446;" /></node>
<node id="-64" lat="34.693701999" lon="135.514174" visible="true"><tag k="place" v="neighbourhood" /><tag k="name" v="&#22825;&#28288;&#22235;&#19969;&#30446;" /></node>
<node id="-65" lat="34.700561999" lon="135.50396" visible="true"><tag k="place" v="quarter" /><tag k="name" v="&#20814;&#25105;&#37326;&#30010;" /></node>
<node id="-66" lat="34.697323999" lon="135.49866" visible="true"><tag k="place" v="neighbourhood" /><tag k="name" v="&#26366;&#26681;&#23822;&#26032;&#22320;&#19968;&#19969;&#30446;" /></node>
<node id="-67" lat="34.696498999" lon="135.512382" visible="true"><tag k="place" v="neighbourhood" /><tag k="name" v="&#22825;&#31070;&#27211;&#20108;&#19969;&#30446;" /></node>
<node id="-68" lat="34.704696999" lon="135.486577" visible="true"><tag k="place" v="neighbourhood" /><tag k="name" v="&#22823;&#28096;&#20013;&#20108;&#19969;&#30446;" /></node>
<node id="-69" lat="34.698790999" lon="135.507656" visible="true"><tag k="place" v="neighbourhood" /><tag k="name" v="&#35199;&#22825;&#28288;&#20116;&#19969;&#30446;" /></node>
<node id="-70" lat="34.709603999" lon="135.517258" visible="true"><tag k="place" v="neighbourhood" /><tag k="name" v="&#22269;&#20998;&#23546;&#19968;&#19969;&#30446;" /></node>
<node id="-71" lat="34.711517999" lon="135.508714" visible="true"><tag k="place" v="neighbourhood" /><tag k="name" v="&#26412;&#24196;&#26481;&#19968;&#19969;&#30446;" /></node>
<node id="-72" lat="34.700908999" lon="135.51656" visible="true"><tag k="place" v="neighbourhood" /><tag k="name" v="&#21516;&#24515;&#19968;&#19969;&#30446;" /></node>
<node id="-73" lat="34.713931999" lon="135.513068" visible="true"><tag k="place" v="neighbourhood" /><tag k="name" v="&#38263;&#26564;&#35199;&#19968;&#19969;&#30446;" /></node>
<node id="-74" lat="34.707318999" lon="135.51405" visible="true"><tag k="place" v="quarter" /><tag k="name" v="&#27744;&#30000;&#30010;" /></node>
<node id="-75" lat="34.693616999" lon="135.516756" visible="true"><tag k="place" v="neighbourhood" /><tag k="name" v="&#22825;&#28288;&#20108;&#19969;&#30446;" /></node>
<node id="-76" lat="34.705622999" lon="135.517045" visible="true"><tag k="place" v="neighbourhood" /><tag k="name" v="&#22825;&#28288;&#27211;&#20108;&#19969;&#30446;" /></node>
<node id="-77" lat="34.703748999" lon="135.499277" visible="true"><tag k="place" v="quarter" /><tag k="name" v="&#35282;&#30000;&#30010;" /></node>
<node id="-78" lat="34.693517999" lon="135.512542" visible="true"><tag k="place" v="neighbourhood" /><tag k="name" v="&#22825;&#31070;&#27211;&#19968;&#19969;&#30446;" /></node>
<node id="-79" lat="34.713381999" lon="135.504735" visible="true"><tag k="place" v="neighbourhood" /><tag k="name" v="&#26412;&#24196;&#35199;&#20108;&#19969;&#30446;" /></node>
<node id="-80" lat="34.696981999" lon="135.503863" visible="true"><tag k="place" v="neighbourhood" /><tag k="name" v="&#35199;&#22825;&#28288;&#22235;&#19969;&#30446;" /></node>
<node id="-81" lat="34.702679999" lon="135.51532" visible="true"><tag k="place" v="neighbourhood" /><tag k="name" v="&#21516;&#24515;&#20108;&#19969;&#30446;" /></node>
<node id="-82" lat="34.698570999" lon="135.49385" visible="true"><tag k="place" v="neighbourhood" /><tag k="name" v="&#26757;&#30000;&#20108;&#19969;&#30446;" /></node>
<node id="-83" lat="34.703704999" lon="135.503204" visible="true"><tag k="place" v="quarter" /><tag k="name" v="&#22530;&#23665;&#30010;" /></node>
<node id="-84" lat="34.701011999" lon="135.482658" visible="true"><tag k="place" v="neighbourhood" /><tag k="name" v="&#22823;&#28096;&#21335;&#19977;&#19969;&#30446;" /></node>
<node id="-85" lat="34.700778999" lon="135.511911" visible="true"><tag k="place" v="neighbourhood" /><tag k="name" v="&#22825;&#31070;&#27211;&#19977;&#19969;&#30446;" /></node>
<node id="-86" lat="34.695695999" lon="135.503439" visible="true"><tag k="place" v="neighbourhood" /><tag k="name" v="&#35199;&#22825;&#28288;&#20108;&#19969;&#30446;" /></node>
<node id="-87" lat="34.710214999" lon="135.498345" visible="true"><tag k="place" v="neighbourhood" /><tag k="name" v="&#35914;&#23822;&#19977;&#19969;&#30446;" /></node>
<node id="-88" lat="34.700104999" lon="135.500845" visible="true"><tag k="place" v="neighbourhood" /><tag k="name" v="&#26366;&#26681;&#23822;&#20108;&#19969;&#30446;" /></node>
<node id="-89" lat="34.704603999" lon="135.484366" visible="true"><tag k="place" v="neighbourhood" /><tag k="name" v="&#22823;&#28096;&#20013;&#19977;&#19969;&#30446;" /></node>
<node id="-90" lat="34.706436999" lon="135.49771" visible="true"><tag k="place" v="neighbourhood" /><tag k="name" v="&#33437;&#30000;&#19968;&#19969;&#30446;" /></node>
<node id="-91" lat="34.693727999" lon="135.498496" visible="true"><tag k="place" v="neighbourhood" /><tag k="name" v="&#20013;&#20043;&#23798;&#20108;&#19969;&#30446;" /></node>
<node id="-92" lat="34.717446999" lon="135.511549" visible="true"><tag k="place" v="neighbourhood" /><tag k="name" v="&#22825;&#31070;&#27211;&#20843;&#19969;&#30446;" /></node>
<node id="-93" lat="34.692759999" lon="135.493961" visible="true"><tag k="place" v="neighbourhood" /><tag k="name" v="&#20013;&#20043;&#23798;&#19977;&#19969;&#30446;" /></node>
<node id="-94" lat="34.696005999" lon="135.507571" visible="true"><tag k="place" v="neighbourhood" /><tag k="name" v="&#35199;&#22825;&#28288;&#19977;&#19969;&#30446;" /></node>
<node id="-95" lat="34.711122999" lon="135.49576" visible="true"><tag k="place" v="neighbourhood" /><tag k="name" v="&#20013;&#27941;&#19968;&#19969;&#30446;" /></node>
<node id="-96" lat="34.706798999" lon="135.499545" visible="true"><tag k="place" v="quarter" /><tag k="name" v="&#33590;&#23627;&#30010;" /></node>
<node id="-97" lat="34.691616999" lon="135.490988" visible="true"><tag k="place" v="neighbourhood" /><tag k="name" v="&#20013;&#20043;&#23798;&#22235;&#19969;&#30446;" /></node>
<node id="-98" lat="34.703536999" lon="135.479885" visible="true"><tag k="place" v="neighbourhood" /><tag k="name" v="&#22823;&#28096;&#20013;&#20116;&#19969;&#30446;" /></node>
<node id="-99" lat="34.713625999" lon="135.508591" visible="true"><tag k="place" v="neighbourhood" /><tag k="name" v="&#26412;&#24196;&#26481;&#20108;&#19969;&#30446;" /></node>
<node id="-100" lat="34.716172999" lon="135.499266" visible="true"><tag k="place" v="neighbourhood" /><tag k="name" v="&#35914;&#23822;&#19971;&#19969;&#30446;" /></node>
<node id="-101" lat="34.709028999" lon="135.490083" visible="true"><tag k="place" v="neighbourhood" /><tag k="name" v="&#20013;&#27941;&#20845;&#19969;&#30446;" /></node>
<node id="-102" lat="34.711418999" lon="135.518461" visible="true"><tag k="place" v="neighbourhood" /><tag k="name" v="&#38263;&#26564;&#26481;&#19968;&#19969;&#30446;" /></node>
<node id="-103" lat="34.687089999" lon="135.484386" visible="true"><tag k="place" v="neighbourhood" /><tag k="name" v="&#20013;&#20043;&#23798;&#20845;&#19969;&#30446;" /></node>
<node id="-104" lat="34.718205999" lon="135.517552" visible="true"><tag k="place" v="neighbourhood" /><tag k="name" v="&#38263;&#26564;&#26481;&#19977;&#19969;&#30446;" /></node>
<node id="-105" lat="34.700012999" lon="135.497728" visible="true"><tag k="place" v="neighbourhood" /><tag k="name" v="&#26757;&#30000;&#19968;&#19969;&#30446;" /></node>
<node id="-106" lat="34.706044999" lon="135.489321" visible="true"><tag k="place" v="neighbourhood" /><tag k="name" v="&#22823;&#28096;&#20013;&#19968;&#19969;&#30446;" /></node>
<node id="-107" lat="34.717735999" lon="135.513174" visible="true"><tag k="place" v="neighbourhood" /><tag k="name" v="&#38263;&#26564;&#35199;&#20108;&#19969;&#30446;" /></node>
<node id="-108" lat="34.712886999" lon="135.489495" visible="true"><tag k="place" v="neighbourhood" /><tag k="name" v="&#20013;&#27941;&#22235;&#19969;&#30446;" /></node>
<node id="-109" lat="34.690281999" lon="135.487948" visible="true"><tag k="place" v="neighbourhood" /><tag k="name" v="&#20013;&#20043;&#23798;&#20116;&#19969;&#30446;" /></node>
<node id="-110" lat="34.716904999" lon="135.505006" visible="true"><tag k="place" v="neighbourhood" /><tag k="name" v="&#26412;&#24196;&#35199;&#19977;&#19969;&#30446;" /></node>
<node id="-111" lat="34.692844999" lon="135.505432" visible="true"><tag k="place" v="neighbourhood" /><tag k="name" v="&#20013;&#20043;&#23798;&#19968;&#19969;&#30446;" /></node>
<node id="-112" lat="34.700069999" lon="135.519955" visible="true"><tag k="place" v="neighbourhood" /><tag k="name" v="&#22825;&#28288;&#27211;&#19968;&#19969;&#30446;" /></node>
<node id="-113" lat="34.700836999" lon="135.493878" visible="true"><tag k="place" v="neighbourhood" /><tag k="name" v="&#26757;&#30000;&#19977;&#19969;&#30446;" /></node>
<node id="-114" lat="34.711452999" lon="135.486073" visible="true"><tag k="place" v="neighbourhood" /><tag k="name" v="&#20013;&#27941;&#19971;&#19969;&#30446;" /></node>
<node id="-115" lat="34.717380999" lon="135.508636" visible="true"><tag k="place" v="neighbourhood" /><tag k="name" v="&#26412;&#24196;&#26481;&#19977;&#19969;&#30446;" /></node>
<node id="-116" lat="34.714967999" lon="135.518686" visible="true"><tag k="place" v="neighbourhood" /><tag k="name" v="&#38263;&#26564;&#26481;&#20108;&#19969;&#30446;" /></node>
<node id="-117" lat="34.716487999" lon="135.501749" visible="true"><tag k="place" v="neighbourhood" /><tag k="name" v="&#35914;&#23822;&#20845;&#19969;&#30446;" /></node>
<node id="-118" lat="34.694409999" lon="135.520073" visible="true"><tag k="place" v="neighbourhood" /><tag k="name" v="&#22825;&#28288;&#19968;&#19969;&#30446;" /></node>
<node id="-119" lat="34.715564999" lon="135.496288" visible="true"><tag k="place" v="neighbourhood" /><tag k="name" v="&#20013;&#27941;&#20108;&#19969;&#30446;" /></node>
<node id="-120" lat="34.704760999" lon="135.494368" visible="true"><tag k="place" v="quarter" /><tag k="name" v="&#22823;&#28145;&#30010;" /></node>
<node id="-121" lat="34.708787999" lon="135.482656" visible="true"><tag k="place" v="neighbourhood" /><tag k="name" v="&#22823;&#28096;&#21271;&#19968;&#19969;&#30446;" /></node>
<node id="-122" lat="34.713598999" lon="135.492823" visible="true"><tag k="place" v="neighbourhood" /><tag k="name" v="&#20013;&#27941;&#19977;&#19969;&#30446;" /></node>
<node id="-123" lat="34.706565999" lon="135.4784" visible="true"><tag k="place" v="neighbourhood" /><tag k="name" v="&#22823;&#28096;&#21271;&#20108;&#19969;&#30446;" /></node>
</osm>