<?xml version="1.0"?>
<osm version="0.6" generator="uvmogr2osm" upload="false">
<node id="-1" lat="34.618659999" lon="133.179216" visible="true"><tag k="place" v="quarter" /><tag k="name" v="&#38463;&#23383;&#30010;" /></node>
<node id="-2" lat="34.602320999" lon="133.21536" visible="true"><tag k="place" v="quarter" /><tag k="name" v="&#33618;&#35895;&#30010;" /></node>
<node id="-3" lat="34.576824999" lon="133.24986" visible="true"><tag k="place" v="quarter" /><tag k="name" v="&#40284;&#39164;&#30010;" /></node>
<node id="-4" lat="34.579992999" lon="133.207474" visible="true"><tag k="place" v="quarter" /><tag k="name" v="&#19978;&#23665;&#30010;" /></node>
<node id="-5" lat="34.554186999" lon="133.178127" visible="true"><tag k="place" v="quarter" /><tag k="name" v="&#23567;&#22269;&#30010;" /></node>
<node id="-6" lat="34.538824999" lon="133.193369" visible="true"><tag k="place" v="quarter" /><tag k="name" v="&#27827;&#21335;&#30010;" /></node>
<node id="-7" lat="34.591861999" lon="133.19361" visible="true"><tag k="place" v="quarter" /><tag k="name" v="&#27827;&#20304;&#30010;" /></node>
<node id="-8" lat="34.632186999" lon="133.201867" visible="true"><tag k="place" v="quarter" /><tag k="name" v="&#26408;&#37326;&#23665;&#30010;" /></node>
<node id="-9" lat="34.597492999" lon="133.163278" visible="true"><tag k="place" v="quarter" /><tag k="name" v="&#20037;&#20304;&#30010;" /></node>
<node id="-10" lat="34.542851999" lon="133.23166" visible="true"><tag k="place" v="quarter" /><tag k="name" v="&#26647;&#26564;&#30010;" /></node>
<node id="-11" lat="34.567793999" lon="133.19588" visible="true"><tag k="place" v="quarter" /><tag k="name" v="&#27827;&#38754;&#30010;" /></node>
<node id="-12" lat="34.579415999" lon="133.243159" visible="true"><tag k="place" v="neighbourhood" /><tag k="name" v="&#26716;&#12364;&#19992;&#19968;&#19969;&#30446;" /></node>
<node id="-13" lat="34.578797999" lon="133.247222" visible="true"><tag k="place" v="neighbourhood" /><tag k="name" v="&#26716;&#12364;&#19992;&#20108;&#19969;&#30446;" /></node>
<node id="-14" lat="34.581335999" lon="133.245731" visible="true"><tag k="place" v="neighbourhood" /><tag k="name" v="&#26716;&#12364;&#19992;&#19977;&#19969;&#30446;" /></node>
<node id="-15" lat="34.545805999" lon="133.185794" visible="true"><tag k="place" v="quarter" /><tag k="name" v="&#19977;&#37070;&#20024;&#30010;" /></node>
<node id="-16" lat="34.552684999" lon="133.200553" visible="true"><tag k="place" v="quarter" /><tag k="name" v="&#31712;&#26681;&#30010;" /></node>
<node id="-17" lat="34.730805999" lon="133.118131" visible="true"><tag k="place" v="quarter" /><tag k="name" v="&#19978;&#19979;&#30010;&#26377;&#31119;" /></node>
<node id="-18" lat="34.681402999" lon="133.142122" visible="true"><tag k="place" v="quarter" /><tag k="name" v="&#19978;&#19979;&#30010;&#20117;&#27704;" /></node>
<node id="-19" lat="34.675319999" lon="133.169005" visible="true"><tag k="place" v="quarter" /><tag k="name" v="&#19978;&#19979;&#30010;&#23713;&#23627;" /></node>
<node id="-20" lat="34.744937999" lon="133.148163" visible="true"><tag k="place" v="quarter" /><tag k="name" v="&#19978;&#19979;&#30010;&#23567;&#22618;" /></node>
<node id="-21" lat="34.687117999" lon="133.10452" visible="true"><tag k="place" v="quarter" /><tag k="name" v="&#19978;&#19979;&#30010;&#22269;&#30041;" /></node>
<node id="-22" lat="34.718041999" lon="133.148483" visible="true"><tag k="place" v="quarter" /><tag k="name" v="&#19978;&#19979;&#30010;&#23567;&#22528;" /></node>
<node id="-23" lat="34.663944999" lon="133.148209" visible="true"><tag k="place" v="quarter" /><tag k="name" v="&#19978;&#19979;&#30010;&#20304;&#20489;" /></node>
<node id="-24" lat="34.698661999" lon="133.178245" visible="true"><tag k="place" v="quarter" /><tag k="name" v="&#19978;&#19979;&#30010;&#38542;&#35211;" /></node>
<node id="-25" lat="34.698007999" lon="133.133268" visible="true"><tag k="place" v="quarter" /><tag k="name" v="&#19978;&#19979;&#30010;&#19978;&#19979;" /></node>
<node id="-26" lat="34.693746999" lon="133.114442" visible="true"><tag k="place" v="quarter" /><tag k="name" v="&#19978;&#19979;&#30010;&#28145;&#27743;" /></node>
<node id="-27" lat="34.703834999" lon="133.145706" visible="true"><tag k="place" v="quarter" /><tag k="name" v="&#19978;&#19979;&#30010;&#20108;&#26862;" /></node>
<node id="-28" lat="34.649894999" lon="133.122592" visible="true"><tag k="place" v="quarter" /><tag k="name" v="&#19978;&#19979;&#30010;&#26494;&#23822;" /></node>
<node id="-29" lat="34.661991999" lon="133.15859" visible="true"><tag k="place" v="quarter" /><tag k="name" v="&#19978;&#19979;&#30010;&#27700;&#27704;" /></node>
<node id="-30" lat="34.652195999" lon="133.143657" visible="true"><tag k="place" v="quarter" /><tag k="name" v="&#19978;&#19979;&#30010;&#30690;&#22810;&#30000;" /></node>
<node id="-31" lat="34.671426999" lon="133.101513" visible="true"><tag k="place" v="quarter" /><tag k="name" v="&#19978;&#19979;&#30010;&#30690;&#37326;" /></node>
<node id="-32" lat="34.543189999" lon="133.207523" visible="true"><tag k="place" v="quarter" /><tag k="name" v="&#20711;&#27583;&#30010;" /></node>
<node id="-33" lat="34.560903999" lon="133.246238" visible="true"><tag k="place" v="quarter" /><tag k="name" v="&#39640;&#26408;&#30010;" /></node>
<node id="-34" lat="34.555450999" lon="133.212548" visible="true"><tag k="place" v="quarter" /><tag k="name" v="&#29238;&#30707;&#30010;" /></node>
<node id="-35" lat="34.586571999" lon="133.225454" visible="true"><tag k="place" v="quarter" /><tag k="name" v="&#20986;&#21475;&#30010;" /></node>
<node id="-36" lat="34.650810999" lon="133.170987" visible="true"><tag k="place" v="quarter" /><tag k="name" v="&#26007;&#21319;&#30010;" /></node>
<node id="-37" lat="34.557374999" lon="133.260539" visible="true"><tag k="place" v="quarter" /><tag k="name" v="&#20013;&#38920;&#30010;" /></node>
<node id="-38" lat="34.562795999" lon="133.226709" visible="true"><tag k="place" v="quarter" /><tag k="name" v="&#22303;&#29983;&#30010;" /></node>
<node id="-39" lat="34.571494999" lon="133.260051" visible="true"><tag k="place" v="quarter" /><tag k="name" v="&#24195;&#35895;&#30010;" /></node>
<node id="-40" lat="34.567648999" lon="133.236891" visible="true"><tag k="place" v="quarter" /><tag k="name" v="&#24220;&#24029;&#30010;" /></node>
<node id="-41" lat="34.577182999" lon="133.232682" visible="true"><tag k="place" v="quarter" /><tag k="name" v="&#24220;&#20013;&#30010;" /></node>
<node id="-42" lat="34.650008999" lon="133.19585" visible="true"><tag k="place" v="quarter" /><tag k="name" v="&#34892;&#32290;&#30010;" /></node>
<node id="-43" lat="34.572085999" lon="133.218138" visible="true"><tag k="place" v="quarter" /><tag k="name" v="&#30446;&#23822;&#30010;" /></node>
<node id="-44" lat="34.575102999" lon="133.239187" visible="true"><tag k="place" v="quarter" /><tag k="name" v="&#20803;&#30010;" /></node>
<node id="-45" lat="34.593651999" lon="133.239247" visible="true"><tag k="place" v="quarter" /><tag k="name" v="&#26412;&#23665;&#30010;" /></node>
<node id="-46" lat="34.574524999" lon="133.165225" visible="true"><tag k="place" v="quarter" /><tag k="name" v="&#35576;&#27611;&#30010;" /></node>
<node id="-47" lat="34.559314999" lon="133.234908" visible="true"><tag k="place" v="quarter" /><tag k="name" v="&#29992;&#22303;&#30010;" /></node>
</osm>