<?xml version="1.0"?>
<osm version="0.6" generator="uvmogr2osm" upload="false">
<node id="-1" lat="34.059672999" lon="131.011382" visible="true"><tag k="place" v="quarter" /><tag k="name" v="&#36196;&#27744;&#30010;" /></node>
<node id="-2" lat="33.993497999" lon="130.923942" visible="true"><tag k="place" v="neighbourhood" /><tag k="name" v="&#22434;&#30000;&#30010;&#19968;&#19969;&#30446;" /></node>
<node id="-3" lat="33.990962999" lon="130.925981" visible="true"><tag k="place" v="neighbourhood" /><tag k="name" v="&#22434;&#30000;&#30010;&#20108;&#19969;&#30446;" /></node>
<node id="-4" lat="33.959338999" lon="130.943753" visible="true"><tag k="place" v="quarter" /><tag k="name" v="&#36196;&#38291;&#30010;" /></node>
<node id="-5" lat="34.012435999" lon="130.959028" visible="true"><tag k="place" v="neighbourhood" /><tag k="name" v="&#31179;&#26681;&#19978;&#30010;&#19968;&#19969;&#30446;" /></node>
<node id="-6" lat="34.010337999" lon="130.95872" visible="true"><tag k="place" v="neighbourhood" /><tag k="name" v="&#31179;&#26681;&#19978;&#30010;&#20108;&#19969;&#30446;" /></node>
<node id="-7" lat="34.007582999" lon="130.960032" visible="true"><tag k="place" v="neighbourhood" /><tag k="name" v="&#31179;&#26681;&#19978;&#30010;&#19977;&#19969;&#30446;" /></node>
<node id="-8" lat="34.014119999" lon="130.95219" visible="true"><tag k="place" v="quarter" /><tag k="name" v="&#31179;&#26681;&#21271;&#30010;" /></node>
<node id="-9" lat="34.011828999" lon="130.948328" visible="true"><tag k="place" v="quarter" /><tag k="name" v="&#31179;&#26681;&#26032;&#30010;" /></node>
<node id="-10" lat="34.009120999" lon="130.947528" visible="true"><tag k="place" v="neighbourhood" /><tag k="name" v="&#31179;&#26681;&#35199;&#30010;&#19968;&#19969;&#30446;" /></node>
<node id="-11" lat="34.007005999" lon="130.945444" visible="true"><tag k="place" v="neighbourhood" /><tag k="name" v="&#31179;&#26681;&#35199;&#30010;&#20108;&#19969;&#30446;" /></node>
<node id="-12" lat="34.010725999" lon="130.954617" visible="true"><tag k="place" v="quarter" /><tag k="name" v="&#31179;&#26681;&#26481;&#30010;" /></node>
<node id="-13" lat="34.010347999" lon="130.950399" visible="true"><tag k="place" v="neighbourhood" /><tag k="name" v="&#31179;&#26681;&#26412;&#30010;&#19968;&#19969;&#30446;" /></node>
<node id="-14" lat="34.010350999" lon="130.952473" visible="true"><tag k="place" v="neighbourhood" /><tag k="name" v="&#31179;&#26681;&#26412;&#30010;&#20108;&#19969;&#30446;" /></node>
<node id="-15" lat="34.007135999" lon="130.95021" visible="true"><tag k="place" v="neighbourhood" /><tag k="name" v="&#31179;&#26681;&#21335;&#30010;&#19968;&#19969;&#30446;" /></node>
<node id="-16" lat="34.007375999" lon="130.954458" visible="true"><tag k="place" v="neighbourhood" /><tag k="name" v="&#31179;&#26681;&#21335;&#30010;&#20108;&#19969;&#30446;" /></node>
<node id="-17" lat="33.959368999" lon="130.948383" visible="true"><tag k="place" v="quarter" /><tag k="name" v="&#38463;&#24357;&#38464;&#23546;&#30010;" /></node>
<node id="-18" lat="34.009376999" lon="130.921381" visible="true"><tag k="place" v="neighbourhood" /><tag k="name" v="&#32190;&#32645;&#26408;&#26032;&#30010;&#19968;&#19969;&#30446;" /></node>
<node id="-19" lat="34.011601999" lon="130.918222" visible="true"><tag k="place" v="neighbourhood" /><tag k="name" v="&#32190;&#32645;&#26408;&#26032;&#30010;&#20108;&#19969;&#30446;" /></node>
<node id="-20" lat="34.011555999" lon="130.922713" visible="true"><tag k="place" v="neighbourhood" /><tag k="name" v="&#32190;&#32645;&#26408;&#26032;&#30010;&#19977;&#19969;&#30446;" /></node>
<node id="-21" lat="34.010482999" lon="130.924301" visible="true"><tag k="place" v="neighbourhood" /><tag k="name" v="&#32190;&#32645;&#26408;&#26032;&#30010;&#22235;&#19969;&#30446;" /></node>
<node id="-22" lat="34.004837999" lon="130.927386" visible="true"><tag k="place" v="neighbourhood" /><tag k="name" v="&#32190;&#32645;&#26408;&#26412;&#30010;&#19968;&#19969;&#30446;" /></node>
<node id="-23" lat="34.002996999" lon="130.926177" visible="true"><tag k="place" v="neighbourhood" /><tag k="name" v="&#32190;&#32645;&#26408;&#26412;&#30010;&#20108;&#19969;&#30446;" /></node>
<node id="-24" lat="34.001633999" lon="130.92429" visible="true"><tag k="place" v="neighbourhood" /><tag k="name" v="&#32190;&#32645;&#26408;&#26412;&#30010;&#19977;&#19969;&#30446;" /></node>
<node id="-25" lat="34.004678999" lon="130.922764" visible="true"><tag k="place" v="neighbourhood" /><tag k="name" v="&#32190;&#32645;&#26408;&#26412;&#30010;&#22235;&#19969;&#30446;" /></node>
<node id="-26" lat="34.006560999" lon="130.922983" visible="true"><tag k="place" v="neighbourhood" /><tag k="name" v="&#32190;&#32645;&#26408;&#26412;&#30010;&#20116;&#19969;&#30446;" /></node>
<node id="-27" lat="34.008212999" lon="130.919589" visible="true"><tag k="place" v="neighbourhood" /><tag k="name" v="&#32190;&#32645;&#26408;&#26412;&#30010;&#20845;&#19969;&#30446;" /></node>
<node id="-28" lat="34.006452999" lon="130.916548" visible="true"><tag k="place" v="neighbourhood" /><tag k="name" v="&#32190;&#32645;&#26408;&#26412;&#30010;&#19971;&#19969;&#30446;" /></node>
<node id="-29" lat="34.004708999" lon="130.919185" visible="true"><tag k="place" v="neighbourhood" /><tag k="name" v="&#32190;&#32645;&#26408;&#26412;&#30010;&#20843;&#19969;&#30446;" /></node>
<node id="-30" lat="34.003504999" lon="130.921979" visible="true"><tag k="place" v="neighbourhood" /><tag k="name" v="&#32190;&#32645;&#26408;&#26412;&#30010;&#20061;&#19969;&#30446;" /></node>
<node id="-31" lat="34.001394999" lon="130.921145" visible="true"><tag k="place" v="neighbourhood" /><tag k="name" v="&#32190;&#32645;&#26408;&#21335;&#30010;&#19968;&#19969;&#30446;" /></node>
<node id="-32" lat="34.002767999" lon="130.916587" visible="true"><tag k="place" v="neighbourhood" /><tag k="name" v="&#32190;&#32645;&#26408;&#21335;&#30010;&#20108;&#19969;&#30446;" /></node>
<node id="-33" lat="34.002171999" lon="130.911445" visible="true"><tag k="place" v="neighbourhood" /><tag k="name" v="&#32190;&#32645;&#26408;&#21335;&#30010;&#19977;&#19969;&#30446;" /></node>
<node id="-34" lat="33.953489999" lon="130.941213" visible="true"><tag k="place" v="quarter" /><tag k="name" v="&#12354;&#12427;&#12363;&#12413;&#12540;&#12392;" /></node>
<node id="-35" lat="33.981482999" lon="130.935688" visible="true"><tag k="place" v="neighbourhood" /><tag k="name" v="&#29983;&#37326;&#30010;&#19968;&#19969;&#30446;" /></node>
<node id="-36" lat="33.984440999" lon="130.935554" visible="true"><tag k="place" v="neighbourhood" /><tag k="name" v="&#29983;&#37326;&#30010;&#20108;&#19969;&#30446;" /></node>
<node id="-37" lat="34.006341999" lon="130.940025" visible="true"><tag k="place" v="neighbourhood" /><tag k="name" v="&#20234;&#20489;&#26032;&#30010;&#19968;&#19969;&#30446;" /></node>
<node id="-38" lat="34.006984999" lon="130.938766" visible="true"><tag k="place" v="neighbourhood" /><tag k="name" v="&#20234;&#20489;&#26032;&#30010;&#20108;&#19969;&#30446;" /></node>
<node id="-39" lat="34.006415999" lon="130.932925" visible="true"><tag k="place" v="neighbourhood" /><tag k="name" v="&#20234;&#20489;&#26032;&#30010;&#19977;&#19969;&#30446;" /></node>
<node id="-40" lat="34.005231999" lon="130.933922" visible="true"><tag k="place" v="neighbourhood" /><tag k="name" v="&#20234;&#20489;&#26032;&#30010;&#22235;&#19969;&#30446;" /></node>
<node id="-41" lat="34.005043999" lon="130.931204" visible="true"><tag k="place" v="neighbourhood" /><tag k="name" v="&#20234;&#20489;&#26032;&#30010;&#20116;&#19969;&#30446;" /></node>
<node id="-42" lat="34.002951999" lon="130.929326" visible="true"><tag k="place" v="neighbourhood" /><tag k="name" v="&#20234;&#20489;&#30010;&#19968;&#19969;&#30446;" /></node>
<node id="-43" lat="34.005029999" lon="130.929413" visible="true"><tag k="place" v="neighbourhood" /><tag k="name" v="&#20234;&#20489;&#30010;&#20108;&#19969;&#30446;" /></node>
<node id="-44" lat="34.001880999" lon="130.933398" visible="true"><tag k="place" v="neighbourhood" /><tag k="name" v="&#20234;&#20489;&#30010;&#19977;&#19969;&#30446;" /></node>
<node id="-45" lat="34.005494999" lon="130.943731" visible="true"><tag k="place" v="quarter" /><tag k="name" v="&#20234;&#20489;&#26481;&#30010;" /></node>
<node id="-46" lat="34.003419999" lon="130.93568" visible="true"><tag k="place" v="quarter" /><tag k="name" v="&#20234;&#20489;&#26412;&#30010;" /></node>
<node id="-47" lat="33.954748999" lon="130.917885" visible="true"><tag k="place" v="neighbourhood" /><tag k="name" v="&#20234;&#23822;&#30010;&#19968;&#19969;&#30446;" /></node>
<node id="-48" lat="33.956504999" lon="130.910761" visible="true"><tag k="place" v="neighbourhood" /><tag k="name" v="&#20234;&#23822;&#30010;&#20108;&#19969;&#30446;" /></node>
<node id="-49" lat="33.973859999" lon="130.938465" visible="true"><tag k="place" v="quarter" /><tag k="name" v="&#30707;&#31070;&#30010;" /></node>
<node id="-50" lat="33.989076999" lon="130.94863" visible="true"><tag k="place" v="quarter" /><tag k="name" v="&#19968;&#12398;&#23470;&#21368;&#26412;&#30010;" /></node>
<node id="-51" lat="33.999490999" lon="130.947946" visible="true"><tag k="place" v="quarter" /><tag k="name" v="&#19968;&#12398;&#23470;&#23398;&#22290;&#30010;" /></node>
<node id="-52" lat="34.002643999" lon="130.95716" visible="true"><tag k="place" v="neighbourhood" /><tag k="name" v="&#19968;&#12398;&#23470;&#20303;&#21513;&#19968;&#19969;&#30446;" /></node>
<node id="-53" lat="33.997329999" lon="130.955803" visible="true"><tag k="place" v="neighbourhood" /><tag k="name" v="&#19968;&#12398;&#23470;&#20303;&#21513;&#20108;&#19969;&#30446;" /></node>
<node id="-54" lat="33.993509999" lon="130.953638" visible="true"><tag k="place" v="neighbourhood" /><tag k="name" v="&#19968;&#12398;&#23470;&#20303;&#21513;&#19977;&#19969;&#30446;" /></node>
<node id="-55" lat="34.003753999" lon="130.946637" visible="true"><tag k="place" v="neighbourhood" /><tag k="name" v="&#19968;&#12398;&#23470;&#30010;&#19968;&#19969;&#30446;" /></node>
<node id="-56" lat="34.002828999" lon="130.949868" visible="true"><tag k="place" v="neighbourhood" /><tag k="name" v="&#19968;&#12398;&#23470;&#30010;&#20108;&#19969;&#30446;" /></node>
<node id="-57" lat="33.997803999" lon="130.951101" visible="true"><tag k="place" v="neighbourhood" /><tag k="name" v="&#19968;&#12398;&#23470;&#30010;&#19977;&#19969;&#30446;" /></node>
<node id="-58" lat="33.994065999" lon="130.951449" visible="true"><tag k="place" v="neighbourhood" /><tag k="name" v="&#19968;&#12398;&#23470;&#30010;&#22235;&#19969;&#30446;" /></node>
<node id="-59" lat="33.993031999" lon="130.949178" visible="true"><tag k="place" v="neighbourhood" /><tag k="name" v="&#19968;&#12398;&#23470;&#30010;&#20116;&#19969;&#30446;" /></node>
<node id="-60" lat="34.003739999" lon="130.961453" visible="true"><tag k="place" v="neighbourhood" /><tag k="name" v="&#19968;&#12398;&#23470;&#26481;&#30010;&#19968;&#19969;&#30446;" /></node>
<node id="-61" lat="33.999830999" lon="130.96093" visible="true"><tag k="place" v="neighbourhood" /><tag k="name" v="&#19968;&#12398;&#23470;&#26481;&#30010;&#20108;&#19969;&#30446;" /></node>
<node id="-62" lat="34.002646999" lon="130.964999" visible="true"><tag k="place" v="neighbourhood" /><tag k="name" v="&#19968;&#12398;&#23470;&#26481;&#30010;&#19977;&#19969;&#30446;" /></node>
<node id="-63" lat="34.004033999" lon="130.952279" visible="true"><tag k="place" v="neighbourhood" /><tag k="name" v="&#19968;&#12398;&#23470;&#26412;&#30010;&#19968;&#19969;&#30446;" /></node>
<node id="-64" lat="34.000632999" lon="130.953905" visible="true"><tag k="place" v="neighbourhood" /><tag k="name" v="&#19968;&#12398;&#23470;&#26412;&#30010;&#20108;&#19969;&#30446;" /></node>
<node id="-65" lat="33.954645999" lon="130.922198" visible="true"><tag k="place" v="quarter" /><tag k="name" v="&#20170;&#28006;&#30010;" /></node>
<node id="-66" lat="33.954029999" lon="130.93523" visible="true"><tag k="place" v="quarter" /><tag k="name" v="&#20837;&#27743;&#30010;" /></node>
<node id="-67" lat="33.955683999" lon="130.923783" visible="true"><tag k="place" v="quarter" /><tag k="name" v="&#19978;&#26465;&#30010;" /></node>
<node id="-68" lat="33.969574999" lon="130.932624" visible="true"><tag k="place" v="neighbourhood" /><tag k="name" v="&#24460;&#30000;&#30010;&#19968;&#19969;&#30446;" /></node>
<node id="-69" lat="33.971359999" lon="130.932157" visible="true"><tag k="place" v="neighbourhood" /><tag k="name" v="&#24460;&#30000;&#30010;&#20108;&#19969;&#30446;" /></node>
<node id="-70" lat="33.972701999" lon="130.93483" visible="true"><tag k="place" v="neighbourhood" /><tag k="name" v="&#24460;&#30000;&#30010;&#19977;&#19969;&#30446;" /></node>
<node id="-71" lat="33.973991999" lon="130.932373" visible="true"><tag k="place" v="neighbourhood" /><tag k="name" v="&#24460;&#30000;&#30010;&#20116;&#19969;&#30446;" /></node>
<node id="-72" lat="34.064030999" lon="131.043072" visible="true"><tag k="place" v="neighbourhood" /><tag k="name" v="&#29579;&#21916;&#23431;&#27941;&#20117;&#19968;&#19969;&#30446;" /></node>
<node id="-73" lat="34.063690999" lon="131.046785" visible="true"><tag k="place" v="neighbourhood" /><tag k="name" v="&#29579;&#21916;&#23431;&#27941;&#20117;&#20108;&#19969;&#30446;" /></node>
<node id="-74" lat="34.061798999" lon="131.050048" visible="true"><tag k="place" v="neighbourhood" /><tag k="name" v="&#29579;&#21916;&#23431;&#27941;&#20117;&#19977;&#19969;&#30446;" /></node>
<node id="-75" lat="34.061937999" lon="131.057725" visible="true"><tag k="place" v="neighbourhood" /><tag k="name" v="&#29579;&#21916;&#26412;&#30010;&#19968;&#19969;&#30446;" /></node>
<node id="-76" lat="34.065098999" lon="131.055625" visible="true"><tag k="place" v="neighbourhood" /><tag k="name" v="&#29579;&#21916;&#26412;&#30010;&#20108;&#19969;&#30446;" /></node>
<node id="-77" lat="34.066201999" lon="131.052103" visible="true"><tag k="place" v="neighbourhood" /><tag k="name" v="&#29579;&#21916;&#26412;&#30010;&#19977;&#19969;&#30446;" /></node>
<node id="-78" lat="34.069559999" lon="131.04882" visible="true"><tag k="place" v="neighbourhood" /><tag k="name" v="&#29579;&#21916;&#26412;&#30010;&#22235;&#19969;&#30446;" /></node>
<node id="-79" lat="34.065473999" lon="131.048669" visible="true"><tag k="place" v="neighbourhood" /><tag k="name" v="&#29579;&#21916;&#26412;&#30010;&#20116;&#19969;&#30446;" /></node>
<node id="-80" lat="34.061004999" lon="131.054229" visible="true"><tag k="place" v="neighbourhood" /><tag k="name" v="&#29579;&#21916;&#26412;&#30010;&#20845;&#19969;&#30446;" /></node>
<node id="-81" lat="34.044470999" lon="131.013054" visible="true"><tag k="place" v="neighbourhood" /><tag k="name" v="&#29579;&#21496;&#19978;&#30010;&#19968;&#19969;&#30446;" /></node>
<node id="-82" lat="34.040716999" lon="131.010393" visible="true"><tag k="place" v="neighbourhood" /><tag k="name" v="&#29579;&#21496;&#19978;&#30010;&#20108;&#19969;&#30446;" /></node>
<node id="-83" lat="34.036877999" lon="131.009562" visible="true"><tag k="place" v="neighbourhood" /><tag k="name" v="&#29579;&#21496;&#19978;&#30010;&#19977;&#19969;&#30446;" /></node>
<node id="-84" lat="34.035159999" lon="131.010342" visible="true"><tag k="place" v="neighbourhood" /><tag k="name" v="&#29579;&#21496;&#19978;&#30010;&#22235;&#19969;&#30446;" /></node>
<node id="-85" lat="34.041491999" lon="131.014069" visible="true"><tag k="place" v="neighbourhood" /><tag k="name" v="&#29579;&#21496;&#19978;&#30010;&#20116;&#19969;&#30446;" /></node>
<node id="-86" lat="34.047878999" lon="131.018001" visible="true"><tag k="place" v="neighbourhood" /><tag k="name" v="&#29579;&#21496;&#24029;&#31471;&#19968;&#19969;&#30446;" /></node>
<node id="-87" lat="34.047691999" lon="131.020119" visible="true"><tag k="place" v="neighbourhood" /><tag k="name" v="&#29579;&#21496;&#24029;&#31471;&#20108;&#19969;&#30446;" /></node>
<node id="-88" lat="34.046966999" lon="131.022401" visible="true"><tag k="place" v="neighbourhood" /><tag k="name" v="&#29579;&#21496;&#24029;&#31471;&#19977;&#19969;&#30446;" /></node>
<node id="-89" lat="34.047156999" lon="131.015065" visible="true"><tag k="place" v="neighbourhood" /><tag k="name" v="&#29579;&#21496;&#31070;&#30000;&#19968;&#19969;&#30446;" /></node>
<node id="-90" lat="34.047827999" lon="131.012172" visible="true"><tag k="place" v="neighbourhood" /><tag k="name" v="&#29579;&#21496;&#31070;&#30000;&#20108;&#19969;&#30446;" /></node>
<node id="-91" lat="34.049927999" lon="131.009662" visible="true"><tag k="place" v="neighbourhood" /><tag k="name" v="&#29579;&#21496;&#31070;&#30000;&#19977;&#19969;&#30446;" /></node>
<node id="-92" lat="34.053880999" lon="131.008664" visible="true"><tag k="place" v="neighbourhood" /><tag k="name" v="&#29579;&#21496;&#31070;&#30000;&#22235;&#19969;&#30446;" /></node>
<node id="-93" lat="34.053680999" lon="131.012544" visible="true"><tag k="place" v="neighbourhood" /><tag k="name" v="&#29579;&#21496;&#31070;&#30000;&#20116;&#19969;&#30446;" /></node>
<node id="-94" lat="34.048937999" lon="131.017059" visible="true"><tag k="place" v="neighbourhood" /><tag k="name" v="&#29579;&#21496;&#31070;&#30000;&#20845;&#19969;&#30446;" /></node>
<node id="-95" lat="34.042620999" lon="131.017259" visible="true"><tag k="place" v="neighbourhood" /><tag k="name" v="&#29579;&#21496;&#26412;&#30010;&#19968;&#19969;&#30446;" /></node>
<node id="-96" lat="34.041888999" lon="131.019438" visible="true"><tag k="place" v="neighbourhood" /><tag k="name" v="&#29579;&#21496;&#26412;&#30010;&#20108;&#19969;&#30446;" /></node>
<node id="-97" lat="34.037407999" lon="131.016962" visible="true"><tag k="place" v="neighbourhood" /><tag k="name" v="&#29579;&#21496;&#26412;&#30010;&#19977;&#19969;&#30446;" /></node>
<node id="-98" lat="34.039016999" lon="131.015034" visible="true"><tag k="place" v="neighbourhood" /><tag k="name" v="&#29579;&#21496;&#26412;&#30010;&#22235;&#19969;&#30446;" /></node>
<node id="-99" lat="34.035775999" lon="131.012641" visible="true"><tag k="place" v="neighbourhood" /><tag k="name" v="&#29579;&#21496;&#26412;&#30010;&#20116;&#19969;&#30446;" /></node>
<node id="-100" lat="34.034936999" lon="131.014445" visible="true"><tag k="place" v="neighbourhood" /><tag k="name" v="&#29579;&#21496;&#26412;&#30010;&#20845;&#19969;&#30446;" /></node>
<node id="-101" lat="34.032504999" lon="131.012571" visible="true"><tag k="place" v="quarter" /><tag k="name" v="&#29579;&#21496;&#21335;&#30010;" /></node>
<node id="-102" lat="33.996816999" lon="130.91325" visible="true"><tag k="place" v="quarter" /><tag k="name" v="&#22823;&#23383;&#22434;&#30000;" /></node>
<node id="-103" lat="34.011665999" lon="130.963179" visible="true"><tag k="place" v="quarter" /><tag k="name" v="&#22823;&#23383;&#31179;&#26681;" /></node>
<node id="-104" lat="34.013145999" lon="130.930164" visible="true"><tag k="place" v="quarter" /><tag k="name" v="&#22823;&#23383;&#32190;&#32645;&#26408;" /></node>
<node id="-105" lat="34.018244999" lon="130.945502" visible="true"><tag k="place" v="quarter" /><tag k="name" v="&#22823;&#23383;&#26377;&#20904;" /></node>
<node id="-106" lat="34.001162999" lon="130.94103" visible="true"><tag k="place" v="quarter" /><tag k="name" v="&#22823;&#23383;&#20234;&#20489;" /></node>
<node id="-107" lat="34.020676999" lon="130.952103" visible="true"><tag k="place" v="quarter" /><tag k="name" v="&#22823;&#23383;&#30707;&#21407;" /></node>
<node id="-108" lat="34.056286999" lon="130.971907" visible="true"><tag k="place" v="quarter" /><tag k="name" v="&#22823;&#23383;&#20117;&#30000;" /></node>
<node id="-109" lat="34.103907999" lon="130.981743" visible="true"><tag k="place" v="quarter" /><tag k="name" v="&#22823;&#23383;&#26893;&#30000;" /></node>
<node id="-110" lat="34.070320999" lon="131.0686" visible="true"><tag k="place" v="quarter" /><tag k="name" v="&#22823;&#23383;&#23431;&#27941;&#20117;" /></node>
<node id="-111" lat="34.089189999" lon="130.948705" visible="true"><tag k="place" v="quarter" /><tag k="name" v="&#22823;&#23383;&#20869;&#26085;&#19978;" /></node>
<node id="-112" lat="34.102749999" lon="130.967504" visible="true"><tag k="place" v="quarter" /><tag k="name" v="&#22823;&#23383;&#20869;&#26085;&#19979;" /></node>
<node id="-113" lat="34.040409999" lon="131.005774" visible="true"><tag k="place" v="quarter" /><tag k="name" v="&#22823;&#23383;&#23431;&#37096;" /></node>
<node id="-114" lat="34.087322999" lon="131.035756" visible="true"><tag k="place" v="quarter" /><tag k="name" v="&#22823;&#23383;&#23567;&#26376;&#30010;" /></node>
<node id="-115" lat="34.044048999" lon="130.956432" visible="true"><tag k="place" v="quarter" /><tag k="name" v="&#22823;&#23383;&#23567;&#37326;" /></node>
<node id="-116" lat="34.043076999" lon="130.992189" visible="true"><tag k="place" v="quarter" /><tag k="name" v="&#22823;&#23383;&#21729;&#20809;" /></node>
<node id="-117" lat="34.019506999" lon="130.960422" visible="true"><tag k="place" v="quarter" /><tag k="name" v="&#22823;&#23383;&#24418;&#23665;" /></node>
<node id="-118" lat="34.042699999" lon="130.941012" visible="true"><tag k="place" v="quarter" /><tag k="name" v="&#22823;&#23383;&#33970;&#29983;&#37326;" /></node>
<node id="-119" lat="34.073195999" lon="131.018278" visible="true"><tag k="place" v="quarter" /><tag k="name" v="&#22823;&#23383;&#28165;&#26411;" /></node>
<node id="-120" lat="33.992228999" lon="130.961852" visible="true"><tag k="place" v="quarter" /><tag k="name" v="&#22823;&#23383;&#26976;&#20035;" /></node>
<node id="-121" lat="34.030963999" lon="130.997334" visible="true"><tag k="place" v="quarter" /><tag k="name" v="&#22823;&#23383;&#25165;&#24029;" /></node>
<node id="-122" lat="34.016530999" lon="130.979955" visible="true"><tag k="place" v="quarter" /><tag k="name" v="&#22823;&#23383;&#21213;&#35895;" /></node>
<node id="-123" lat="33.986529999" lon="130.968113" visible="true"><tag k="place" v="quarter" /><tag k="name" v="&#22823;&#23383;&#39640;&#30033;" /></node>
<node id="-124" lat="34.021545999" lon="130.971838" visible="true"><tag k="place" v="quarter" /><tag k="name" v="&#22823;&#23383;&#30000;&#20489;" /></node>
<node id="-125" lat="34.019384999" lon="130.931107" visible="true"><tag k="place" v="quarter" /><tag k="name" v="&#22823;&#23383;&#20904;&#20219;" /></node>
<node id="-126" lat="33.995585999" lon="130.977073" visible="true"><tag k="place" v="quarter" /><tag k="name" v="&#22823;&#23383;&#35914;&#28006;&#26449;" /></node>
<node id="-127" lat="34.088143999" lon="130.896624" visible="true"><tag k="place" v="quarter" /><tag k="name" v="&#22823;&#23383;&#27704;&#30000;&#37111;" /></node>
<node id="-128" lat="34.013434999" lon="130.939793" visible="true"><tag k="place" v="quarter" /><tag k="name" v="&#22823;&#23383;&#24310;&#34892;" /></node>
<node id="-129" lat="33.933413999" lon="130.929827" visible="true"><tag k="place" v="quarter" /><tag k="name" v="&#22823;&#23383;&#24422;&#23798;" /></node>
<node id="-130" lat="34.048142999" lon="130.924378" visible="true"><tag k="place" v="quarter" /><tag k="name" v="&#22823;&#23383;&#31119;&#27743;" /></node>
<node id="-131" lat="33.982614999" lon="130.959557" visible="true"><tag k="place" v="quarter" /><tag k="name" v="&#22823;&#23383;&#34276;&#12465;&#35895;" /></node>
<node id="-132" lat="34.103644999" lon="130.786664" visible="true"><tag k="place" v="quarter" /><tag k="name" v="&#22823;&#23383;&#33995;&#20117;&#23798;" /></node>
<node id="-133" lat="33.976875999" lon="130.971041" visible="true"><tag k="place" v="quarter" /><tag k="name" v="&#22823;&#23383;&#21069;&#30000;" /></node>
<node id="-134" lat="34.024733999" lon="130.991319" visible="true"><tag k="place" v="quarter" /><tag k="name" v="&#22823;&#23383;&#26494;&#23567;&#30000;" /></node>
<node id="-135" lat="34.059118999" lon="131.071199" visible="true"><tag k="place" v="quarter" /><tag k="name" v="&#22823;&#23383;&#26494;&#23627;" /></node>
<node id="-136" lat="33.974733999" lon="130.957802" visible="true"><tag k="place" v="quarter" /><tag k="name" v="&#22823;&#23383;&#26891;&#37326;" /></node>
<node id="-137" lat="33.975600999" lon="130.863248" visible="true"><tag k="place" v="quarter" /><tag k="name" v="&#22823;&#23383;&#20845;&#36899;&#23798;" /></node>
<node id="-138" lat="34.035867999" lon="130.930696" visible="true"><tag k="place" v="quarter" /><tag k="name" v="&#22823;&#23383;&#23433;&#23713;" /></node>
<node id="-139" lat="34.059710999" lon="130.993167" visible="true"><tag k="place" v="quarter" /><tag k="name" v="&#22823;&#23383;&#23665;&#30000;" /></node>
<node id="-140" lat="34.035979999" lon="130.916415" visible="true"><tag k="place" v="quarter" /><tag k="name" v="&#22823;&#23383;&#27178;&#37326;" /></node>
<node id="-141" lat="34.088897999" lon="131.063247" visible="true"><tag k="place" v="quarter" /><tag k="name" v="&#22823;&#23383;&#21513;&#30000;" /></node>
<node id="-142" lat="34.092836999" lon="131.088183" visible="true"><tag k="place" v="quarter" /><tag k="name" v="&#22823;&#23383;&#21513;&#30000;&#22320;&#26041;" /></node>
<node id="-143" lat="34.088928999" lon="130.920117" visible="true"><tag k="place" v="quarter" /><tag k="name" v="&#22823;&#23383;&#21513;&#35211;&#19978;" /></node>
<node id="-144" lat="34.066344999" lon="130.921249" visible="true"><tag k="place" v="quarter" /><tag k="name" v="&#22823;&#23383;&#21513;&#35211;&#19979;" /></node>
<node id="-145" lat="34.100338999" lon="130.881069" visible="true"><tag k="place" v="quarter" /><tag k="name" v="&#22823;&#23383;&#21513;&#27597;" /></node>
<node id="-146" lat="34.076296999" lon="131.032053" visible="true"><tag k="place" v="quarter" /><tag k="name" v="&#23567;&#26376;&#24066;&#21407;&#30010;" /></node>
<node id="-147" lat="34.068874999" lon="131.033011" visible="true"><tag k="place" v="neighbourhood" /><tag k="name" v="&#23567;&#26376;&#39365;&#21069;&#19968;&#19969;&#30446;" /></node>
<node id="-148" lat="34.070464999" lon="131.045542" visible="true"><tag k="place" v="quarter" /><tag k="name" v="&#23567;&#26376;&#20140;&#27850;" /></node>
<node id="-149" lat="34.072465999" lon="131.031601" visible="true"><tag k="place" v="quarter" /><tag k="name" v="&#23567;&#26376;&#20844;&#22290;&#30010;" /></node>
<node id="-150" lat="34.066191999" lon="131.038158" visible="true"><tag k="place" v="neighbourhood" /><tag k="name" v="&#23567;&#26376;&#23567;&#23798;&#19968;&#19969;&#30446;" /></node>
<node id="-151" lat="34.066585999" lon="131.042312" visible="true"><tag k="place" v="neighbourhood" /><tag k="name" v="&#23567;&#26376;&#23567;&#23798;&#20108;&#19969;&#30446;" /></node>
<node id="-152" lat="34.077840999" lon="131.034953" visible="true"><tag k="place" v="quarter" /><tag k="name" v="&#23567;&#26376;&#24184;&#30010;" /></node>
<node id="-153" lat="34.072763999" lon="131.029436" visible="true"><tag k="place" v="neighbourhood" /><tag k="name" v="&#23567;&#26376;&#26441;&#36843;&#19968;&#19969;&#30446;" /></node>
<node id="-154" lat="34.072122999" lon="131.026769" visible="true"><tag k="place" v="neighbourhood" /><tag k="name" v="&#23567;&#26376;&#26441;&#36843;&#20108;&#19969;&#30446;" /></node>
<node id="-155" lat="34.076093999" lon="131.027097" visible="true"><tag k="place" v="neighbourhood" /><tag k="name" v="&#23567;&#26376;&#26441;&#36843;&#19977;&#19969;&#30446;" /></node>
<node id="-156" lat="34.073857999" lon="131.043282" visible="true"><tag k="place" v="quarter" /><tag k="name" v="&#23567;&#26376;&#39640;&#38596;&#30010;" /></node>
<node id="-157" lat="34.069984999" lon="131.032006" visible="true"><tag k="place" v="neighbourhood" /><tag k="name" v="&#23567;&#26376;&#33590;&#23627;&#19968;&#19969;&#30446;" /></node>
<node id="-158" lat="34.067436999" lon="131.029659" visible="true"><tag k="place" v="neighbourhood" /><tag k="name" v="&#23567;&#26376;&#33590;&#23627;&#20108;&#19969;&#30446;" /></node>
<node id="-159" lat="34.069904999" lon="131.026196" visible="true"><tag k="place" v="neighbourhood" /><tag k="name" v="&#23567;&#26376;&#33590;&#23627;&#19977;&#19969;&#30446;" /></node>
<node id="-160" lat="34.069284999" lon="131.043223" visible="true"><tag k="place" v="quarter" /><tag k="name" v="&#23567;&#26376;&#35199;&#12398;&#21488;" /></node>
<node id="-161" lat="34.072088999" lon="131.033627" visible="true"><tag k="place" v="neighbourhood" /><tag k="name" v="&#23567;&#26376;&#26412;&#30010;&#19968;&#19969;&#30446;" /></node>
<node id="-162" lat="34.072238999" lon="131.036191" visible="true"><tag k="place" v="neighbourhood" /><tag k="name" v="&#23567;&#26376;&#26412;&#30010;&#20108;&#19969;&#30446;" /></node>
<node id="-163" lat="34.060245999" lon="131.037634" visible="true"><tag k="place" v="quarter" /><tag k="name" v="&#23567;&#26376;&#21335;&#30010;" /></node>
<node id="-164" lat="34.073290999" lon="131.039566" visible="true"><tag k="place" v="quarter" /><tag k="name" v="&#23567;&#26376;&#23470;&#12398;&#30010;" /></node>
<node id="-165" lat="33.985489999" lon="130.949681" visible="true"><tag k="place" v="quarter" /><tag k="name" v="&#21368;&#26032;&#30010;" /></node>
<node id="-166" lat="34.016183999" lon="130.918151" visible="true"><tag k="place" v="neighbourhood" /><tag k="name" v="&#26806;&#26647;&#30010;&#19968;&#19969;&#30446;" /></node>
<node id="-167" lat="34.014244999" lon="130.918337" visible="true"><tag k="place" v="neighbourhood" /><tag k="name" v="&#26806;&#26647;&#30010;&#20108;&#19969;&#30446;" /></node>
<node id="-168" lat="34.015608999" lon="130.920769" visible="true"><tag k="place" v="neighbourhood" /><tag k="name" v="&#26806;&#26647;&#30010;&#19977;&#19969;&#30446;" /></node>
<node id="-169" lat="34.015937999" lon="130.925797" visible="true"><tag k="place" v="neighbourhood" /><tag k="name" v="&#26806;&#26647;&#30010;&#20116;&#19969;&#30446;" /></node>
<node id="-170" lat="33.959494999" lon="130.929237" visible="true"><tag k="place" v="quarter" /><tag k="name" v="&#26149;&#26085;&#30010;" /></node>
<node id="-171" lat="34.052658999" lon="131.00337" visible="true"><tag k="place" v="neighbourhood" /><tag k="name" v="&#21729;&#20809;&#30010;&#19968;&#19969;&#30446;" /></node>
<node id="-172" lat="34.055282999" lon="131.003707" visible="true"><tag k="place" v="neighbourhood" /><tag k="name" v="&#21729;&#20809;&#30010;&#20108;&#19969;&#30446;" /></node>
<node id="-173" lat="34.052321999" lon="130.997972" visible="true"><tag k="place" v="neighbourhood" /><tag k="name" v="&#21729;&#20809;&#30010;&#19977;&#19969;&#30446;" /></node>
<node id="-174" lat="34.049529999" lon="131.00062" visible="true"><tag k="place" v="neighbourhood" /><tag k="name" v="&#21729;&#20809;&#30010;&#22235;&#19969;&#30446;" /></node>
<node id="-175" lat="34.016067999" lon="130.958643" visible="true"><tag k="place" v="quarter" /><tag k="name" v="&#24418;&#23665;&#30010;" /></node>
<node id="-176" lat="34.015889999" lon="130.955159" visible="true"><tag k="place" v="quarter" /><tag k="name" v="&#24418;&#23665;&#12415;&#12393;&#12426;&#30010;" /></node>
<node id="-177" lat="33.958788999" lon="130.921148" visible="true"><tag k="place" v="neighbourhood" /><tag k="name" v="&#19978;&#26032;&#22320;&#30010;&#19968;&#19969;&#30446;" /></node>
<node id="-178" lat="33.961976999" lon="130.920872" visible="true"><tag k="place" v="neighbourhood" /><tag k="name" v="&#19978;&#26032;&#22320;&#30010;&#20108;&#19969;&#30446;" /></node>
<node id="-179" lat="33.959163999" lon="130.919094" visible="true"><tag k="place" v="neighbourhood" /><tag k="name" v="&#19978;&#26032;&#22320;&#30010;&#19977;&#19969;&#30446;" /></node>
<node id="-180" lat="33.956614999" lon="130.91593" visible="true"><tag k="place" v="neighbourhood" /><tag k="name" v="&#19978;&#26032;&#22320;&#30010;&#22235;&#19969;&#30446;" /></node>
<node id="-181" lat="33.958601999" lon="130.916304" visible="true"><tag k="place" v="neighbourhood" /><tag k="name" v="&#19978;&#26032;&#22320;&#30010;&#20116;&#19969;&#30446;" /></node>
<node id="-182" lat="33.966675999" lon="130.938294" visible="true"><tag k="place" v="neighbourhood" /><tag k="name" v="&#19978;&#30000;&#20013;&#30010;&#19968;&#19969;&#30446;" /></node>
<node id="-183" lat="33.963981999" lon="130.940283" visible="true"><tag k="place" v="neighbourhood" /><tag k="name" v="&#19978;&#30000;&#20013;&#30010;&#20108;&#19969;&#30446;" /></node>
<node id="-184" lat="33.960896999" lon="130.939511" visible="true"><tag k="place" v="neighbourhood" /><tag k="name" v="&#19978;&#30000;&#20013;&#30010;&#19977;&#19969;&#30446;" /></node>
<node id="-185" lat="33.963390999" lon="130.937114" visible="true"><tag k="place" v="neighbourhood" /><tag k="name" v="&#19978;&#30000;&#20013;&#30010;&#22235;&#19969;&#30446;" /></node>
<node id="-186" lat="33.961694999" lon="130.935722" visible="true"><tag k="place" v="neighbourhood" /><tag k="name" v="&#19978;&#30000;&#20013;&#30010;&#20116;&#19969;&#30446;" /></node>
<node id="-187" lat="33.959903999" lon="130.935187" visible="true"><tag k="place" v="neighbourhood" /><tag k="name" v="&#19978;&#30000;&#20013;&#30010;&#20845;&#19969;&#30446;" /></node>
<node id="-188" lat="33.961475999" lon="130.93235" visible="true"><tag k="place" v="neighbourhood" /><tag k="name" v="&#19978;&#30000;&#20013;&#30010;&#19971;&#19969;&#30446;" /></node>
<node id="-189" lat="33.963589999" lon="130.934502" visible="true"><tag k="place" v="neighbourhood" /><tag k="name" v="&#19978;&#30000;&#20013;&#30010;&#20843;&#19969;&#30446;" /></node>
<node id="-190" lat="34.032160999" lon="131.016094" visible="true"><tag k="place" v="quarter" /><tag k="name" v="&#20096;&#27996;&#30010;" /></node>
<node id="-191" lat="33.957117999" lon="130.943434" visible="true"><tag k="place" v="quarter" /><tag k="name" v="&#21776;&#25144;&#30010;" /></node>
<node id="-192" lat="34.000330999" lon="130.930689" visible="true"><tag k="place" v="quarter" /><tag k="name" v="&#24029;&#20013;&#26412;&#30010;" /></node>
<node id="-193" lat="33.998169999" lon="130.933332" visible="true"><tag k="place" v="neighbourhood" /><tag k="name" v="&#24029;&#20013;&#26412;&#30010;&#19968;&#19969;&#30446;" /></node>
<node id="-194" lat="34.001763999" lon="130.929096" visible="true"><tag k="place" v="neighbourhood" /><tag k="name" v="&#24029;&#20013;&#26412;&#30010;&#20108;&#19969;&#30446;" /></node>
<node id="-195" lat="33.999379999" lon="130.93692" visible="true"><tag k="place" v="neighbourhood" /><tag k="name" v="&#24029;&#20013;&#35914;&#30010;&#19968;&#19969;&#30446;" /></node>
<node id="-196" lat="33.997168999" lon="130.935723" visible="true"><tag k="place" v="neighbourhood" /><tag k="name" v="&#24029;&#20013;&#35914;&#30010;&#20108;&#19969;&#30446;" /></node>
<node id="-197" lat="33.997275999" lon="130.938969" visible="true"><tag k="place" v="neighbourhood" /><tag k="name" v="&#24029;&#20013;&#35914;&#30010;&#19977;&#19969;&#30446;" /></node>
<node id="-198" lat="33.998290999" lon="130.940716" visible="true"><tag k="place" v="neighbourhood" /><tag k="name" v="&#24029;&#20013;&#35914;&#30010;&#22235;&#19969;&#30446;" /></node>
<node id="-199" lat="33.995454999" lon="130.938959" visible="true"><tag k="place" v="neighbourhood" /><tag k="name" v="&#24029;&#20013;&#35914;&#30010;&#20116;&#19969;&#30446;" /></node>
<node id="-200" lat="33.995414999" lon="130.935638" visible="true"><tag k="place" v="neighbourhood" /><tag k="name" v="&#24029;&#20013;&#35914;&#30010;&#20845;&#19969;&#30446;" /></node>
<node id="-201" lat="33.993672999" lon="130.937536" visible="true"><tag k="place" v="neighbourhood" /><tag k="name" v="&#24029;&#20013;&#35914;&#30010;&#19971;&#19969;&#30446;" /></node>
<node id="-202" lat="33.957900999" lon="130.927668" visible="true"><tag k="place" v="quarter" /><tag k="name" v="&#38306;&#35199;&#30010;" /></node>
<node id="-203" lat="33.956561999" lon="130.926363" visible="true"><tag k="place" v="quarter" /><tag k="name" v="&#38306;&#35199;&#26412;&#30010;" /></node>
<node id="-204" lat="33.964395999" lon="130.923822" visible="true"><tag k="place" v="neighbourhood" /><tag k="name" v="&#31070;&#30000;&#30010;&#19968;&#19969;&#30446;" /></node>
<node id="-205" lat="33.962341999" lon="130.925441" visible="true"><tag k="place" v="neighbourhood" /><tag k="name" v="&#31070;&#30000;&#30010;&#20108;&#19969;&#30446;" /></node>
<node id="-206" lat="33.952983999" lon="130.938233" visible="true"><tag k="place" v="quarter" /><tag k="name" v="&#35251;&#38899;&#23822;&#30010;" /></node>
<node id="-207" lat="34.111850999" lon="131.05039" visible="true"><tag k="place" v="quarter" /><tag k="name" v="&#33738;&#24029;&#30010;&#22823;&#23383;&#19978;&#22823;&#37326;" /></node>
<node id="-208" lat="34.158268999" lon="131.020741" visible="true"><tag k="place" v="quarter" /><tag k="name" v="&#33738;&#24029;&#30010;&#22823;&#23383;&#19978;&#23713;&#26525;" /></node>
<node id="-209" lat="34.102437999" lon="131.023622" visible="true"><tag k="place" v="quarter" /><tag k="name" v="&#33738;&#24029;&#30010;&#22823;&#23383;&#19978;&#30000;&#37096;" /></node>
<node id="-210" lat="34.132076999" lon="131.047478" visible="true"><tag k="place" v="quarter" /><tag k="name" v="&#33738;&#24029;&#30010;&#22823;&#23383;&#19978;&#20445;&#26408;" /></node>
<node id="-211" lat="34.160488999" lon="130.998257" visible="true"><tag k="place" v="quarter" /><tag k="name" v="&#33738;&#24029;&#30010;&#22823;&#23383;&#36020;&#39151;" /></node>
<node id="-212" lat="34.118686999" lon="131.081307" visible="true"><tag k="place" v="quarter" /><tag k="name" v="&#33738;&#24029;&#30010;&#22823;&#23383;&#36705;&#20117;" /></node>
<node id="-213" lat="34.149457999" lon="130.967415" visible="true"><tag k="place" v="quarter" /><tag k="name" v="&#33738;&#24029;&#30010;&#22823;&#23383;&#20037;&#37326;" /></node>
<node id="-214" lat="34.097024999" lon="131.051483" visible="true"><tag k="place" v="quarter" /><tag k="name" v="&#33738;&#24029;&#30010;&#22823;&#23383;&#19979;&#22823;&#37326;" /></node>
<node id="-215" lat="34.133572999" lon="131.036055" visible="true"><tag k="place" v="quarter" /><tag k="name" v="&#33738;&#24029;&#30010;&#22823;&#23383;&#19979;&#23713;&#26525;" /></node>
<node id="-216" lat="34.116825999" lon="131.060799" visible="true"><tag k="place" v="quarter" /><tag k="name" v="&#33738;&#24029;&#30010;&#22823;&#23383;&#19979;&#20445;&#26408;" /></node>
<node id="-217" lat="34.108872999" lon="131.038406" visible="true"><tag k="place" v="quarter" /><tag k="name" v="&#33738;&#24029;&#30010;&#22823;&#23383;&#30000;&#37096;" /></node>
<node id="-218" lat="34.109897999" lon="131.006642" visible="true"><tag k="place" v="quarter" /><tag k="name" v="&#33738;&#24029;&#30010;&#22823;&#23383;&#19971;&#35211;" /></node>
<node id="-219" lat="34.137212999" lon="130.995167" visible="true"><tag k="place" v="quarter" /><tag k="name" v="&#33738;&#24029;&#30010;&#22823;&#23383;&#26978;&#23822;" /></node>
<node id="-220" lat="34.152039999" lon="131.03656" visible="true"><tag k="place" v="quarter" /><tag k="name" v="&#33738;&#24029;&#30010;&#22823;&#23383;&#35199;&#20013;&#23665;" /></node>
<node id="-221" lat="34.126772999" lon="130.981489" visible="true"><tag k="place" v="quarter" /><tag k="name" v="&#33738;&#24029;&#30010;&#22823;&#23383;&#26085;&#26032;" /></node>
<node id="-222" lat="34.146177999" lon="131.058509" visible="true"><tag k="place" v="quarter" /><tag k="name" v="&#33738;&#24029;&#30010;&#22823;&#23383;&#26481;&#20013;&#23665;" /></node>
<node id="-223" lat="34.133281999" lon="131.076197" visible="true"><tag k="place" v="quarter" /><tag k="name" v="&#33738;&#24029;&#30010;&#22823;&#23383;&#36947;&#24066;" /></node>
<node id="-224" lat="34.143676999" lon="131.076441" visible="true"><tag k="place" v="quarter" /><tag k="name" v="&#33738;&#24029;&#30010;&#22823;&#23383;&#27141;&#12494;&#26408;" /></node>
<node id="-225" lat="34.129853999" lon="131.015007" visible="true"><tag k="place" v="quarter" /><tag k="name" v="&#33738;&#24029;&#30010;&#22823;&#23383;&#21513;&#36032;" /></node>
<node id="-226" lat="33.964133999" lon="130.944051" visible="true"><tag k="place" v="neighbourhood" /><tag k="name" v="&#36020;&#33337;&#30010;&#19968;&#19969;&#30446;" /></node>
<node id="-227" lat="33.966342999" lon="130.94427" visible="true"><tag k="place" v="neighbourhood" /><tag k="name" v="&#36020;&#33337;&#30010;&#20108;&#19969;&#30446;" /></node>
<node id="-228" lat="33.969342999" lon="130.943677" visible="true"><tag k="place" v="neighbourhood" /><tag k="name" v="&#36020;&#33337;&#30010;&#19977;&#19969;&#30446;" /></node>
<node id="-229" lat="33.971134999" lon="130.939581" visible="true"><tag k="place" v="neighbourhood" /><tag k="name" v="&#36020;&#33337;&#30010;&#22235;&#19969;&#30446;" /></node>
<node id="-230" lat="34.062078999" lon="131.023878" visible="true"><tag k="place" v="neighbourhood" /><tag k="name" v="&#28165;&#26411;&#38797;&#39340;&#19968;&#19969;&#30446;" /></node>
<node id="-231" lat="34.061768999" lon="131.02639" visible="true"><tag k="place" v="neighbourhood" /><tag k="name" v="&#28165;&#26411;&#38797;&#39340;&#20108;&#19969;&#30446;" /></node>
<node id="-232" lat="34.064775999" lon="131.0278" visible="true"><tag k="place" v="neighbourhood" /><tag k="name" v="&#28165;&#26411;&#38797;&#39340;&#19977;&#19969;&#30446;" /></node>
<node id="-233" lat="34.065445999" lon="131.025651" visible="true"><tag k="place" v="neighbourhood" /><tag k="name" v="&#28165;&#26411;&#38797;&#39340;&#22235;&#19969;&#30446;" /></node>
<node id="-234" lat="34.068401999" lon="131.023027" visible="true"><tag k="place" v="neighbourhood" /><tag k="name" v="&#28165;&#26411;&#38797;&#39340;&#20116;&#19969;&#30446;" /></node>
<node id="-235" lat="34.055207999" lon="131.021832" visible="true"><tag k="place" v="neighbourhood" /><tag k="name" v="&#28165;&#26411;&#20116;&#27611;&#19968;&#19969;&#30446;" /></node>
<node id="-236" lat="34.066395999" lon="131.021315" visible="true"><tag k="place" v="quarter" /><tag k="name" v="&#28165;&#26411;&#38499;&#23627;" /></node>
<node id="-237" lat="34.055279999" lon="131.016" visible="true"><tag k="place" v="neighbourhood" /><tag k="name" v="&#28165;&#26411;&#21315;&#25151;&#19968;&#19969;&#30446;" /></node>
<node id="-238" lat="34.053298999" lon="131.018116" visible="true"><tag k="place" v="neighbourhood" /><tag k="name" v="&#28165;&#26411;&#21315;&#25151;&#20108;&#19969;&#30446;" /></node>
<node id="-239" lat="34.052315999" lon="131.020646" visible="true"><tag k="place" v="neighbourhood" /><tag k="name" v="&#28165;&#26411;&#21315;&#25151;&#19977;&#19969;&#30446;" /></node>
<node id="-240" lat="34.061713999" lon="131.015663" visible="true"><tag k="place" v="quarter" /><tag k="name" v="&#28165;&#26411;&#22823;&#38272;" /></node>
<node id="-241" lat="34.058311999" lon="131.024186" visible="true"><tag k="place" v="neighbourhood" /><tag k="name" v="&#28165;&#26411;&#20013;&#30010;&#19968;&#19969;&#30446;" /></node>
<node id="-242" lat="34.057356999" lon="131.025696" visible="true"><tag k="place" v="neighbourhood" /><tag k="name" v="&#28165;&#26411;&#20013;&#30010;&#20108;&#19969;&#30446;" /></node>
<node id="-243" lat="34.056172999" lon="131.027437" visible="true"><tag k="place" v="neighbourhood" /><tag k="name" v="&#28165;&#26411;&#20013;&#30010;&#19977;&#19969;&#30446;" /></node>
<node id="-244" lat="34.062829999" lon="131.019704" visible="true"><tag k="place" v="neighbourhood" /><tag k="name" v="&#28165;&#26411;&#35199;&#30010;&#19968;&#19969;&#30446;" /></node>
<node id="-245" lat="34.060277999" lon="131.019627" visible="true"><tag k="place" v="neighbourhood" /><tag k="name" v="&#28165;&#26411;&#35199;&#30010;&#20108;&#19969;&#30446;" /></node>
<node id="-246" lat="34.057266999" lon="131.020639" visible="true"><tag k="place" v="neighbourhood" /><tag k="name" v="&#28165;&#26411;&#35199;&#30010;&#19977;&#19969;&#30446;" /></node>
<node id="-247" lat="34.051458999" lon="131.023568" visible="true"><tag k="place" v="neighbourhood" /><tag k="name" v="&#28165;&#26411;&#26481;&#30010;&#19968;&#19969;&#30446;" /></node>
<node id="-248" lat="34.050212999" lon="131.028094" visible="true"><tag k="place" v="neighbourhood" /><tag k="name" v="&#28165;&#26411;&#26481;&#30010;&#20108;&#19969;&#30446;" /></node>
<node id="-249" lat="34.052150999" lon="131.030666" visible="true"><tag k="place" v="neighbourhood" /><tag k="name" v="&#28165;&#26411;&#26481;&#30010;&#19977;&#19969;&#30446;" /></node>
<node id="-250" lat="34.055407999" lon="131.029794" visible="true"><tag k="place" v="neighbourhood" /><tag k="name" v="&#28165;&#26411;&#26481;&#30010;&#22235;&#19969;&#30446;" /></node>
<node id="-251" lat="34.054781999" lon="131.033454" visible="true"><tag k="place" v="neighbourhood" /><tag k="name" v="&#28165;&#26411;&#26481;&#30010;&#20116;&#19969;&#30446;" /></node>
<node id="-252" lat="34.057885999" lon="131.033983" visible="true"><tag k="place" v="neighbourhood" /><tag k="name" v="&#28165;&#26411;&#26481;&#30010;&#20845;&#19969;&#30446;" /></node>
<node id="-253" lat="34.059594999" lon="131.022475" visible="true"><tag k="place" v="quarter" /><tag k="name" v="&#28165;&#26411;&#26412;&#30010;" /></node>
<node id="-254" lat="33.990535999" lon="130.953311" visible="true"><tag k="place" v="neighbourhood" /><tag k="name" v="&#26976;&#20035;&#19968;&#19969;&#30446;" /></node>
<node id="-255" lat="33.996453999" lon="130.959546" visible="true"><tag k="place" v="neighbourhood" /><tag k="name" v="&#26976;&#20035;&#20108;&#19969;&#30446;" /></node>
<node id="-256" lat="33.998354999" lon="130.970318" visible="true"><tag k="place" v="neighbourhood" /><tag k="name" v="&#26976;&#20035;&#19977;&#19969;&#30446;" /></node>
<node id="-257" lat="34.000857999" lon="130.967258" visible="true"><tag k="place" v="neighbourhood" /><tag k="name" v="&#26976;&#20035;&#22235;&#19969;&#30446;" /></node>
<node id="-258" lat="34.000186999" lon="130.972019" visible="true"><tag k="place" v="neighbourhood" /><tag k="name" v="&#26976;&#20035;&#20116;&#19969;&#30446;" /></node>
<node id="-259" lat="33.989913999" lon="130.942511" visible="true"><tag k="place" v="neighbourhood" /><tag k="name" v="&#29066;&#37326;&#30010;&#19968;&#19969;&#30446;" /></node>
<node id="-260" lat="33.992850999" lon="130.943803" visible="true"><tag k="place" v="neighbourhood" /><tag k="name" v="&#29066;&#37326;&#30010;&#20108;&#19969;&#30446;" /></node>
<node id="-261" lat="33.992892999" lon="130.946269" visible="true"><tag k="place" v="neighbourhood" /><tag k="name" v="&#29066;&#37326;&#30010;&#19977;&#19969;&#30446;" /></node>
<node id="-262" lat="33.995415999" lon="130.942971" visible="true"><tag k="place" v="quarter" /><tag k="name" v="&#29066;&#37326;&#35199;&#30010;" /></node>
<node id="-263" lat="34.041595999" lon="131.064788" visible="true"><tag k="place" v="quarter" /><tag k="name" v="&#24037;&#38936;&#38283;&#20316;" /></node>
<node id="-264" lat="33.965563999" lon="130.932636" visible="true"><tag k="place" v="neighbourhood" /><tag k="name" v="&#21521;&#27915;&#30010;&#19968;&#19969;&#30446;" /></node>
<node id="-265" lat="33.961768999" lon="130.930774" visible="true"><tag k="place" v="neighbourhood" /><tag k="name" v="&#21521;&#27915;&#30010;&#20108;&#19969;&#30446;" /></node>
<node id="-266" lat="33.962412999" lon="130.928877" visible="true"><tag k="place" v="neighbourhood" /><tag k="name" v="&#21521;&#27915;&#30010;&#19977;&#19969;&#30446;" /></node>
<node id="-267" lat="34.076957999" lon="131.070224" visible="true"><tag k="place" v="neighbourhood" /><tag k="name" v="&#26408;&#23627;&#24029;&#19968;&#19969;&#30446;" /></node>
<node id="-268" lat="34.079455999" lon="131.071493" visible="true"><tag k="place" v="neighbourhood" /><tag k="name" v="&#26408;&#23627;&#24029;&#20108;&#19969;&#30446;" /></node>
<node id="-269" lat="34.074224999" lon="131.066176" visible="true"><tag k="place" v="neighbourhood" /><tag k="name" v="&#26408;&#23627;&#24029;&#26412;&#30010;&#19968;&#19969;&#30446;" /></node>
<node id="-270" lat="34.076652999" lon="131.065141" visible="true"><tag k="place" v="neighbourhood" /><tag k="name" v="&#26408;&#23627;&#24029;&#26412;&#30010;&#20108;&#19969;&#30446;" /></node>
<node id="-271" lat="34.077215999" lon="131.060707" visible="true"><tag k="place" v="neighbourhood" /><tag k="name" v="&#26408;&#23627;&#24029;&#26412;&#30010;&#19977;&#19969;&#30446;" /></node>
<node id="-272" lat="34.077486999" lon="131.057211" visible="true"><tag k="place" v="neighbourhood" /><tag k="name" v="&#26408;&#23627;&#24029;&#26412;&#30010;&#22235;&#19969;&#30446;" /></node>
<node id="-273" lat="34.076775999" lon="131.054097" visible="true"><tag k="place" v="neighbourhood" /><tag k="name" v="&#26408;&#23627;&#24029;&#26412;&#30010;&#20116;&#19969;&#30446;" /></node>
<node id="-274" lat="34.072206999" lon="131.063313" visible="true"><tag k="place" v="neighbourhood" /><tag k="name" v="&#26408;&#23627;&#24029;&#21335;&#30010;&#19968;&#19969;&#30446;" /></node>
<node id="-275" lat="34.073048999" lon="131.055403" visible="true"><tag k="place" v="neighbourhood" /><tag k="name" v="&#26408;&#23627;&#24029;&#21335;&#30010;&#20108;&#19969;&#30446;" /></node>
<node id="-276" lat="34.069372999" lon="131.058849" visible="true"><tag k="place" v="neighbourhood" /><tag k="name" v="&#26408;&#23627;&#24029;&#21335;&#30010;&#19977;&#19969;&#30446;" /></node>
<node id="-277" lat="34.070232999" lon="131.053117" visible="true"><tag k="place" v="neighbourhood" /><tag k="name" v="&#26408;&#23627;&#24029;&#21335;&#30010;&#22235;&#19969;&#30446;" /></node>
<node id="-278" lat="33.968883999" lon="130.916361" visible="true"><tag k="place" v="quarter" /><tag k="name" v="&#37329;&#27604;&#32645;&#30010;" /></node>
<node id="-279" lat="33.961888999" lon="130.94355" visible="true"><tag k="place" v="quarter" /><tag k="name" v="&#24184;&#30010;" /></node>
<node id="-280" lat="33.965798999" lon="130.928728" visible="true"><tag k="place" v="quarter" /><tag k="name" v="&#26628;&#30010;" /></node>
<node id="-281" lat="33.960752999" lon="130.922" visible="true"><tag k="place" v="quarter" /><tag k="name" v="&#26716;&#23665;&#30010;" /></node>
<node id="-282" lat="33.953423999" lon="130.927526" visible="true"><tag k="place" v="quarter" /><tag k="name" v="&#31545;&#23665;&#30010;" /></node>
<node id="-283" lat="33.973521999" lon="130.916926" visible="true"><tag k="place" v="quarter" /><tag k="name" v="&#27728;&#20837;&#30010;" /></node>
<node id="-284" lat="34.003260999" lon="130.969168" visible="true"><tag k="place" v="neighbourhood" /><tag k="name" v="&#21213;&#35895;&#26032;&#30010;&#19968;&#19969;&#30446;" /></node>
<node id="-285" lat="34.006224999" lon="130.969787" visible="true"><tag k="place" v="neighbourhood" /><tag k="name" v="&#21213;&#35895;&#26032;&#30010;&#20108;&#19969;&#30446;" /></node>
<node id="-286" lat="34.006018999" lon="130.97184" visible="true"><tag k="place" v="neighbourhood" /><tag k="name" v="&#21213;&#35895;&#26032;&#30010;&#19977;&#19969;&#30446;" /></node>
<node id="-287" lat="34.005685999" lon="130.974609" visible="true"><tag k="place" v="neighbourhood" /><tag k="name" v="&#21213;&#35895;&#26032;&#30010;&#22235;&#19969;&#30446;" /></node>
<node id="-288" lat="34.058802999" lon="131.041264" visible="true"><tag k="place" v="neighbourhood" /><tag k="name" v="&#30333;&#23822;&#19968;&#19969;&#30446;" /></node>
<node id="-289" lat="34.056141999" lon="131.045096" visible="true"><tag k="place" v="neighbourhood" /><tag k="name" v="&#30333;&#23822;&#20108;&#19969;&#30446;" /></node>
<node id="-290" lat="34.059576999" lon="131.048305" visible="true"><tag k="place" v="neighbourhood" /><tag k="name" v="&#30333;&#23822;&#19977;&#19969;&#30446;" /></node>
<node id="-291" lat="34.055778999" lon="131.050622" visible="true"><tag k="place" v="neighbourhood" /><tag k="name" v="&#30333;&#23822;&#22235;&#19969;&#30446;" /></node>
<node id="-292" lat="33.987734999" lon="130.91398" visible="true"><tag k="place" v="neighbourhood" /><tag k="name" v="&#26032;&#22434;&#30000;&#35199;&#30010;&#19968;&#19969;&#30446;" /></node>
<node id="-293" lat="33.987191999" lon="130.912764" visible="true"><tag k="place" v="neighbourhood" /><tag k="name" v="&#26032;&#22434;&#30000;&#35199;&#30010;&#19977;&#19969;&#30446;" /></node>
<node id="-294" lat="33.989152999" lon="130.910771" visible="true"><tag k="place" v="neighbourhood" /><tag k="name" v="&#26032;&#22434;&#30000;&#35199;&#30010;&#22235;&#19969;&#30446;" /></node>
<node id="-295" lat="33.988802999" lon="130.915807" visible="true"><tag k="place" v="neighbourhood" /><tag k="name" v="&#26032;&#22434;&#30000;&#26481;&#30010;&#19968;&#19969;&#30446;" /></node>
<node id="-296" lat="33.955773999" lon="130.921246" visible="true"><tag k="place" v="quarter" /><tag k="name" v="&#26032;&#22320;&#30010;" /></node>
<node id="-297" lat="33.956728999" lon="130.91997" visible="true"><tag k="place" v="quarter" /><tag k="name" v="&#26032;&#22320;&#35199;&#30010;" /></node>
<node id="-298" lat="33.983394999" lon="130.947279" visible="true"><tag k="place" v="neighbourhood" /><tag k="name" v="&#26032;&#26891;&#37326;&#19968;&#19969;&#30446;" /></node>
<node id="-299" lat="33.982153999" lon="130.944993" visible="true"><tag k="place" v="neighbourhood" /><tag k="name" v="&#26032;&#26891;&#37326;&#20108;&#19969;&#30446;" /></node>
<node id="-300" lat="33.984506999" lon="130.944244" visible="true"><tag k="place" v="neighbourhood" /><tag k="name" v="&#26032;&#26891;&#37326;&#19977;&#19969;&#30446;" /></node>
<node id="-301" lat="33.961463999" lon="130.913001" visible="true"><tag k="place" v="quarter" /><tag k="name" v="&#31563;&#12465;&#27996;&#30010;" /></node>
<node id="-302" lat="33.965445999" lon="130.915721" visible="true"><tag k="place" v="quarter" /><tag k="name" v="&#31563;&#24029;&#30010;" /></node>
<node id="-303" lat="33.986273999" lon="130.933312" visible="true"><tag k="place" v="neighbourhood" /><tag k="name" v="&#22823;&#23398;&#30010;&#19968;&#19969;&#30446;" /></node>
<node id="-304" lat="33.988335999" lon="130.933943" visible="true"><tag k="place" v="neighbourhood" /><tag k="name" v="&#22823;&#23398;&#30010;&#20108;&#19969;&#30446;" /></node>
<node id="-305" lat="33.990398999" lon="130.93623" visible="true"><tag k="place" v="neighbourhood" /><tag k="name" v="&#22823;&#23398;&#30010;&#19977;&#19969;&#30446;" /></node>
<node id="-306" lat="33.992097999" lon="130.937309" visible="true"><tag k="place" v="neighbourhood" /><tag k="name" v="&#22823;&#23398;&#30010;&#22235;&#19969;&#30446;" /></node>
<node id="-307" lat="33.987305999" lon="130.937739" visible="true"><tag k="place" v="neighbourhood" /><tag k="name" v="&#22823;&#23398;&#30010;&#20116;&#19969;&#30446;" /></node>
<node id="-308" lat="33.963946999" lon="130.918878" visible="true"><tag k="place" v="quarter" /><tag k="name" v="&#22823;&#24179;&#30010;" /></node>
<node id="-309" lat="33.982175999" lon="130.939673" visible="true"><tag k="place" v="quarter" /><tag k="name" v="&#23453;&#30010;" /></node>
<node id="-310" lat="34.015726999" lon="130.974004" visible="true"><tag k="place" v="neighbourhood" /><tag k="name" v="&#30000;&#20489;&#24481;&#27583;&#30010;&#19968;&#19969;&#30446;" /></node>
<node id="-311" lat="34.015637999" lon="130.975167" visible="true"><tag k="place" v="neighbourhood" /><tag k="name" v="&#30000;&#20489;&#24481;&#27583;&#30010;&#20108;&#19969;&#30446;" /></node>
<node id="-312" lat="33.952444999" lon="130.925817" visible="true"><tag k="place" v="neighbourhood" /><tag k="name" v="&#31481;&#23822;&#30010;&#19968;&#19969;&#30446;" /></node>
<node id="-313" lat="33.952535999" lon="130.924178" visible="true"><tag k="place" v="neighbourhood" /><tag k="name" v="&#31481;&#23822;&#30010;&#20108;&#19969;&#30446;" /></node>
<node id="-314" lat="33.952423999" lon="130.921502" visible="true"><tag k="place" v="neighbourhood" /><tag k="name" v="&#31481;&#23822;&#30010;&#19977;&#19969;&#30446;" /></node>
<node id="-315" lat="33.949554999" lon="130.924361" visible="true"><tag k="place" v="neighbourhood" /><tag k="name" v="&#31481;&#23822;&#30010;&#22235;&#19969;&#30446;" /></node>
<node id="-316" lat="33.959753999" lon="130.941045" visible="true"><tag k="place" v="quarter" /><tag k="name" v="&#30000;&#20013;&#30010;" /></node>
<node id="-317" lat="33.962797999" lon="130.953519" visible="true"><tag k="place" v="quarter" /><tag k="name" v="&#22727;&#20043;&#28006;&#30010;" /></node>
<node id="-318" lat="34.032694999" lon="131.006576" visible="true"><tag k="place" v="quarter" /><tag k="name" v="&#21315;&#40165;&#12465;&#19992;&#30010;" /></node>
<node id="-319" lat="34.036161999" lon="131.02016" visible="true"><tag k="place" v="quarter" /><tag k="name" v="&#21315;&#40165;&#27996;&#30010;" /></node>
<node id="-320" lat="33.961431999" lon="130.928602" visible="true"><tag k="place" v="quarter" /><tag k="name" v="&#20013;&#22830;&#30010;" /></node>
<node id="-321" lat="34.007804999" lon="130.98266" visible="true"><tag k="place" v="neighbourhood" /><tag k="name" v="&#38263;&#24220;&#23433;&#39178;&#23546;&#19968;&#19969;&#30446;" /></node>
<node id="-322" lat="34.002939999" lon="130.982313" visible="true"><tag k="place" v="neighbourhood" /><tag k="name" v="&#38263;&#24220;&#23433;&#39178;&#23546;&#20108;&#19969;&#30446;" /></node>
<node id="-323" lat="34.001116999" lon="130.982605" visible="true"><tag k="place" v="neighbourhood" /><tag k="name" v="&#38263;&#24220;&#23433;&#39178;&#23546;&#19977;&#19969;&#30446;" /></node>
<node id="-324" lat="34.003530999" lon="130.984599" visible="true"><tag k="place" v="neighbourhood" /><tag k="name" v="&#38263;&#24220;&#23433;&#39178;&#23546;&#22235;&#19969;&#30446;" /></node>
<node id="-325" lat="34.004838999" lon="130.992081" visible="true"><tag k="place" v="quarter" /><tag k="name" v="&#38263;&#24220;&#21360;&#20869;&#30010;" /></node>
<node id="-326" lat="34.012375999" lon="130.996005" visible="true"><tag k="place" v="quarter" /><tag k="name" v="&#38263;&#24220;&#27743;&#19979;&#30010;" /></node>
<node id="-327" lat="34.018591999" lon="131.013276" visible="true"><tag k="place" v="quarter" /><tag k="name" v="&#38263;&#24220;&#25159;&#30010;" /></node>
<node id="-328" lat="33.998543999" lon="130.979805" visible="true"><tag k="place" v="quarter" /><tag k="name" v="&#38263;&#24220;&#36898;&#22338;&#30010;" /></node>
<node id="-329" lat="34.002331999" lon="130.989994" visible="true"><tag k="place" v="quarter" /><tag k="name" v="&#38263;&#24220;&#37329;&#23627;&#30010;" /></node>
<node id="-330" lat="34.001944999" lon="130.99128" visible="true"><tag k="place" v="quarter" /><tag k="name" v="&#38263;&#24220;&#37329;&#23627;&#27996;&#30010;" /></node>
<node id="-331" lat="34.001119999" lon="130.987653" visible="true"><tag k="place" v="neighbourhood" /><tag k="name" v="&#38263;&#24220;&#20096;&#12398;&#30002;&#19968;&#19969;&#30446;" /></node>
<node id="-332" lat="34.002752999" lon="130.987417" visible="true"><tag k="place" v="neighbourhood" /><tag k="name" v="&#38263;&#24220;&#20096;&#12398;&#30002;&#20108;&#19969;&#30446;" /></node>
<node id="-333" lat="33.995685999" lon="130.981889" visible="true"><tag k="place" v="neighbourhood" /><tag k="name" v="&#38263;&#24220;&#24029;&#31471;&#19968;&#19969;&#30446;" /></node>
<node id="-334" lat="33.993939999" lon="130.983815" visible="true"><tag k="place" v="neighbourhood" /><tag k="name" v="&#38263;&#24220;&#24029;&#31471;&#20108;&#19969;&#30446;" /></node>
<node id="-335" lat="33.984612999" lon="130.9841" visible="true"><tag k="place" v="quarter" /><tag k="name" v="&#38263;&#24220;&#40658;&#38272;&#30010;" /></node>
<node id="-336" lat="33.989997999" lon="130.989613" visible="true"><tag k="place" v="quarter" /><tag k="name" v="&#38263;&#24220;&#40658;&#38272;&#26481;&#30010;" /></node>
<node id="-337" lat="33.986132999" lon="130.986815" visible="true"><tag k="place" v="quarter" /><tag k="name" v="&#38263;&#24220;&#40658;&#38272;&#21335;&#30010;" /></node>
<node id="-338" lat="34.011044999" lon="130.992795" visible="true"><tag k="place" v="quarter" /><tag k="name" v="&#38263;&#24220;&#21476;&#22478;&#30010;" /></node>
<node id="-339" lat="34.001665999" lon="130.986024" visible="true"><tag k="place" v="quarter" /><tag k="name" v="&#38263;&#24220;&#32058;&#23627;&#30010;" /></node>
<node id="-340" lat="34.024084999" lon="131.003613" visible="true"><tag k="place" v="neighbourhood" /><tag k="name" v="&#38263;&#24220;&#25165;&#24029;&#20108;&#19969;&#30446;" /></node>
<node id="-341" lat="33.994204999" lon="130.986756" visible="true"><tag k="place" v="neighbourhood" /><tag k="name" v="&#38263;&#24220;&#20365;&#30010;&#19968;&#19969;&#30446;" /></node>
<node id="-342" lat="33.995398999" lon="130.98968" visible="true"><tag k="place" v="neighbourhood" /><tag k="name" v="&#38263;&#24220;&#20365;&#30010;&#20108;&#19969;&#30446;" /></node>
<node id="-343" lat="34.018753999" lon="130.985998" visible="true"><tag k="place" v="quarter" /><tag k="name" v="&#38263;&#24220;&#22235;&#29579;&#21496;&#30010;" /></node>
<node id="-344" lat="34.018853999" lon="130.983673" visible="true"><tag k="place" v="quarter" /><tag k="name" v="&#38263;&#24220;&#26032;&#22235;&#29579;&#21496;&#30010;" /></node>
<node id="-345" lat="33.992315999" lon="130.988805" visible="true"><tag k="place" v="quarter" /><tag k="name" v="&#38263;&#24220;&#26032;&#26494;&#21407;&#30010;" /></node>
<node id="-346" lat="33.997193999" lon="130.985528" visible="true"><tag k="place" v="quarter" /><tag k="name" v="&#38263;&#24220;&#24803;&#31038;&#30010;" /></node>
<node id="-347" lat="33.987831999" lon="130.991804" visible="true"><tag k="place" v="quarter" /><tag k="name" v="&#38263;&#24220;&#22806;&#28006;&#30010;" /></node>
<node id="-348" lat="33.978771999" lon="130.976913" visible="true"><tag k="place" v="quarter" /><tag k="name" v="&#38263;&#24220;&#39640;&#22580;&#30010;" /></node>
<node id="-349" lat="34.007501999" lon="130.978398" visible="true"><tag k="place" v="quarter" /><tag k="name" v="&#38263;&#24220;&#29664;&#12398;&#28006;&#30010;" /></node>
<node id="-350" lat="33.999193999" lon="130.989662" visible="true"><tag k="place" v="quarter" /><tag k="name" v="&#38263;&#24220;&#22303;&#23621;&#12398;&#20869;&#30010;" /></node>
<node id="-351" lat="34.010313999" lon="130.989083" visible="true"><tag k="place" v="quarter" /><tag k="name" v="&#38263;&#24220;&#35914;&#28006;&#30010;" /></node>
<node id="-352" lat="34.009276999" lon="130.986403" visible="true"><tag k="place" v="quarter" /><tag k="name" v="&#38263;&#24220;&#20013;&#23614;&#30010;" /></node>
<node id="-353" lat="34.007613999" lon="130.987849" visible="true"><tag k="place" v="quarter" /><tag k="name" v="&#38263;&#24220;&#20013;&#22303;&#23621;&#21271;&#30010;" /></node>
<node id="-354" lat="34.006157999" lon="130.989871" visible="true"><tag k="place" v="quarter" /><tag k="name" v="&#38263;&#24220;&#20013;&#22303;&#23621;&#26412;&#30010;" /></node>
<node id="-355" lat="34.000362999" lon="130.990061" visible="true"><tag k="place" v="quarter" /><tag k="name" v="&#38263;&#24220;&#20013;&#20043;&#30010;" /></node>
<node id="-356" lat="33.998227999" lon="130.989329" visible="true"><tag k="place" v="quarter" /><tag k="name" v="&#38263;&#24220;&#20013;&#27996;&#30010;" /></node>
<node id="-357" lat="34.012738999" lon="130.992212" visible="true"><tag k="place" v="quarter" /><tag k="name" v="&#38263;&#24220;&#20013;&#20845;&#27874;&#30010;" /></node>
<node id="-358" lat="33.990858999" lon="130.979734" visible="true"><tag k="place" v="quarter" /><tag k="name" v="&#38263;&#24220;&#37326;&#20037;&#30041;&#31859;&#30010;" /></node>
<node id="-359" lat="33.989682999" lon="130.987105" visible="true"><tag k="place" v="quarter" /><tag k="name" v="&#38263;&#24220;&#32701;&#34915;&#30010;" /></node>
<node id="-360" lat="33.989243999" lon="130.985296" visible="true"><tag k="place" v="quarter" /><tag k="name" v="&#38263;&#24220;&#32701;&#34915;&#21335;&#30010;" /></node>
<node id="-361" lat="33.983307999" lon="130.979879" visible="true"><tag k="place" v="quarter" /><tag k="name" v="&#38263;&#24220;&#27996;&#28006;&#30010;" /></node>
<node id="-362" lat="33.986508999" lon="130.978416" visible="true"><tag k="place" v="quarter" /><tag k="name" v="&#38263;&#24220;&#27996;&#28006;&#35199;&#30010;" /></node>
<node id="-363" lat="33.980382999" lon="130.977591" visible="true"><tag k="place" v="quarter" /><tag k="name" v="&#38263;&#24220;&#27996;&#28006;&#21335;&#30010;" /></node>
<node id="-364" lat="33.994878999" lon="130.992249" visible="true"><tag k="place" v="quarter" /><tag k="name" v="&#38263;&#24220;&#26481;&#20365;&#30010;" /></node>
<node id="-365" lat="34.015126999" lon="130.993785" visible="true"><tag k="place" v="quarter" /><tag k="name" v="&#38263;&#24220;&#26085;&#12398;&#20986;&#30010;" /></node>
<node id="-366" lat="33.998249999" lon="130.985662" visible="true"><tag k="place" v="quarter" /><tag k="name" v="&#38263;&#24220;&#21476;&#27743;&#23567;&#36335;&#30010;" /></node>
<node id="-367" lat="34.014429999" lon="130.989947" visible="true"><tag k="place" v="quarter" /><tag k="name" v="&#38263;&#24220;&#35914;&#22478;&#30010;" /></node>
<node id="-368" lat="34.007642999" lon="130.993414" visible="true"><tag k="place" v="quarter" /><tag k="name" v="&#38263;&#24220;&#21069;&#20843;&#24161;&#30010;" /></node>
<node id="-369" lat="34.022133999" lon="130.997916" visible="true"><tag k="place" v="quarter" /><tag k="name" v="&#38263;&#24220;&#26494;&#23567;&#30000;&#21271;&#30010;" /></node>
<node id="-370" lat="34.019067999" lon="130.99433" visible="true"><tag k="place" v="quarter" /><tag k="name" v="&#38263;&#24220;&#26494;&#23567;&#30000;&#20013;&#30010;" /></node>
<node id="-371" lat="34.017489999" lon="130.988973" visible="true"><tag k="place" v="quarter" /><tag k="name" v="&#38263;&#24220;&#26494;&#23567;&#30000;&#35199;&#30010;" /></node>
<node id="-372" lat="34.019204999" lon="131.00314" visible="true"><tag k="place" v="quarter" /><tag k="name" v="&#38263;&#24220;&#26494;&#23567;&#30000;&#26481;&#30010;" /></node>
<node id="-373" lat="34.017584999" lon="130.999499" visible="true"><tag k="place" v="quarter" /><tag k="name" v="&#38263;&#24220;&#26494;&#23567;&#30000;&#26412;&#30010;" /></node>
<node id="-374" lat="34.016015999" lon="130.996408" visible="true"><tag k="place" v="quarter" /><tag k="name" v="&#38263;&#24220;&#26494;&#23567;&#30000;&#21335;&#30010;" /></node>
<node id="-375" lat="33.993246999" lon="130.990134" visible="true"><tag k="place" v="quarter" /><tag k="name" v="&#38263;&#24220;&#26494;&#21407;&#30010;" /></node>
<node id="-376" lat="34.012782999" lon="130.98418" visible="true"><tag k="place" v="quarter" /><tag k="name" v="&#38263;&#24220;&#28288;&#29664;&#26032;&#30010;" /></node>
<node id="-377" lat="34.013786999" lon="130.988386" visible="true"><tag k="place" v="quarter" /><tag k="name" v="&#38263;&#24220;&#28288;&#29664;&#30010;" /></node>
<node id="-378" lat="34.005673999" lon="130.985816" visible="true"><tag k="place" v="quarter" /><tag k="name" v="&#38263;&#24220;&#19977;&#23798;&#30010;" /></node>
<node id="-379" lat="34.006674999" lon="130.997714" visible="true"><tag k="place" v="quarter" /><tag k="name" v="&#38263;&#24220;&#28207;&#30010;" /></node>
<node id="-380" lat="33.997143999" lon="130.989286" visible="true"><tag k="place" v="quarter" /><tag k="name" v="&#38263;&#24220;&#21335;&#20043;&#30010;" /></node>
<node id="-381" lat="33.991374999" lon="130.993487" visible="true"><tag k="place" v="quarter" /><tag k="name" v="&#38263;&#24220;&#23470;&#23822;&#30010;" /></node>
<node id="-382" lat="33.999634999" lon="130.98573" visible="true"><tag k="place" v="quarter" /><tag k="name" v="&#38263;&#24220;&#23470;&#12398;&#20869;&#30010;" /></node>
<node id="-383" lat="33.981856999" lon="130.975537" visible="true"><tag k="place" v="quarter" /><tag k="name" v="&#38263;&#24220;&#21521;&#30000;&#30010;" /></node>
<node id="-384" lat="34.009340999" lon="130.993877" visible="true"><tag k="place" v="quarter" /><tag k="name" v="&#38263;&#24220;&#20843;&#24161;&#30010;" /></node>
<node id="-385" lat="34.023437999" lon="130.919856" visible="true"><tag k="place" v="neighbourhood" /><tag k="name" v="&#23500;&#20219;&#30010;&#22235;&#19969;&#30446;" /></node>
<node id="-386" lat="34.023509999" lon="130.924112" visible="true"><tag k="place" v="neighbourhood" /><tag k="name" v="&#23500;&#20219;&#30010;&#20116;&#19969;&#30446;" /></node>
<node id="-387" lat="34.019645999" lon="130.923277" visible="true"><tag k="place" v="neighbourhood" /><tag k="name" v="&#23500;&#20219;&#30010;&#20845;&#19969;&#30446;" /></node>
<node id="-388" lat="34.019612999" lon="130.926062" visible="true"><tag k="place" v="neighbourhood" /><tag k="name" v="&#23500;&#20219;&#30010;&#19971;&#19969;&#30446;" /></node>
<node id="-389" lat="34.022439999" lon="130.928965" visible="true"><tag k="place" v="neighbourhood" /><tag k="name" v="&#23500;&#20219;&#30010;&#20843;&#19969;&#30446;" /></node>
<node id="-390" lat="34.110441999" lon="130.903197" visible="true"><tag k="place" v="quarter" /><tag k="name" v="&#35914;&#28006;&#30010;&#22823;&#23383;&#21402;&#27597;&#37111;" /></node>
<node id="-391" lat="34.217778999" lon="130.938231" visible="true"><tag k="place" v="quarter" /><tag k="name" v="&#35914;&#28006;&#30010;&#22823;&#23383;&#23431;&#36032;" /></node>
<node id="-392" lat="34.168089999" lon="130.957235" visible="true"><tag k="place" v="quarter" /><tag k="name" v="&#35914;&#28006;&#30010;&#22823;&#23383;&#24029;&#26842;" /></node>
<node id="-393" lat="34.119258999" lon="130.920681" visible="true"><tag k="place" v="quarter" /><tag k="name" v="&#35914;&#28006;&#30010;&#22823;&#23383;&#40658;&#20117;" /></node>
<node id="-394" lat="34.176767999" lon="130.937634" visible="true"><tag k="place" v="quarter" /><tag k="name" v="&#35914;&#28006;&#30010;&#22823;&#23383;&#23567;&#20018;" /></node>
<node id="-395" lat="34.117467999" lon="130.880802" visible="true"><tag k="place" v="quarter" /><tag k="name" v="&#35914;&#28006;&#30010;&#22823;&#23383;&#23460;&#27941;&#19978;" /></node>
<node id="-396" lat="34.132429999" lon="130.881898" visible="true"><tag k="place" v="quarter" /><tag k="name" v="&#35914;&#28006;&#30010;&#22823;&#23383;&#23460;&#27941;&#19979;" /></node>
<node id="-397" lat="34.129700999" lon="130.925863" visible="true"><tag k="place" v="quarter" /><tag k="name" v="&#35914;&#28006;&#30010;&#22823;&#23383;&#21513;&#27704;" /></node>
<node id="-398" lat="34.148393999" lon="130.907792" visible="true"><tag k="place" v="quarter" /><tag k="name" v="&#35914;&#28006;&#30010;&#22823;&#23383;&#28044;&#30000;&#24460;&#22320;" /></node>
<node id="-399" lat="34.114925999" lon="130.910463" visible="true"><tag k="place" v="neighbourhood" /><tag k="name" v="&#35914;&#28006;&#30010;&#35914;&#27915;&#21488;&#19968;&#19969;&#30446;" /></node>
<node id="-400" lat="34.115916999" lon="130.912924" visible="true"><tag k="place" v="neighbourhood" /><tag k="name" v="&#35914;&#28006;&#30010;&#35914;&#27915;&#21488;&#20108;&#19969;&#30446;" /></node>
<node id="-401" lat="34.112321999" lon="130.913531" visible="true"><tag k="place" v="neighbourhood" /><tag k="name" v="&#35914;&#28006;&#30010;&#35914;&#27915;&#21488;&#19977;&#19969;&#30446;" /></node>
<node id="-402" lat="34.118956999" lon="130.910983" visible="true"><tag k="place" v="quarter" /><tag k="name" v="&#35914;&#28006;&#30010;&#35914;&#27915;&#21488;&#26032;&#30010;" /></node>
<node id="-403" lat="34.193084999" lon="131.056749" visible="true"><tag k="place" v="quarter" /><tag k="name" v="&#35914;&#30000;&#30010;&#22823;&#23383;&#38463;&#24231;&#19978;" /></node>
<node id="-404" lat="34.254290999" lon="131.047742" visible="true"><tag k="place" v="quarter" /><tag k="name" v="&#35914;&#30000;&#30010;&#22823;&#23383;&#33618;&#26408;" /></node>
<node id="-405" lat="34.283485999" lon="131.05762" visible="true"><tag k="place" v="quarter" /><tag k="name" v="&#35914;&#30000;&#30010;&#22823;&#23383;&#19968;&#12494;&#20451;" /></node>
<node id="-406" lat="34.246479999" lon="131.092779" visible="true"><tag k="place" v="quarter" /><tag k="name" v="&#35914;&#30000;&#30010;&#22823;&#23383;&#31282;&#35211;" /></node>
<node id="-407" lat="34.182598999" lon="131.083458" visible="true"><tag k="place" v="quarter" /><tag k="name" v="&#35914;&#30000;&#30010;&#22823;&#23383;&#31282;&#20809;" /></node>
<node id="-408" lat="34.248731999" lon="131.149384" visible="true"><tag k="place" v="quarter" /><tag k="name" v="&#35914;&#30000;&#30010;&#22823;&#23383;&#20170;&#20986;" /></node>
<node id="-409" lat="34.241201999" lon="131.049311" visible="true"><tag k="place" v="quarter" /><tag k="name" v="&#35914;&#30000;&#30010;&#22823;&#23383;&#28014;&#30707;" /></node>
<node id="-410" lat="34.239544999" lon="131.076311" visible="true"><tag k="place" v="quarter" /><tag k="name" v="&#35914;&#30000;&#30010;&#22823;&#23383;&#23431;&#20869;" /></node>
<node id="-411" lat="34.180024999" lon="131.04404" visible="true"><tag k="place" v="quarter" /><tag k="name" v="&#35914;&#30000;&#30010;&#22823;&#23383;&#27743;&#33391;" /></node>
<node id="-412" lat="34.225926999" lon="131.121628" visible="true"><tag k="place" v="quarter" /><tag k="name" v="&#35914;&#30000;&#30010;&#22823;&#23383;&#22823;&#27827;&#20869;" /></node>
<node id="-413" lat="34.156303999" lon="131.065395" visible="true"><tag k="place" v="quarter" /><tag k="name" v="&#35914;&#30000;&#30010;&#22823;&#23383;&#22478;&#25144;" /></node>
<node id="-414" lat="34.226803999" lon="131.068506" visible="true"><tag k="place" v="quarter" /><tag k="name" v="&#35914;&#30000;&#30010;&#22823;&#23383;&#37329;&#36947;" /></node>
<node id="-415" lat="34.264335999" lon="131.046997" visible="true"><tag k="place" v="quarter" /><tag k="name" v="&#35914;&#30000;&#30010;&#22823;&#23383;&#20304;&#37326;" /></node>
<node id="-416" lat="34.251559999" lon="131.118632" visible="true"><tag k="place" v="quarter" /><tag k="name" v="&#35914;&#30000;&#30010;&#22823;&#23383;&#22320;&#21513;" /></node>
<node id="-417" lat="34.206036999" lon="131.03923" visible="true"><tag k="place" v="quarter" /><tag k="name" v="&#35914;&#30000;&#30010;&#22823;&#23383;&#40441;&#23376;" /></node>
<node id="-418" lat="34.169469999" lon="131.073104" visible="true"><tag k="place" v="quarter" /><tag k="name" v="&#35914;&#30000;&#30010;&#22823;&#23383;&#39640;&#23665;" /></node>
<node id="-419" lat="34.178893999" lon="131.06687" visible="true"><tag k="place" v="quarter" /><tag k="name" v="&#35914;&#30000;&#30010;&#22823;&#23383;&#25163;&#27927;" /></node>
<node id="-420" lat="34.266251999" lon="131.029833" visible="true"><tag k="place" v="quarter" /><tag k="name" v="&#35914;&#30000;&#30010;&#22823;&#23383;&#27583;&#23621;" /></node>
<node id="-421" lat="34.193709999" lon="131.091911" visible="true"><tag k="place" v="quarter" /><tag k="name" v="&#35914;&#30000;&#30010;&#22823;&#23383;&#27583;&#25975;" /></node>
<node id="-422" lat="34.191703999" lon="131.07184" visible="true"><tag k="place" v="quarter" /><tag k="name" v="&#35914;&#30000;&#30010;&#22823;&#23383;&#20013;&#26449;" /></node>
<node id="-423" lat="34.213059999" lon="131.089122" visible="true"><tag k="place" v="quarter" /><tag k="name" v="&#35914;&#30000;&#30010;&#22823;&#23383;&#26978;&#21407;" /></node>
<node id="-424" lat="34.202334999" lon="131.075424" visible="true"><tag k="place" v="quarter" /><tag k="name" v="&#35914;&#30000;&#30010;&#22823;&#23383;&#35199;&#24066;" /></node>
<node id="-425" lat="34.171473999" lon="131.055081" visible="true"><tag k="place" v="quarter" /><tag k="name" v="&#35914;&#30000;&#30010;&#22823;&#23383;&#35199;&#38263;&#37326;" /></node>
<node id="-426" lat="34.201045999" lon="131.057897" visible="true"><tag k="place" v="quarter" /><tag k="name" v="&#35914;&#30000;&#30010;&#22823;&#23383;&#24237;&#30000;" /></node>
<node id="-427" lat="34.159532999" lon="131.083488" visible="true"><tag k="place" v="quarter" /><tag k="name" v="&#35914;&#30000;&#30010;&#22823;&#23383;&#33833;&#21407;" /></node>
<node id="-428" lat="34.168273999" lon="131.061996" visible="true"><tag k="place" v="quarter" /><tag k="name" v="&#35914;&#30000;&#30010;&#22823;&#23383;&#26481;&#38263;&#37326;" /></node>
<node id="-429" lat="34.174687999" lon="131.081706" visible="true"><tag k="place" v="quarter" /><tag k="name" v="&#35914;&#30000;&#30010;&#22823;&#23383;&#26085;&#37326;" /></node>
<node id="-430" lat="34.216145999" lon="131.001653" visible="true"><tag k="place" v="quarter" /><tag k="name" v="&#35914;&#30000;&#30010;&#22823;&#23383;&#26466;&#36335;&#23376;" /></node>
<node id="-431" lat="34.218343999" lon="131.059997" visible="true"><tag k="place" v="quarter" /><tag k="name" v="&#35914;&#30000;&#30010;&#22823;&#23383;&#20843;&#36947;" /></node>
<node id="-432" lat="34.202243999" lon="131.070797" visible="true"><tag k="place" v="quarter" /><tag k="name" v="&#35914;&#30000;&#30010;&#22823;&#23383;&#30690;&#30000;" /></node>
<node id="-433" lat="33.954961999" lon="130.926029" visible="true"><tag k="place" v="quarter" /><tag k="name" v="&#38263;&#23822;&#26032;&#30010;" /></node>
<node id="-434" lat="33.956037999" lon="130.929242" visible="true"><tag k="place" v="quarter" /><tag k="name" v="&#38263;&#23822;&#20013;&#22830;&#30010;" /></node>
<node id="-435" lat="33.957820999" lon="130.923553" visible="true"><tag k="place" v="neighbourhood" /><tag k="name" v="&#38263;&#23822;&#30010;&#19968;&#19969;&#30446;" /></node>
<node id="-436" lat="33.956777999" lon="130.924862" visible="true"><tag k="place" v="quarter" /><tag k="name" v="&#38263;&#23822;&#26412;&#30010;" /></node>
<node id="-437" lat="34.072622999" lon="130.895829" visible="true"><tag k="place" v="neighbourhood" /><tag k="name" v="&#27704;&#30000;&#26412;&#30010;&#19968;&#19969;&#30446;" /></node>
<node id="-438" lat="34.071182999" lon="130.893494" visible="true"><tag k="place" v="neighbourhood" /><tag k="name" v="&#27704;&#30000;&#26412;&#30010;&#20108;&#19969;&#30446;" /></node>
<node id="-439" lat="34.075953999" lon="130.893709" visible="true"><tag k="place" v="neighbourhood" /><tag k="name" v="&#27704;&#30000;&#26412;&#30010;&#19977;&#19969;&#30446;" /></node>
<node id="-440" lat="34.069513999" lon="130.890357" visible="true"><tag k="place" v="neighbourhood" /><tag k="name" v="&#27704;&#30000;&#26412;&#30010;&#22235;&#19969;&#30446;" /></node>
<node id="-441" lat="33.954038999" lon="130.925265" visible="true"><tag k="place" v="quarter" /><tag k="name" v="&#38263;&#38272;&#30010;" /></node>
<node id="-442" lat="33.958165999" lon="130.945306" visible="true"><tag k="place" v="quarter" /><tag k="name" v="&#20013;&#20043;&#30010;" /></node>
<node id="-443" lat="33.955762999" lon="130.940383" visible="true"><tag k="place" v="quarter" /><tag k="name" v="&#21335;&#37096;&#30010;" /></node>
<node id="-444" lat="33.953942999" lon="130.933709" visible="true"><tag k="place" v="quarter" /><tag k="name" v="&#35199;&#20837;&#27743;&#30010;" /></node>
<node id="-445" lat="33.962552999" lon="130.916647" visible="true"><tag k="place" v="quarter" /><tag k="name" v="&#35199;&#22823;&#22378;&#30010;" /></node>
<node id="-446" lat="33.960128999" lon="130.923608" visible="true"><tag k="place" v="quarter" /><tag k="name" v="&#35199;&#31070;&#30000;&#30010;" /></node>
<node id="-447" lat="34.047359999" lon="131.003055" visible="true"><tag k="place" v="quarter" /><tag k="name" v="&#35199;&#35251;&#38899;&#30010;" /></node>
<node id="-448" lat="34.044345999" lon="131.023924" visible="true"><tag k="place" v="neighbourhood" /><tag k="name" v="&#20035;&#26408;&#27996;&#19968;&#19969;&#30446;" /></node>
<node id="-449" lat="34.041974999" lon="131.028728" visible="true"><tag k="place" v="neighbourhood" /><tag k="name" v="&#20035;&#26408;&#27996;&#20108;&#19969;&#30446;" /></node>
<node id="-450" lat="34.039453999" lon="131.02392" visible="true"><tag k="place" v="neighbourhood" /><tag k="name" v="&#20035;&#26408;&#27996;&#19977;&#19969;&#30446;" /></node>
<node id="-451" lat="33.977614999" lon="130.939175" visible="true"><tag k="place" v="neighbourhood" /><tag k="name" v="&#24161;&#29983;&#30010;&#19968;&#19969;&#30446;" /></node>
<node id="-452" lat="33.977859999" lon="130.93285" visible="true"><tag k="place" v="neighbourhood" /><tag k="name" v="&#24161;&#29983;&#30010;&#20108;&#19969;&#30446;" /></node>
<node id="-453" lat="33.951570999" lon="130.935162" visible="true"><tag k="place" v="quarter" /><tag k="name" v="&#23724;&#20043;&#30010;" /></node>
<node id="-454" lat="33.996451999" lon="130.931754" visible="true"><tag k="place" v="quarter" /><tag k="name" v="&#31255;&#30000;&#21271;&#30010;" /></node>
<node id="-455" lat="33.994534999" lon="130.931114" visible="true"><tag k="place" v="quarter" /><tag k="name" v="&#31255;&#30000;&#30010;" /></node>
<node id="-456" lat="33.995480999" lon="130.927827" visible="true"><tag k="place" v="quarter" /><tag k="name" v="&#31255;&#30000;&#20013;&#30010;" /></node>
<node id="-457" lat="33.999155999" lon="130.927424" visible="true"><tag k="place" v="quarter" /><tag k="name" v="&#31255;&#30000;&#35199;&#30010;" /></node>
<node id="-458" lat="33.991448999" lon="130.929655" visible="true"><tag k="place" v="quarter" /><tag k="name" v="&#31255;&#30000;&#21335;&#30010;" /></node>
<node id="-459" lat="33.961010999" lon="130.926601" visible="true"><tag k="place" v="quarter" /><tag k="name" v="&#26481;&#31070;&#30000;&#30010;" /></node>
<node id="-460" lat="34.047151999" lon="131.008571" visible="true"><tag k="place" v="quarter" /><tag k="name" v="&#26481;&#35251;&#38899;&#30010;" /></node>
<node id="-461" lat="34.001783999" lon="130.97307" visible="true"><tag k="place" v="quarter" /><tag k="name" v="&#26481;&#21213;&#35895;" /></node>
<node id="-462" lat="33.966113999" lon="130.927644" visible="true"><tag k="place" v="quarter" /><tag k="name" v="&#26481;&#21521;&#23665;&#30010;" /></node>
<node id="-463" lat="33.945836999" lon="130.92233" visible="true"><tag k="place" v="neighbourhood" /><tag k="name" v="&#26481;&#22823;&#21644;&#30010;&#19968;&#19969;&#30446;" /></node>
<node id="-464" lat="33.943213999" lon="130.921055" visible="true"><tag k="place" v="neighbourhood" /><tag k="name" v="&#26481;&#22823;&#21644;&#30010;&#20108;&#19969;&#30446;" /></node>
<node id="-465" lat="33.951569999" lon="130.914974" visible="true"><tag k="place" v="quarter" /><tag k="name" v="&#24422;&#23798;&#28023;&#22763;&#37111;&#30010;" /></node>
<node id="-466" lat="33.936143999" lon="130.914265" visible="true"><tag k="place" v="neighbourhood" /><tag k="name" v="&#24422;&#23798;&#27743;&#12398;&#28006;&#30010;&#19968;&#19969;&#30446;" /></node>
<node id="-467" lat="33.933294999" lon="130.914231" visible="true"><tag k="place" v="neighbourhood" /><tag k="name" v="&#24422;&#23798;&#27743;&#12398;&#28006;&#30010;&#20108;&#19969;&#30446;" /></node>
<node id="-468" lat="33.930395999" lon="130.915753" visible="true"><tag k="place" v="neighbourhood" /><tag k="name" v="&#24422;&#23798;&#27743;&#12398;&#28006;&#30010;&#19977;&#19969;&#30446;" /></node>
<node id="-469" lat="33.934353999" lon="130.917923" visible="true"><tag k="place" v="neighbourhood" /><tag k="name" v="&#24422;&#23798;&#27743;&#12398;&#28006;&#30010;&#22235;&#19969;&#30446;" /></node>
<node id="-470" lat="33.933024999" lon="130.920269" visible="true"><tag k="place" v="neighbourhood" /><tag k="name" v="&#24422;&#23798;&#27743;&#12398;&#28006;&#30010;&#20116;&#19969;&#30446;" /></node>
<node id="-471" lat="33.934830999" lon="130.922147" visible="true"><tag k="place" v="neighbourhood" /><tag k="name" v="&#24422;&#23798;&#27743;&#12398;&#28006;&#30010;&#20845;&#19969;&#30446;" /></node>
<node id="-472" lat="33.931309999" lon="130.924285" visible="true"><tag k="place" v="neighbourhood" /><tag k="name" v="&#24422;&#23798;&#27743;&#12398;&#28006;&#30010;&#19971;&#19969;&#30446;" /></node>
<node id="-473" lat="33.930058999" lon="130.920713" visible="true"><tag k="place" v="neighbourhood" /><tag k="name" v="&#24422;&#23798;&#27743;&#12398;&#28006;&#30010;&#20843;&#19969;&#30446;" /></node>
<node id="-474" lat="33.929167999" lon="130.916671" visible="true"><tag k="place" v="neighbourhood" /><tag k="name" v="&#24422;&#23798;&#27743;&#12398;&#28006;&#30010;&#20061;&#19969;&#30446;" /></node>
<node id="-475" lat="33.947956999" lon="130.903536" visible="true"><tag k="place" v="quarter" /><tag k="name" v="&#24422;&#23798;&#32769;&#12398;&#23665;&#20844;&#22290;" /></node>
<node id="-476" lat="33.949386999" lon="130.915073" visible="true"><tag k="place" v="neighbourhood" /><tag k="name" v="&#24422;&#23798;&#32769;&#30010;&#19968;&#19969;&#30446;" /></node>
<node id="-477" lat="33.949088999" lon="130.908758" visible="true"><tag k="place" v="neighbourhood" /><tag k="name" v="&#24422;&#23798;&#32769;&#30010;&#20108;&#19969;&#30446;" /></node>
<node id="-478" lat="33.945516999" lon="130.912647" visible="true"><tag k="place" v="neighbourhood" /><tag k="name" v="&#24422;&#23798;&#32769;&#30010;&#19977;&#19969;&#30446;" /></node>
<node id="-479" lat="33.921495999" lon="130.922829" visible="true"><tag k="place" v="quarter" /><tag k="name" v="&#24422;&#23798;&#26716;&#12465;&#19992;&#30010;" /></node>
<node id="-480" lat="33.930207999" lon="130.903408" visible="true"><tag k="place" v="neighbourhood" /><tag k="name" v="&#24422;&#23798;&#36843;&#30010;&#19968;&#19969;&#30446;" /></node>
<node id="-481" lat="33.935354999" lon="130.903022" visible="true"><tag k="place" v="neighbourhood" /><tag k="name" v="&#24422;&#23798;&#36843;&#30010;&#20108;&#19969;&#30446;" /></node>
<node id="-482" lat="33.938108999" lon="130.900531" visible="true"><tag k="place" v="neighbourhood" /><tag k="name" v="&#24422;&#23798;&#36843;&#30010;&#19977;&#19969;&#30446;" /></node>
<node id="-483" lat="33.940325999" lon="130.903214" visible="true"><tag k="place" v="neighbourhood" /><tag k="name" v="&#24422;&#23798;&#36843;&#30010;&#22235;&#19969;&#30446;" /></node>
<node id="-484" lat="33.941419999" lon="130.896501" visible="true"><tag k="place" v="neighbourhood" /><tag k="name" v="&#24422;&#23798;&#36843;&#30010;&#20116;&#19969;&#30446;" /></node>
<node id="-485" lat="33.947331999" lon="130.901631" visible="true"><tag k="place" v="neighbourhood" /><tag k="name" v="&#24422;&#23798;&#36843;&#30010;&#20845;&#19969;&#30446;" /></node>
<node id="-486" lat="33.934876999" lon="130.897277" visible="true"><tag k="place" v="neighbourhood" /><tag k="name" v="&#24422;&#23798;&#36843;&#30010;&#19971;&#19969;&#30446;" /></node>
<node id="-487" lat="33.922767999" lon="130.911973" visible="true"><tag k="place" v="neighbourhood" /><tag k="name" v="&#24422;&#23798;&#22633;&#27996;&#30010;&#19968;&#19969;&#30446;" /></node>
<node id="-488" lat="33.917858999" lon="130.907486" visible="true"><tag k="place" v="neighbourhood" /><tag k="name" v="&#24422;&#23798;&#22633;&#27996;&#30010;&#20108;&#19969;&#30446;" /></node>
<node id="-489" lat="33.917825999" lon="130.911571" visible="true"><tag k="place" v="neighbourhood" /><tag k="name" v="&#24422;&#23798;&#22633;&#27996;&#30010;&#19977;&#19969;&#30446;" /></node>
<node id="-490" lat="33.915708999" lon="130.904876" visible="true"><tag k="place" v="neighbourhood" /><tag k="name" v="&#24422;&#23798;&#22633;&#27996;&#30010;&#22235;&#19969;&#30446;" /></node>
<node id="-491" lat="33.928161999" lon="130.922201" visible="true"><tag k="place" v="neighbourhood" /><tag k="name" v="&#24422;&#23798;&#26441;&#30000;&#30010;&#19968;&#19969;&#30446;" /></node>
<node id="-492" lat="33.925936999" lon="130.921292" visible="true"><tag k="place" v="neighbourhood" /><tag k="name" v="&#24422;&#23798;&#26441;&#30000;&#30010;&#20108;&#19969;&#30446;" /></node>
<node id="-493" lat="33.927081999" lon="130.915028" visible="true"><tag k="place" v="neighbourhood" /><tag k="name" v="&#24422;&#23798;&#35282;&#20489;&#30010;&#19968;&#19969;&#30446;" /></node>
<node id="-494" lat="33.924469999" lon="130.914058" visible="true"><tag k="place" v="neighbourhood" /><tag k="name" v="&#24422;&#23798;&#35282;&#20489;&#30010;&#20108;&#19969;&#30446;" /></node>
<node id="-495" lat="33.924538999" lon="130.917643" visible="true"><tag k="place" v="neighbourhood" /><tag k="name" v="&#24422;&#23798;&#35282;&#20489;&#30010;&#19977;&#19969;&#30446;" /></node>
<node id="-496" lat="33.927657999" lon="130.917173" visible="true"><tag k="place" v="neighbourhood" /><tag k="name" v="&#24422;&#23798;&#35282;&#20489;&#30010;&#22235;&#19969;&#30446;" /></node>
<node id="-497" lat="33.951385999" lon="130.877496" visible="true"><tag k="place" v="quarter" /><tag k="name" v="&#24422;&#23798;&#31481;&#12494;&#23376;&#23798;&#30010;" /></node>
<node id="-498" lat="33.916412999" lon="130.917478" visible="true"><tag k="place" v="neighbourhood" /><tag k="name" v="&#24422;&#23798;&#30000;&#12398;&#39318;&#30010;&#19968;&#19969;&#30446;" /></node>
<node id="-499" lat="33.914937999" lon="130.913869" visible="true"><tag k="place" v="neighbourhood" /><tag k="name" v="&#24422;&#23798;&#30000;&#12398;&#39318;&#30010;&#20108;&#19969;&#30446;" /></node>
<node id="-500" lat="33.927225999" lon="130.926045" visible="true"><tag k="place" v="neighbourhood" /><tag k="name" v="&#24422;&#23798;&#24351;&#23376;&#24453;&#30010;&#19968;&#19969;&#30446;" /></node>
<node id="-501" lat="33.924641999" lon="130.924339" visible="true"><tag k="place" v="neighbourhood" /><tag k="name" v="&#24422;&#23798;&#24351;&#23376;&#24453;&#30010;&#20108;&#19969;&#30446;" /></node>
<node id="-502" lat="33.918243999" lon="130.923546" visible="true"><tag k="place" v="neighbourhood" /><tag k="name" v="&#24422;&#23798;&#24351;&#23376;&#24453;&#30010;&#19977;&#19969;&#30446;" /></node>
<node id="-503" lat="33.928565999" lon="130.924307" visible="true"><tag k="place" v="quarter" /><tag k="name" v="&#24422;&#23798;&#24351;&#23376;&#24453;&#26481;&#30010;" /></node>
<node id="-504" lat="33.940856999" lon="130.888766" visible="true"><tag k="place" v="neighbourhood" /><tag k="name" v="&#24422;&#23798;&#35199;&#23665;&#30010;&#19968;&#19969;&#30446;" /></node>
<node id="-505" lat="33.946462999" lon="130.888186" visible="true"><tag k="place" v="neighbourhood" /><tag k="name" v="&#24422;&#23798;&#35199;&#23665;&#30010;&#20108;&#19969;&#30446;" /></node>
<node id="-506" lat="33.944974999" lon="130.881205" visible="true"><tag k="place" v="neighbourhood" /><tag k="name" v="&#24422;&#23798;&#35199;&#23665;&#30010;&#19977;&#19969;&#30446;" /></node>
<node id="-507" lat="33.948716999" lon="130.882124" visible="true"><tag k="place" v="neighbourhood" /><tag k="name" v="&#24422;&#23798;&#35199;&#23665;&#30010;&#22235;&#19969;&#30446;" /></node>
<node id="-508" lat="33.950824999" lon="130.88445" visible="true"><tag k="place" v="neighbourhood" /><tag k="name" v="&#24422;&#23798;&#35199;&#23665;&#30010;&#20116;&#19969;&#30446;" /></node>
<node id="-509" lat="33.925995999" lon="130.904398" visible="true"><tag k="place" v="neighbourhood" /><tag k="name" v="&#24422;&#23798;&#31119;&#28006;&#30010;&#19968;&#19969;&#30446;" /></node>
<node id="-510" lat="33.929271999" lon="130.91014" visible="true"><tag k="place" v="neighbourhood" /><tag k="name" v="&#24422;&#23798;&#31119;&#28006;&#30010;&#20108;&#19969;&#30446;" /></node>
<node id="-511" lat="33.926707999" lon="130.912356" visible="true"><tag k="place" v="neighbourhood" /><tag k="name" v="&#24422;&#23798;&#31119;&#28006;&#30010;&#19977;&#19969;&#30446;" /></node>
<node id="-512" lat="33.944996999" lon="130.907474" visible="true"><tag k="place" v="neighbourhood" /><tag k="name" v="&#24422;&#23798;&#26412;&#26449;&#30010;&#19968;&#19969;&#30446;" /></node>
<node id="-513" lat="33.942998999" lon="130.906474" visible="true"><tag k="place" v="neighbourhood" /><tag k="name" v="&#24422;&#23798;&#26412;&#26449;&#30010;&#20108;&#19969;&#30446;" /></node>
<node id="-514" lat="33.943561999" lon="130.911752" visible="true"><tag k="place" v="neighbourhood" /><tag k="name" v="&#24422;&#23798;&#26412;&#26449;&#30010;&#19977;&#19969;&#30446;" /></node>
<node id="-515" lat="33.943021999" lon="130.909835" visible="true"><tag k="place" v="neighbourhood" /><tag k="name" v="&#24422;&#23798;&#26412;&#26449;&#30010;&#22235;&#19969;&#30446;" /></node>
<node id="-516" lat="33.940765999" lon="130.909249" visible="true"><tag k="place" v="neighbourhood" /><tag k="name" v="&#24422;&#23798;&#26412;&#26449;&#30010;&#20116;&#19969;&#30446;" /></node>
<node id="-517" lat="33.939508999" lon="130.912311" visible="true"><tag k="place" v="neighbourhood" /><tag k="name" v="&#24422;&#23798;&#26412;&#26449;&#30010;&#20845;&#19969;&#30446;" /></node>
<node id="-518" lat="33.937055999" lon="130.909701" visible="true"><tag k="place" v="neighbourhood" /><tag k="name" v="&#24422;&#23798;&#26412;&#26449;&#30010;&#19971;&#19969;&#30446;" /></node>
<node id="-519" lat="33.932046999" lon="130.908657" visible="true"><tag k="place" v="quarter" /><tag k="name" v="&#24422;&#23798;&#32209;&#30010;" /></node>
<node id="-520" lat="33.918548999" lon="130.92109" visible="true"><tag k="place" v="neighbourhood" /><tag k="name" v="&#24422;&#23798;&#21521;&#20117;&#30010;&#19968;&#19969;&#30446;" /></node>
<node id="-521" lat="33.919027999" lon="130.91766" visible="true"><tag k="place" v="neighbourhood" /><tag k="name" v="&#24422;&#23798;&#21521;&#20117;&#30010;&#20108;&#19969;&#30446;" /></node>
<node id="-522" lat="33.922666999" lon="130.918283" visible="true"><tag k="place" v="neighbourhood" /><tag k="name" v="&#24422;&#23798;&#23665;&#20013;&#30010;&#19968;&#19969;&#30446;" /></node>
<node id="-523" lat="33.922150999" lon="130.920847" visible="true"><tag k="place" v="neighbourhood" /><tag k="name" v="&#24422;&#23798;&#23665;&#20013;&#30010;&#20108;&#19969;&#30446;" /></node>
<node id="-524" lat="33.981269999" lon="130.955738" visible="true"><tag k="place" v="quarter" /><tag k="name" v="&#34276;&#12465;&#35895;&#30010;" /></node>
<node id="-525" lat="33.965494999" lon="130.921521" visible="true"><tag k="place" v="quarter" /><tag k="name" v="&#34276;&#38468;&#30010;" /></node>
<node id="-526" lat="33.953587999" lon="130.928961" visible="true"><tag k="place" v="neighbourhood" /><tag k="name" v="&#35914;&#21069;&#30000;&#30010;&#19968;&#19969;&#30446;" /></node>
<node id="-527" lat="33.952075999" lon="130.927167" visible="true"><tag k="place" v="neighbourhood" /><tag k="name" v="&#35914;&#21069;&#30000;&#30010;&#20108;&#19969;&#30446;" /></node>
<node id="-528" lat="33.950442999" lon="130.928865" visible="true"><tag k="place" v="neighbourhood" /><tag k="name" v="&#35914;&#21069;&#30000;&#30010;&#19977;&#19969;&#30446;" /></node>
<node id="-529" lat="33.997269999" lon="130.923984" visible="true"><tag k="place" v="neighbourhood" /><tag k="name" v="&#21476;&#23627;&#30010;&#19968;&#19969;&#30446;" /></node>
<node id="-530" lat="33.999767999" lon="130.920389" visible="true"><tag k="place" v="neighbourhood" /><tag k="name" v="&#21476;&#23627;&#30010;&#20108;&#19969;&#30446;" /></node>
<node id="-531" lat="34.329489999" lon="130.929704" visible="true"><tag k="place" v="quarter" /><tag k="name" v="&#35914;&#21271;&#30010;&#22823;&#23383;&#38463;&#24029;" /></node>
<node id="-532" lat="34.330067999" lon="130.986765" visible="true"><tag k="place" v="quarter" /><tag k="name" v="&#35914;&#21271;&#30010;&#22823;&#23383;&#31903;&#37326;" /></node>
<node id="-533" lat="34.328148999" lon="130.901143" visible="true"><tag k="place" v="quarter" /><tag k="name" v="&#35914;&#21271;&#30010;&#22823;&#23383;&#31070;&#30000;" /></node>
<node id="-534" lat="34.281658999" lon="130.900956" visible="true"><tag k="place" v="quarter" /><tag k="name" v="&#35914;&#21271;&#30010;&#22823;&#23383;&#31070;&#30000;&#19978;" /></node>
<node id="-535" lat="34.243117999" lon="130.951938" visible="true"><tag k="place" v="quarter" /><tag k="name" v="&#35914;&#21271;&#30010;&#22823;&#23383;&#21271;&#23431;&#36032;" /></node>
<node id="-536" lat="34.295852999" lon="130.946241" visible="true"><tag k="place" v="quarter" /><tag k="name" v="&#35914;&#21271;&#30010;&#22823;&#23383;&#28381;&#37096;" /></node>
<node id="-537" lat="34.269527999" lon="130.988175" visible="true"><tag k="place" v="quarter" /><tag k="name" v="&#35914;&#21271;&#30010;&#22823;&#23383;&#30000;&#32789;" /></node>
<node id="-538" lat="34.354967999" lon="130.859718" visible="true"><tag k="place" v="quarter" /><tag k="name" v="&#35914;&#21271;&#30010;&#22823;&#23383;&#35282;&#23798;" /></node>
<node id="-539" lat="34.274917999" lon="130.888522" visible="true"><tag k="place" v="quarter" /><tag k="name" v="&#35914;&#21271;&#30010;&#22823;&#23383;&#30690;&#29577;" /></node>
<node id="-540" lat="33.948527999" lon="130.929297" visible="true"><tag k="place" v="quarter" /><tag k="name" v="&#32048;&#27743;&#26032;&#30010;" /></node>
<node id="-541" lat="33.952615999" lon="130.932187" visible="true"><tag k="place" v="neighbourhood" /><tag k="name" v="&#32048;&#27743;&#30010;&#19968;&#19969;&#30446;" /></node>
<node id="-542" lat="33.951185999" lon="130.932512" visible="true"><tag k="place" v="neighbourhood" /><tag k="name" v="&#32048;&#27743;&#30010;&#20108;&#19969;&#30446;" /></node>
<node id="-543" lat="33.950776999" lon="130.930667" visible="true"><tag k="place" v="neighbourhood" /><tag k="name" v="&#32048;&#27743;&#30010;&#19977;&#19969;&#30446;" /></node>
<node id="-544" lat="33.963889999" lon="130.951542" visible="true"><tag k="place" v="neighbourhood" /><tag k="name" v="&#26412;&#30010;&#19968;&#19969;&#30446;" /></node>
<node id="-545" lat="33.964625999" lon="130.949619" visible="true"><tag k="place" v="neighbourhood" /><tag k="name" v="&#26412;&#30010;&#20108;&#19969;&#30446;" /></node>
<node id="-546" lat="33.966243999" lon="130.947752" visible="true"><tag k="place" v="neighbourhood" /><tag k="name" v="&#26412;&#30010;&#19977;&#19969;&#30446;" /></node>
<node id="-547" lat="33.967765999" lon="130.950957" visible="true"><tag k="place" v="neighbourhood" /><tag k="name" v="&#26412;&#30010;&#22235;&#19969;&#30446;" /></node>
<node id="-548" lat="34.006489999" lon="130.964929" visible="true"><tag k="place" v="quarter" /><tag k="name" v="&#21069;&#21213;&#35895;&#30010;" /></node>
<node id="-549" lat="33.975072999" lon="130.971087" visible="true"><tag k="place" v="neighbourhood" /><tag k="name" v="&#21069;&#30000;&#19968;&#19969;&#30446;" /></node>
<node id="-550" lat="33.973437999" lon="130.966441" visible="true"><tag k="place" v="neighbourhood" /><tag k="name" v="&#21069;&#30000;&#20108;&#19969;&#30446;" /></node>
<node id="-551" lat="34.055045999" lon="131.058649" visible="true"><tag k="place" v="neighbourhood" /><tag k="name" v="&#26494;&#23627;&#19978;&#30010;&#19968;&#19969;&#30446;" /></node>
<node id="-552" lat="34.056321999" lon="131.062172" visible="true"><tag k="place" v="neighbourhood" /><tag k="name" v="&#26494;&#23627;&#19978;&#30010;&#20108;&#19969;&#30446;" /></node>
<node id="-553" lat="34.059799999" lon="131.061646" visible="true"><tag k="place" v="neighbourhood" /><tag k="name" v="&#26494;&#23627;&#19978;&#30010;&#19977;&#19969;&#30446;" /></node>
<node id="-554" lat="34.045502999" lon="131.064464" visible="true"><tag k="place" v="neighbourhood" /><tag k="name" v="&#26494;&#23627;&#26481;&#30010;&#19968;&#19969;&#30446;" /></node>
<node id="-555" lat="34.048310999" lon="131.063124" visible="true"><tag k="place" v="neighbourhood" /><tag k="name" v="&#26494;&#23627;&#26481;&#30010;&#20108;&#19969;&#30446;" /></node>
<node id="-556" lat="34.049853999" lon="131.065418" visible="true"><tag k="place" v="neighbourhood" /><tag k="name" v="&#26494;&#23627;&#26481;&#30010;&#19977;&#19969;&#30446;" /></node>
<node id="-557" lat="34.052901999" lon="131.057163" visible="true"><tag k="place" v="neighbourhood" /><tag k="name" v="&#26494;&#23627;&#26412;&#30010;&#19968;&#19969;&#30446;" /></node>
<node id="-558" lat="34.049422999" lon="131.058837" visible="true"><tag k="place" v="neighbourhood" /><tag k="name" v="&#26494;&#23627;&#26412;&#30010;&#20108;&#19969;&#30446;" /></node>
<node id="-559" lat="34.048268999" lon="131.053324" visible="true"><tag k="place" v="neighbourhood" /><tag k="name" v="&#26494;&#23627;&#26412;&#30010;&#19977;&#19969;&#30446;" /></node>
<node id="-560" lat="34.055452999" lon="131.05396" visible="true"><tag k="place" v="neighbourhood" /><tag k="name" v="&#26494;&#23627;&#26412;&#30010;&#22235;&#19969;&#30446;" /></node>
<node id="-561" lat="34.058465999" lon="131.054544" visible="true"><tag k="place" v="neighbourhood" /><tag k="name" v="&#26494;&#23627;&#26412;&#30010;&#20116;&#19969;&#30446;" /></node>
<node id="-562" lat="33.957229999" lon="130.936078" visible="true"><tag k="place" v="neighbourhood" /><tag k="name" v="&#20024;&#23665;&#30010;&#19968;&#19969;&#30446;" /></node>
<node id="-563" lat="33.958447999" lon="130.934072" visible="true"><tag k="place" v="neighbourhood" /><tag k="name" v="&#20024;&#23665;&#30010;&#20108;&#19969;&#30446;" /></node>
<node id="-564" lat="33.958301999" lon="130.931362" visible="true"><tag k="place" v="neighbourhood" /><tag k="name" v="&#20024;&#23665;&#30010;&#19977;&#19969;&#30446;" /></node>
<node id="-565" lat="33.956083999" lon="130.9324" visible="true"><tag k="place" v="neighbourhood" /><tag k="name" v="&#20024;&#23665;&#30010;&#22235;&#19969;&#30446;" /></node>
<node id="-566" lat="33.954093999" lon="130.931419" visible="true"><tag k="place" v="neighbourhood" /><tag k="name" v="&#20024;&#23665;&#30010;&#20116;&#19969;&#30446;" /></node>
<node id="-567" lat="33.987192999" lon="130.942195" visible="true"><tag k="place" v="quarter" /><tag k="name" v="&#19977;&#27827;&#30010;" /></node>
<node id="-568" lat="33.959873999" lon="130.916162" visible="true"><tag k="place" v="quarter" /><tag k="name" v="&#21335;&#22823;&#22378;&#30010;" /></node>
<node id="-569" lat="33.968490999" lon="130.956992" visible="true"><tag k="place" v="quarter" /><tag k="name" v="&#12415;&#12418;&#12377;&#12381;&#24029;&#30010;" /></node>
<node id="-570" lat="33.960964999" lon="130.946983" visible="true"><tag k="place" v="neighbourhood" /><tag k="name" v="&#23470;&#30000;&#30010;&#19968;&#19969;&#30446;" /></node>
<node id="-571" lat="33.961768999" lon="130.945734" visible="true"><tag k="place" v="neighbourhood" /><tag k="name" v="&#23470;&#30000;&#30010;&#20108;&#19969;&#30446;" /></node>
<node id="-572" lat="33.967098999" lon="130.926199" visible="true"><tag k="place" v="quarter" /><tag k="name" v="&#21521;&#23665;&#30010;" /></node>
<node id="-573" lat="33.975672999" lon="130.953599" visible="true"><tag k="place" v="quarter" /><tag k="name" v="&#26891;&#37326;&#19978;&#30010;" /></node>
<node id="-574" lat="33.973574999" lon="130.944926" visible="true"><tag k="place" v="neighbourhood" /><tag k="name" v="&#26891;&#37326;&#30010;&#19968;&#19969;&#30446;" /></node>
<node id="-575" lat="33.977824999" lon="130.949399" visible="true"><tag k="place" v="neighbourhood" /><tag k="name" v="&#26891;&#37326;&#30010;&#20108;&#19969;&#30446;" /></node>
<node id="-576" lat="33.980816999" lon="130.943818" visible="true"><tag k="place" v="neighbourhood" /><tag k="name" v="&#26891;&#37326;&#30010;&#19977;&#19969;&#30446;" /></node>
<node id="-577" lat="33.958221999" lon="130.937796" visible="true"><tag k="place" v="quarter" /><tag k="name" v="&#21517;&#27744;&#30010;" /></node>
<node id="-578" lat="33.965876999" lon="130.924646" visible="true"><tag k="place" v="quarter" /><tag k="name" v="&#20803;&#30010;" /></node>
<node id="-579" lat="34.023585999" lon="130.914727" visible="true"><tag k="place" v="neighbourhood" /><tag k="name" v="&#23433;&#23713;&#39365;&#21069;&#20108;&#19969;&#30446;" /></node>
<node id="-580" lat="34.027405999" lon="130.914674" visible="true"><tag k="place" v="neighbourhood" /><tag k="name" v="&#23433;&#23713;&#30010;&#19968;&#19969;&#30446;" /></node>
<node id="-581" lat="34.026163999" lon="130.917757" visible="true"><tag k="place" v="neighbourhood" /><tag k="name" v="&#23433;&#23713;&#30010;&#20108;&#19969;&#30446;" /></node>
<node id="-582" lat="34.027732999" lon="130.919349" visible="true"><tag k="place" v="neighbourhood" /><tag k="name" v="&#23433;&#23713;&#30010;&#19977;&#19969;&#30446;" /></node>
<node id="-583" lat="34.031060999" lon="130.917919" visible="true"><tag k="place" v="neighbourhood" /><tag k="name" v="&#23433;&#23713;&#30010;&#22235;&#19969;&#30446;" /></node>
<node id="-584" lat="34.032125999" lon="130.923564" visible="true"><tag k="place" v="neighbourhood" /><tag k="name" v="&#23433;&#23713;&#30010;&#20116;&#19969;&#30446;" /></node>
<node id="-585" lat="34.033849999" lon="130.926154" visible="true"><tag k="place" v="neighbourhood" /><tag k="name" v="&#23433;&#23713;&#30010;&#20845;&#19969;&#30446;" /></node>
<node id="-586" lat="34.029021999" lon="130.924707" visible="true"><tag k="place" v="neighbourhood" /><tag k="name" v="&#23433;&#23713;&#30010;&#19971;&#19969;&#30446;" /></node>
<node id="-587" lat="34.032098999" lon="130.931278" visible="true"><tag k="place" v="neighbourhood" /><tag k="name" v="&#23433;&#23713;&#30010;&#20843;&#19969;&#30446;" /></node>
<node id="-588" lat="34.025432999" lon="130.912225" visible="true"><tag k="place" v="neighbourhood" /><tag k="name" v="&#23433;&#23713;&#26412;&#30010;&#19968;&#19969;&#30446;" /></node>
<node id="-589" lat="34.028110999" lon="130.911578" visible="true"><tag k="place" v="neighbourhood" /><tag k="name" v="&#23433;&#23713;&#26412;&#30010;&#20108;&#19969;&#30446;" /></node>
<node id="-590" lat="34.026519999" lon="130.906834" visible="true"><tag k="place" v="neighbourhood" /><tag k="name" v="&#23433;&#23713;&#26412;&#30010;&#19977;&#19969;&#30446;" /></node>
<node id="-591" lat="33.959060999" lon="130.925333" visible="true"><tag k="place" v="quarter" /><tag k="name" v="&#23665;&#25163;&#30010;" /></node>
<node id="-592" lat="33.947820999" lon="130.919404" visible="true"><tag k="place" v="neighbourhood" /><tag k="name" v="&#22823;&#21644;&#30010;&#19968;&#19969;&#30446;" /></node>
<node id="-593" lat="33.941833999" lon="130.91628" visible="true"><tag k="place" v="neighbourhood" /><tag k="name" v="&#22823;&#21644;&#30010;&#20108;&#19969;&#30446;" /></node>
<node id="-594" lat="33.969730999" lon="130.936256" visible="true"><tag k="place" v="quarter" /><tag k="name" v="&#23665;&#12398;&#21475;&#30010;" /></node>
<node id="-595" lat="33.991696999" lon="130.932559" visible="true"><tag k="place" v="quarter" /><tag k="name" v="&#23665;&#12398;&#30000;&#21271;&#30010;" /></node>
<node id="-596" lat="33.987574999" lon="130.926673" visible="true"><tag k="place" v="quarter" /><tag k="name" v="&#23665;&#12398;&#30000;&#20013;&#22830;&#30010;" /></node>
<node id="-597" lat="33.988233999" lon="130.923345" visible="true"><tag k="place" v="quarter" /><tag k="name" v="&#23665;&#12398;&#30000;&#35199;&#30010;" /></node>
<node id="-598" lat="33.989329999" lon="130.928548" visible="true"><tag k="place" v="quarter" /><tag k="name" v="&#23665;&#12398;&#30000;&#26412;&#30010;" /></node>
<node id="-599" lat="34.033291999" lon="130.913706" visible="true"><tag k="place" v="neighbourhood" /><tag k="name" v="&#27178;&#37326;&#30010;&#19968;&#19969;&#30446;" /></node>
<node id="-600" lat="34.029642999" lon="130.908668" visible="true"><tag k="place" v="neighbourhood" /><tag k="name" v="&#27178;&#37326;&#30010;&#20108;&#19969;&#30446;" /></node>
<node id="-601" lat="34.033244999" lon="130.910374" visible="true"><tag k="place" v="neighbourhood" /><tag k="name" v="&#27178;&#37326;&#30010;&#19977;&#19969;&#30446;" /></node>
<node id="-602" lat="34.036662999" lon="130.912051" visible="true"><tag k="place" v="neighbourhood" /><tag k="name" v="&#27178;&#37326;&#30010;&#22235;&#19969;&#30446;" /></node>
<node id="-603" lat="34.062839999" lon="130.903147" visible="true"><tag k="place" v="quarter" /><tag k="name" v="&#21513;&#35211;&#21476;&#23487;&#30010;" /></node>
<node id="-604" lat="34.072532999" lon="130.900964" visible="true"><tag k="place" v="neighbourhood" /><tag k="name" v="&#21513;&#35211;&#37324;&#30010;&#19968;&#19969;&#30446;" /></node>
<node id="-605" lat="34.074891999" lon="130.904219" visible="true"><tag k="place" v="neighbourhood" /><tag k="name" v="&#21513;&#35211;&#37324;&#30010;&#20108;&#19969;&#30446;" /></node>
<node id="-606" lat="34.070323999" lon="130.899895" visible="true"><tag k="place" v="neighbourhood" /><tag k="name" v="&#21513;&#35211;&#26032;&#30010;&#19968;&#19969;&#30446;" /></node>
<node id="-607" lat="34.071842999" lon="130.89829" visible="true"><tag k="place" v="neighbourhood" /><tag k="name" v="&#21513;&#35211;&#26032;&#30010;&#20108;&#19969;&#30446;" /></node>
<node id="-608" lat="34.069503999" lon="130.902261" visible="true"><tag k="place" v="neighbourhood" /><tag k="name" v="&#21513;&#35211;&#26412;&#30010;&#19968;&#19969;&#30446;" /></node>
<node id="-609" lat="34.067408999" lon="130.903674" visible="true"><tag k="place" v="neighbourhood" /><tag k="name" v="&#21513;&#35211;&#26412;&#30010;&#20108;&#19969;&#30446;" /></node>
<node id="-610" lat="34.068595999" lon="130.905784" visible="true"><tag k="place" v="quarter" /><tag k="name" v="&#21513;&#35211;&#31452;&#29579;&#30010;" /></node>
<node id="-611" lat="34.088651999" lon="131.004323" visible="true"><tag k="place" v="quarter" /><tag k="name" v="&#22823;&#23383;&#38463;&#20869;" /></node>
<node id="-612" lat="33.989635999" lon="130.898124" visible="true"><tag k="place" v="quarter" /><tag k="name" v="&#38263;&#24030;&#20986;&#23798;" /></node>
<node id="-613" lat="33.985331999" lon="130.925779" visible="true"><tag k="place" v="quarter" /><tag k="name" v="&#23665;&#12398;&#30000;&#21335;&#30010;" /></node>
<node id="-614" lat="33.986273999" lon="130.921509" visible="true"><tag k="place" v="quarter" /><tag k="name" v="&#27494;&#20037;&#35199;&#21407;&#21488;" /></node>
<node id="-615" lat="33.987548999" lon="130.916313" visible="true"><tag k="place" v="neighbourhood" /><tag k="name" v="&#26032;&#22434;&#30000;&#21335;&#30010;&#19968;&#19969;&#30446;" /></node>
<node id="-616" lat="33.986321999" lon="130.916729" visible="true"><tag k="place" v="neighbourhood" /><tag k="name" v="&#26032;&#22434;&#30000;&#21335;&#30010;&#20108;&#19969;&#30446;" /></node>
<node id="-617" lat="33.985212999" lon="130.915598" visible="true"><tag k="place" v="neighbourhood" /><tag k="name" v="&#26032;&#22434;&#30000;&#21335;&#30010;&#19977;&#19969;&#30446;" /></node>
<node id="-618" lat="33.985233999" lon="130.913694" visible="true"><tag k="place" v="neighbourhood" /><tag k="name" v="&#26032;&#22434;&#30000;&#35199;&#30010;&#20108;&#19969;&#30446;" /></node>
<node id="-619" lat="34.015964999" lon="130.922345" visible="true"><tag k="place" v="neighbourhood" /><tag k="name" v="&#26806;&#26647;&#30010;&#22235;&#19969;&#30446;" /></node>
<node id="-620" lat="34.019725999" lon="130.921211" visible="true"><tag k="place" v="neighbourhood" /><tag k="name" v="&#23500;&#20219;&#30010;&#19977;&#19969;&#30446;" /></node>
<node id="-621" lat="34.028816999" lon="131.008093" visible="true"><tag k="place" v="neighbourhood" /><tag k="name" v="&#38263;&#24220;&#25165;&#24029;&#19968;&#19969;&#30446;" /></node>
<node id="-622" lat="34.029142999" lon="131.013051" visible="true"><tag k="place" v="quarter" /><tag k="name" v="&#12422;&#12417;&#12479;&#12454;&#12531;" /></node>
<node id="-623" lat="33.985625999" lon="130.928865" visible="true"><tag k="place" v="quarter" /><tag k="name" v="&#23665;&#12398;&#30000;&#26481;&#30010;" /></node>
<node id="-624" lat="34.023799999" lon="130.916474" visible="true"><tag k="place" v="neighbourhood" /><tag k="name" v="&#23433;&#23713;&#39365;&#21069;&#19968;&#19969;&#30446;" /></node>
<node id="-625" lat="34.019452999" lon="130.919678" visible="true"><tag k="place" v="neighbourhood" /><tag k="name" v="&#23500;&#20219;&#30010;&#20108;&#19969;&#30446;" /></node>
<node id="-626" lat="34.019390999" lon="130.917646" visible="true"><tag k="place" v="neighbourhood" /><tag k="name" v="&#23500;&#20219;&#30010;&#19968;&#19969;&#30446;" /></node>
<node id="-627" lat="33.990619999" lon="130.922313" visible="true"><tag k="place" v="neighbourhood" /><tag k="name" v="&#22434;&#30000;&#30010;&#19977;&#19969;&#30446;" /></node>
<node id="-628" lat="33.994793999" lon="130.920651" visible="true"><tag k="place" v="neighbourhood" /><tag k="name" v="&#22434;&#30000;&#30010;&#20116;&#19969;&#30446;" /></node>
<node id="-629" lat="33.989757999" lon="130.91913" visible="true"><tag k="place" v="neighbourhood" /><tag k="name" v="&#22434;&#30000;&#30010;&#22235;&#19969;&#30446;" /></node>
<node id="-630" lat="33.990026999" lon="130.914573" visible="true"><tag k="place" v="neighbourhood" /><tag k="name" v="&#26032;&#22434;&#30000;&#26481;&#30010;&#20108;&#19969;&#30446;" /></node>
<node id="-631" lat="33.990986999" lon="130.912067" visible="true"><tag k="place" v="quarter" /><tag k="name" v="&#26032;&#22434;&#30000;&#21271;&#30010;" /></node>
<node id="-632" lat="33.983359999" lon="130.930931" visible="true"><tag k="place" v="quarter" /><tag k="name" v="&#24161;&#29983;&#23470;&#12398;&#19979;&#30010;" /></node>
<node id="-633" lat="33.981686999" lon="130.923474" visible="true"><tag k="place" v="neighbourhood" /><tag k="name" v="&#27494;&#20037;&#30010;&#19968;&#19969;&#30446;" /></node>
<node id="-634" lat="33.981283999" lon="130.917751" visible="true"><tag k="place" v="neighbourhood" /><tag k="name" v="&#27494;&#20037;&#30010;&#20108;&#19969;&#30446;" /></node>
<node id="-635" lat="33.970059999" lon="130.921118" visible="true"><tag k="place" v="quarter" /><tag k="name" v="&#22823;&#22378;&#26412;&#30010;" /></node>
<node id="-636" lat="33.971899999" lon="130.926451" visible="true"><tag k="place" v="neighbourhood" /><tag k="name" v="&#24460;&#30000;&#30010;&#22235;&#19969;&#30446;" /></node>
<node id="-637" lat="33.970265999" lon="130.924029" visible="true"><tag k="place" v="quarter" /><tag k="name" v="&#32701;&#23665;&#30010;" /></node>
<node id="-638" lat="33.976315999" lon="130.923058" visible="true"><tag k="place" v="quarter" /><tag k="name" v="&#24161;&#29983;&#26032;&#30010;" /></node>
<node id="-639" lat="33.975312999" lon="130.926164" visible="true"><tag k="place" v="quarter" /><tag k="name" v="&#24161;&#29983;&#26412;&#30010;" /></node>
</osm>