<?xml version="1.0"?>
<osm version="0.6" generator="uvmogr2osm" upload="false">
<node id="-1" lat="32.577759999" lon="131.669891" visible="true"><tag k="place" v="neighbourhood" /><tag k="name" v="&#23433;&#36032;&#22810;&#30010;&#19968;&#19969;&#30446;" /></node>
<node id="-2" lat="32.575955999" lon="131.669653" visible="true"><tag k="place" v="neighbourhood" /><tag k="name" v="&#23433;&#36032;&#22810;&#30010;&#20108;&#19969;&#30446;" /></node>
<node id="-3" lat="32.574522999" lon="131.669158" visible="true"><tag k="place" v="neighbourhood" /><tag k="name" v="&#23433;&#36032;&#22810;&#30010;&#19977;&#19969;&#30446;" /></node>
<node id="-4" lat="32.572892999" lon="131.668976" visible="true"><tag k="place" v="neighbourhood" /><tag k="name" v="&#23433;&#36032;&#22810;&#30010;&#22235;&#19969;&#30446;" /></node>
<node id="-5" lat="32.571460999" lon="131.668402" visible="true"><tag k="place" v="neighbourhood" /><tag k="name" v="&#23433;&#36032;&#22810;&#30010;&#20116;&#19969;&#30446;" /></node>
<node id="-6" lat="32.507649999" lon="131.706429" visible="true"><tag k="place" v="quarter" /><tag k="name" v="&#36196;&#27700;&#30010;" /></node>
<node id="-7" lat="32.530872999" lon="131.681334" visible="true"><tag k="place" v="neighbourhood" /><tag k="name" v="&#26093;&#12465;&#19992;&#19968;&#19969;&#30446;" /></node>
<node id="-8" lat="32.526490999" lon="131.682255" visible="true"><tag k="place" v="neighbourhood" /><tag k="name" v="&#26093;&#12465;&#19992;&#20108;&#19969;&#30446;" /></node>
<node id="-9" lat="32.531207999" lon="131.678865" visible="true"><tag k="place" v="neighbourhood" /><tag k="name" v="&#26093;&#12465;&#19992;&#22235;&#19969;&#30446;" /></node>
<node id="-10" lat="32.529527999" lon="131.679267" visible="true"><tag k="place" v="neighbourhood" /><tag k="name" v="&#26093;&#12465;&#19992;&#20116;&#19969;&#30446;" /></node>
<node id="-11" lat="32.526458999" lon="131.681332" visible="true"><tag k="place" v="neighbourhood" /><tag k="name" v="&#26093;&#12465;&#19992;&#20845;&#19969;&#30446;" /></node>
<node id="-12" lat="32.575186999" lon="131.670438" visible="true"><tag k="place" v="neighbourhood" /><tag k="name" v="&#26093;&#30010;&#19968;&#19969;&#30446;" /></node>
<node id="-13" lat="32.572842999" lon="131.670346" visible="true"><tag k="place" v="neighbourhood" /><tag k="name" v="&#26093;&#30010;&#20108;&#19969;&#30446;" /></node>
<node id="-14" lat="32.570397999" lon="131.671247" visible="true"><tag k="place" v="neighbourhood" /><tag k="name" v="&#26093;&#30010;&#19977;&#19969;&#30446;" /></node>
<node id="-15" lat="32.573402999" lon="131.674053" visible="true"><tag k="place" v="neighbourhood" /><tag k="name" v="&#26093;&#30010;&#22235;&#19969;&#30446;" /></node>
<node id="-16" lat="32.572055999" lon="131.675897" visible="true"><tag k="place" v="neighbourhood" /><tag k="name" v="&#26093;&#30010;&#20116;&#19969;&#30446;" /></node>
<node id="-17" lat="32.570605999" lon="131.674698" visible="true"><tag k="place" v="neighbourhood" /><tag k="name" v="&#26093;&#30010;&#20845;&#19969;&#30446;" /></node>
<node id="-18" lat="32.567838999" lon="131.673953" visible="true"><tag k="place" v="neighbourhood" /><tag k="name" v="&#26093;&#30010;&#19971;&#19969;&#30446;" /></node>
<node id="-19" lat="32.570529999" lon="131.668767" visible="true"><tag k="place" v="neighbourhood" /><tag k="name" v="&#24859;&#23445;&#30010;&#19968;&#19969;&#30446;" /></node>
<node id="-20" lat="32.568650999" lon="131.667759" visible="true"><tag k="place" v="neighbourhood" /><tag k="name" v="&#24859;&#23445;&#30010;&#20108;&#19969;&#30446;" /></node>
<node id="-21" lat="32.566234999" lon="131.668335" visible="true"><tag k="place" v="neighbourhood" /><tag k="name" v="&#24859;&#23445;&#30010;&#19977;&#19969;&#30446;" /></node>
<node id="-22" lat="32.559355999" lon="131.663776" visible="true"><tag k="place" v="quarter" /><tag k="name" v="&#24859;&#23445;&#23665;" /></node>
<node id="-23" lat="32.574469999" lon="131.621985" visible="true"><tag k="place" v="quarter" /><tag k="name" v="&#22825;&#19979;&#30010;" /></node>
<node id="-24" lat="32.596132999" lon="131.684049" visible="true"><tag k="place" v="quarter" /><tag k="name" v="&#31903;&#37326;&#21517;&#30010;" /></node>
<node id="-25" lat="32.529073999" lon="131.670237" visible="true"><tag k="place" v="quarter" /><tag k="name" v="&#20234;&#24418;&#30010;" /></node>
<node id="-26" lat="32.535963999" lon="131.656751" visible="true"><tag k="place" v="quarter" /><tag k="name" v="&#30707;&#30000;&#30010;" /></node>
<node id="-27" lat="32.577047999" lon="131.679964" visible="true"><tag k="place" v="neighbourhood" /><tag k="name" v="&#20986;&#21271;&#19968;&#19969;&#30446;" /></node>
<node id="-28" lat="32.574915999" lon="131.680125" visible="true"><tag k="place" v="neighbourhood" /><tag k="name" v="&#20986;&#21271;&#20108;&#19969;&#30446;" /></node>
<node id="-29" lat="32.572898999" lon="131.680273" visible="true"><tag k="place" v="neighbourhood" /><tag k="name" v="&#20986;&#21271;&#19977;&#19969;&#30446;" /></node>
<node id="-30" lat="32.571004999" lon="131.680409" visible="true"><tag k="place" v="neighbourhood" /><tag k="name" v="&#20986;&#21271;&#22235;&#19969;&#30446;" /></node>
<node id="-31" lat="32.573993999" lon="131.684853" visible="true"><tag k="place" v="neighbourhood" /><tag k="name" v="&#20986;&#21271;&#20116;&#19969;&#30446;" /></node>
<node id="-32" lat="32.574827999" lon="131.688268" visible="true"><tag k="place" v="neighbourhood" /><tag k="name" v="&#20986;&#21271;&#20845;&#19969;&#30446;" /></node>
<node id="-33" lat="32.574121999" lon="131.660254" visible="true"><tag k="place" v="quarter" /><tag k="name" v="&#20986;&#21475;&#30010;" /></node>
<node id="-34" lat="32.607619999" lon="131.677946" visible="true"><tag k="place" v="neighbourhood" /><tag k="name" v="&#31282;&#33865;&#23822;&#30010;&#19968;&#19969;&#30446;" /></node>
<node id="-35" lat="32.607550999" lon="131.68106" visible="true"><tag k="place" v="neighbourhood" /><tag k="name" v="&#31282;&#33865;&#23822;&#30010;&#20108;&#19969;&#30446;" /></node>
<node id="-36" lat="32.611404999" lon="131.676677" visible="true"><tag k="place" v="neighbourhood" /><tag k="name" v="&#31282;&#33865;&#23822;&#30010;&#19977;&#19969;&#30446;" /></node>
<node id="-37" lat="32.613757999" lon="131.681378" visible="true"><tag k="place" v="neighbourhood" /><tag k="name" v="&#31282;&#33865;&#23822;&#30010;&#22235;&#19969;&#30446;" /></node>
<node id="-38" lat="32.616762999" lon="131.673349" visible="true"><tag k="place" v="neighbourhood" /><tag k="name" v="&#31282;&#33865;&#23822;&#30010;&#20116;&#19969;&#30446;" /></node>
<node id="-39" lat="32.619074999" lon="131.677223" visible="true"><tag k="place" v="neighbourhood" /><tag k="name" v="&#31282;&#33865;&#23822;&#30010;&#20845;&#19969;&#30446;" /></node>
<node id="-40" lat="32.643215999" lon="131.739906" visible="true"><tag k="place" v="quarter" /><tag k="name" v="&#28006;&#22478;&#30010;" /></node>
<node id="-41" lat="32.586800999" lon="131.670307" visible="true"><tag k="place" v="quarter" /><tag k="name" v="&#24693;&#27604;&#38920;&#30010;" /></node>
<node id="-42" lat="32.608725999" lon="131.731611" visible="true"><tag k="place" v="quarter" /><tag k="name" v="&#36861;&#20869;&#30010;" /></node>
<node id="-43" lat="32.575937999" lon="131.665005" visible="true"><tag k="place" v="neighbourhood" /><tag k="name" v="&#22823;&#28716;&#30010;&#19968;&#19969;&#30446;" /></node>
<node id="-44" lat="32.572911999" lon="131.666125" visible="true"><tag k="place" v="neighbourhood" /><tag k="name" v="&#22823;&#28716;&#30010;&#20108;&#19969;&#30446;" /></node>
<node id="-45" lat="32.571432999" lon="131.667133" visible="true"><tag k="place" v="neighbourhood" /><tag k="name" v="&#22823;&#28716;&#30010;&#19977;&#19969;&#30446;" /></node>
<node id="-46" lat="32.637073999" lon="131.660581" visible="true"><tag k="place" v="quarter" /><tag k="name" v="&#22823;&#23777;&#30010;" /></node>
<node id="-47" lat="32.602522999" lon="131.680747" visible="true"><tag k="place" v="quarter" /><tag k="name" v="&#22823;&#38272;&#30010;" /></node>
<node id="-48" lat="32.595717999" lon="131.695277" visible="true"><tag k="place" v="quarter" /><tag k="name" v="&#22823;&#27494;&#30010;" /></node>
<node id="-49" lat="32.580557999" lon="131.656089" visible="true"><tag k="place" v="neighbourhood" /><tag k="name" v="&#22823;&#36011;&#30010;&#19968;&#19969;&#30446;" /></node>
<node id="-50" lat="32.576674999" lon="131.655149" visible="true"><tag k="place" v="neighbourhood" /><tag k="name" v="&#22823;&#36011;&#30010;&#20108;&#19969;&#30446;" /></node>
<node id="-51" lat="32.573468999" lon="131.654983" visible="true"><tag k="place" v="neighbourhood" /><tag k="name" v="&#22823;&#36011;&#30010;&#19977;&#19969;&#30446;" /></node>
<node id="-52" lat="32.575787999" lon="131.649991" visible="true"><tag k="place" v="neighbourhood" /><tag k="name" v="&#22823;&#36011;&#30010;&#22235;&#19969;&#30446;" /></node>
<node id="-53" lat="32.568884999" lon="131.650547" visible="true"><tag k="place" v="neighbourhood" /><tag k="name" v="&#22823;&#36011;&#30010;&#20116;&#19969;&#30446;" /></node>
<node id="-54" lat="32.566491999" lon="131.644725" visible="true"><tag k="place" v="neighbourhood" /><tag k="name" v="&#22823;&#36011;&#30010;&#20845;&#19969;&#30446;" /></node>
<node id="-55" lat="32.624195999" lon="131.613588" visible="true"><tag k="place" v="quarter" /><tag k="name" v="&#22823;&#37326;&#30010;" /></node>
<node id="-56" lat="32.588214999" lon="131.659929" visible="true"><tag k="place" v="quarter" /><tag k="name" v="&#23713;&#23500;&#30010;" /></node>
<node id="-57" lat="32.569634999" lon="131.562785" visible="true"><tag k="place" v="quarter" /><tag k="name" v="&#23713;&#20803;&#30010;" /></node>
<node id="-58" lat="32.544824999" lon="131.667726" visible="true"><tag k="place" v="quarter" /><tag k="name" v="&#27798;&#30000;&#30010;" /></node>
<node id="-59" lat="32.610442999" lon="131.661783" visible="true"><tag k="place" v="quarter" /><tag k="name" v="&#23614;&#23822;&#30010;" /></node>
<node id="-60" lat="32.577473999" lon="131.685272" visible="true"><tag k="place" v="quarter" /><tag k="name" v="&#21368;&#26412;&#30010;" /></node>
<node id="-61" lat="32.567744999" lon="131.597929" visible="true"><tag k="place" v="quarter" /><tag k="name" v="&#35997;&#12398;&#30033;&#30010;" /></node>
<node id="-62" lat="32.601791999" lon="131.677391" visible="true"><tag k="place" v="neighbourhood" /><tag k="name" v="&#27179;&#23665;&#30010;&#19968;&#19969;&#30446;" /></node>
<node id="-63" lat="32.603880999" lon="131.67817" visible="true"><tag k="place" v="neighbourhood" /><tag k="name" v="&#27179;&#23665;&#30010;&#20108;&#19969;&#30446;" /></node>
<node id="-64" lat="32.604078999" lon="131.676717" visible="true"><tag k="place" v="neighbourhood" /><tag k="name" v="&#27179;&#23665;&#30010;&#19977;&#19969;&#30446;" /></node>
<node id="-65" lat="32.632797999" lon="131.704284" visible="true"><tag k="place" v="quarter" /><tag k="name" v="&#40575;&#23567;&#36335;" /></node>
<node id="-66" lat="32.577546999" lon="131.667433" visible="true"><tag k="place" v="neighbourhood" /><tag k="name" v="&#26149;&#26085;&#30010;&#19968;&#19969;&#30446;" /></node>
<node id="-67" lat="32.576338999" lon="131.667734" visible="true"><tag k="place" v="neighbourhood" /><tag k="name" v="&#26149;&#26085;&#30010;&#20108;&#19969;&#30446;" /></node>
<node id="-68" lat="32.575832999" lon="131.667271" visible="true"><tag k="place" v="neighbourhood" /><tag k="name" v="&#26149;&#26085;&#30010;&#19977;&#19969;&#30446;" /></node>
<node id="-69" lat="32.549990999" lon="131.658652" visible="true"><tag k="place" v="quarter" /><tag k="name" v="&#29255;&#30000;&#30010;" /></node>
<node id="-70" lat="32.559466999" lon="131.675939" visible="true"><tag k="place" v="neighbourhood" /><tag k="name" v="&#27083;&#21475;&#30010;&#19968;&#19969;&#30446;" /></node>
<node id="-71" lat="32.557657999" lon="131.673352" visible="true"><tag k="place" v="neighbourhood" /><tag k="name" v="&#27083;&#21475;&#30010;&#20108;&#19969;&#30446;" /></node>
<node id="-72" lat="32.527250999" lon="131.634718" visible="true"><tag k="place" v="quarter" /><tag k="name" v="&#19978;&#20234;&#24418;&#30010;" /></node>
<node id="-73" lat="32.575038999" lon="131.6625" visible="true"><tag k="place" v="quarter" /><tag k="name" v="&#19978;&#22823;&#28716;&#30010;" /></node>
<node id="-74" lat="32.550361999" lon="131.56738" visible="true"><tag k="place" v="quarter" /><tag k="name" v="&#19978;&#19977;&#36650;&#30010;" /></node>
<node id="-75" lat="32.623240999" lon="131.704381" visible="true"><tag k="place" v="quarter" /><tag k="name" v="&#24029;&#23798;&#30010;" /></node>
<node id="-76" lat="32.592212999" lon="131.679723" visible="true"><tag k="place" v="quarter" /><tag k="name" v="&#24029;&#21407;&#23822;&#30010;" /></node>
<node id="-77" lat="32.584715999" lon="131.669021" visible="true"><tag k="place" v="neighbourhood" /><tag k="name" v="&#31047;&#22290;&#30010;&#19968;&#19969;&#30446;" /></node>
<node id="-78" lat="32.586223999" lon="131.668946" visible="true"><tag k="place" v="neighbourhood" /><tag k="name" v="&#31047;&#22290;&#30010;&#20108;&#19969;&#30446;" /></node>
<node id="-79" lat="32.723890999" lon="131.849342" visible="true"><tag k="place" v="quarter" /><tag k="name" v="&#21271;&#28006;&#30010;&#24066;&#25391;" /></node>
<node id="-80" lat="32.700216999" lon="131.807522" visible="true"><tag k="place" v="quarter" /><tag k="name" v="&#21271;&#28006;&#30010;&#21476;&#27743;" /></node>
<node id="-81" lat="32.777664999" lon="131.802072" visible="true"><tag k="place" v="quarter" /><tag k="name" v="&#21271;&#28006;&#30010;&#19977;&#24029;&#20869;" /></node>
<node id="-82" lat="32.698660999" lon="131.845298" visible="true"><tag k="place" v="quarter" /><tag k="name" v="&#21271;&#28006;&#30010;&#23470;&#37326;&#28006;" /></node>
<node id="-83" lat="32.659595999" lon="131.508882" visible="true"><tag k="place" v="quarter" /><tag k="name" v="&#21271;&#26041;&#30010;&#26495;&#19978;" /></node>
<node id="-84" lat="32.618468999" lon="131.534376" visible="true"><tag k="place" v="quarter" /><tag k="name" v="&#21271;&#26041;&#30010;&#26495;&#19979;" /></node>
<node id="-85" lat="32.588970999" lon="131.529834" visible="true"><tag k="place" v="quarter" /><tag k="name" v="&#21271;&#26041;&#30010;&#12358;&#12381;&#36234;" /></node>
<node id="-86" lat="32.548349999" lon="131.537983" visible="true"><tag k="place" v="quarter" /><tag k="name" v="&#21271;&#26041;&#30010;&#31520;&#19979;" /></node>
<node id="-87" lat="32.570379999" lon="131.501457" visible="true"><tag k="place" v="quarter" /><tag k="name" v="&#21271;&#26041;&#30010;&#19978;&#23822;" /></node>
<node id="-88" lat="32.712172999" lon="131.504605" visible="true"><tag k="place" v="quarter" /><tag k="name" v="&#21271;&#26041;&#30010;&#19978;&#40575;&#24029;" /></node>
<node id="-89" lat="32.559691999" lon="131.513106" visible="true"><tag k="place" v="quarter" /><tag k="name" v="&#21271;&#26041;&#30010;&#24029;&#27700;&#27969;" /></node>
<node id="-90" lat="32.582921999" lon="131.523525" visible="true"><tag k="place" v="quarter" /><tag k="name" v="&#21271;&#26041;&#30010;&#21271;&#20037;&#20445;&#23665;" /></node>
<node id="-91" lat="32.589343999" lon="131.506166" visible="true"><tag k="place" v="quarter" /><tag k="name" v="&#21271;&#26041;&#30010;&#34101;&#30000;" /></node>
<node id="-92" lat="32.637414999" lon="131.486161" visible="true"><tag k="place" v="quarter" /><tag k="name" v="&#21271;&#26041;&#30010;&#19977;&#12465;&#26449;" /></node>
<node id="-93" lat="32.614685999" lon="131.467295" visible="true"><tag k="place" v="quarter" /><tag k="name" v="&#21271;&#26041;&#30010;&#26894;&#30033;" /></node>
<node id="-94" lat="32.672394999" lon="131.472467" visible="true"><tag k="place" v="quarter" /><tag k="name" v="&#21271;&#26041;&#30010;&#19979;&#40575;&#24029;" /></node>
<node id="-95" lat="32.640947999" lon="131.446904" visible="true"><tag k="place" v="quarter" /><tag k="name" v="&#21271;&#26041;&#30010;&#33733;&#21407;" /></node>
<node id="-96" lat="32.582407999" lon="131.550109" visible="true"><tag k="place" v="quarter" /><tag k="name" v="&#21271;&#26041;&#30010;&#26365;&#26408;" /></node>
<node id="-97" lat="32.608263999" lon="131.46665" visible="true"><tag k="place" v="quarter" /><tag k="name" v="&#21271;&#26041;&#30010;&#28381;&#19979;" /></node>
<node id="-98" lat="32.562516999" lon="131.538605" visible="true"><tag k="place" v="quarter" /><tag k="name" v="&#21271;&#26041;&#30010;&#35282;&#30000;" /></node>
<node id="-99" lat="32.592085999" lon="131.452377" visible="true"><tag k="place" v="quarter" /><tag k="name" v="&#21271;&#26041;&#30010;&#26089;&#19978;" /></node>
<node id="-100" lat="32.580642999" lon="131.467003" visible="true"><tag k="place" v="quarter" /><tag k="name" v="&#21271;&#26041;&#30010;&#26089;&#20013;" /></node>
<node id="-101" lat="32.585966999" lon="131.483509" visible="true"><tag k="place" v="quarter" /><tag k="name" v="&#21271;&#26041;&#30010;&#26089;&#26085;&#28193;" /></node>
<node id="-102" lat="32.618055999" lon="131.457098" visible="true"><tag k="place" v="quarter" /><tag k="name" v="&#21271;&#26041;&#30010;&#26085;&#24179;" /></node>
<node id="-103" lat="32.623342999" lon="131.512886" visible="true"><tag k="place" v="quarter" /><tag k="name" v="&#21271;&#26041;&#30010;&#34276;&#12398;&#26408;" /></node>
<node id="-104" lat="32.625567999" lon="131.45534" visible="true"><tag k="place" v="quarter" /><tag k="name" v="&#21271;&#26041;&#30010;&#27079;&#23792;" /></node>
<node id="-105" lat="32.574093999" lon="131.535043" visible="true"><tag k="place" v="quarter" /><tag k="name" v="&#21271;&#26041;&#30010;&#21335;&#20037;&#20445;&#23665;" /></node>
<node id="-106" lat="32.636996999" lon="131.463707" visible="true"><tag k="place" v="quarter" /><tag k="name" v="&#21271;&#26041;&#30010;&#32654;&#12293;&#22320;" /></node>
<node id="-107" lat="32.610433999" lon="131.491315" visible="true"><tag k="place" v="quarter" /><tag k="name" v="&#21271;&#26041;&#30010;&#20843;&#23777;" /></node>
<node id="-108" lat="32.662538999" lon="131.688294" visible="true"><tag k="place" v="quarter" /><tag k="name" v="&#21271;&#24029;&#30010;&#38263;&#20117;" /></node>
<node id="-109" lat="32.585343999" lon="131.664065" visible="true"><tag k="place" v="quarter" /><tag k="name" v="&#21271;&#23567;&#36335;" /></node>
<node id="-110" lat="32.575638999" lon="131.66397" visible="true"><tag k="place" v="quarter" /><tag k="name" v="&#21271;&#26032;&#23567;&#36335;" /></node>
<node id="-111" lat="32.528123999" lon="131.675931" visible="true"><tag k="place" v="neighbourhood" /><tag k="name" v="&#21271;&#19968;&#12465;&#23713;&#19968;&#19969;&#30446;" /></node>
<node id="-112" lat="32.526922999" lon="131.676817" visible="true"><tag k="place" v="neighbourhood" /><tag k="name" v="&#21271;&#19968;&#12465;&#23713;&#20108;&#19969;&#30446;" /></node>
<node id="-113" lat="32.525885999" lon="131.679997" visible="true"><tag k="place" v="neighbourhood" /><tag k="name" v="&#21271;&#19968;&#12465;&#23713;&#19977;&#19969;&#30446;" /></node>
<node id="-114" lat="32.524514999" lon="131.676988" visible="true"><tag k="place" v="neighbourhood" /><tag k="name" v="&#21271;&#19968;&#12465;&#23713;&#22235;&#19969;&#30446;" /></node>
<node id="-115" lat="32.583107999" lon="131.667352" visible="true"><tag k="place" v="neighbourhood" /><tag k="name" v="&#21271;&#30010;&#19968;&#19969;&#30446;" /></node>
<node id="-116" lat="32.583124999" lon="131.665724" visible="true"><tag k="place" v="neighbourhood" /><tag k="name" v="&#21271;&#30010;&#20108;&#19969;&#30446;" /></node>
<node id="-117" lat="32.565030999" lon="131.673546" visible="true"><tag k="place" v="quarter" /><tag k="name" v="&#20849;&#26628;&#30010;" /></node>
<node id="-118" lat="32.501572999" lon="131.677992" visible="true"><tag k="place" v="quarter" /><tag k="name" v="&#27355;&#27941;&#30010;" /></node>
<node id="-119" lat="32.695379999" lon="131.772757" visible="true"><tag k="place" v="quarter" /><tag k="name" v="&#29066;&#37326;&#27743;&#30010;" /></node>
<node id="-120" lat="32.638990999" lon="131.630424" visible="true"><tag k="place" v="quarter" /><tag k="name" v="&#26705;&#24179;&#30010;" /></node>
<node id="-121" lat="32.600174999" lon="131.742215" visible="true"><tag k="place" v="quarter" /><tag k="name" v="&#31070;&#25144;&#30010;" /></node>
<node id="-122" lat="32.590495999" lon="131.565476" visible="true"><tag k="place" v="quarter" /><tag k="name" v="&#23567;&#24029;&#30010;" /></node>
<node id="-123" lat="32.549532999" lon="131.645065" visible="true"><tag k="place" v="quarter" /><tag k="name" v="&#23567;&#37326;&#30010;" /></node>
<node id="-124" lat="32.584227999" lon="131.670428" visible="true"><tag k="place" v="neighbourhood" /><tag k="name" v="&#32058;&#23627;&#30010;&#19968;&#19969;&#30446;" /></node>
<node id="-125" lat="32.584196999" lon="131.672732" visible="true"><tag k="place" v="neighbourhood" /><tag k="name" v="&#32058;&#23627;&#30010;&#20108;&#19969;&#30446;" /></node>
<node id="-126" lat="32.572517999" lon="131.662158" visible="true"><tag k="place" v="quarter" /><tag k="name" v="&#35199;&#23567;&#36335;" /></node>
<node id="-127" lat="32.587355999" lon="131.671615" visible="true"><tag k="place" v="neighbourhood" /><tag k="name" v="&#24184;&#30010;&#19968;&#19969;&#30446;" /></node>
<node id="-128" lat="32.588542999" lon="131.671671" visible="true"><tag k="place" v="neighbourhood" /><tag k="name" v="&#24184;&#30010;&#20108;&#19969;&#30446;" /></node>
<node id="-129" lat="32.589659999" lon="131.671682" visible="true"><tag k="place" v="neighbourhood" /><tag k="name" v="&#24184;&#30010;&#19977;&#19969;&#30446;" /></node>
<node id="-130" lat="32.588439999" lon="131.67035" visible="true"><tag k="place" v="quarter" /><tag k="name" v="&#26628;&#30010;" /></node>
<node id="-131" lat="32.607351999" lon="131.674243" visible="true"><tag k="place" v="neighbourhood" /><tag k="name" v="&#26716;&#12465;&#19992;&#19968;&#19969;&#30446;" /></node>
<node id="-132" lat="32.611334999" lon="131.669317" visible="true"><tag k="place" v="neighbourhood" /><tag k="name" v="&#26716;&#12465;&#19992;&#20108;&#19969;&#30446;" /></node>
<node id="-133" lat="32.620701999" lon="131.661229" visible="true"><tag k="place" v="neighbourhood" /><tag k="name" v="&#26716;&#12465;&#19992;&#19977;&#19969;&#30446;" /></node>
<node id="-134" lat="32.578599999" lon="131.661973" visible="true"><tag k="place" v="quarter" /><tag k="name" v="&#26716;&#23567;&#36335;" /></node>
<node id="-135" lat="32.594677999" lon="131.675211" visible="true"><tag k="place" v="quarter" /><tag k="name" v="&#26716;&#22290;&#30010;" /></node>
<node id="-136" lat="32.630598999" lon="131.688478" visible="true"><tag k="place" v="quarter" /><tag k="name" v="&#24046;&#26408;&#37326;&#30010;" /></node>
<node id="-137" lat="32.622864999" lon="131.643449" visible="true"><tag k="place" v="quarter" /><tag k="name" v="&#20304;&#37326;&#30010;" /></node>
<node id="-138" lat="32.664716999" lon="131.821049" visible="true"><tag k="place" v="quarter" /><tag k="name" v="&#23798;&#28006;&#30010;" /></node>
<node id="-139" lat="32.517866999" lon="131.667898" visible="true"><tag k="place" v="quarter" /><tag k="name" v="&#19979;&#20234;&#24418;&#30010;" /></node>
<node id="-140" lat="32.545075999" lon="131.611025" visible="true"><tag k="place" v="quarter" /><tag k="name" v="&#19979;&#19977;&#36650;&#30010;" /></node>
<node id="-141" lat="32.585570999" lon="131.675807" visible="true"><tag k="place" v="neighbourhood" /><tag k="name" v="&#26157;&#21644;&#30010;&#19968;&#19969;&#30446;" /></node>
<node id="-142" lat="32.586654999" lon="131.679145" visible="true"><tag k="place" v="neighbourhood" /><tag k="name" v="&#26157;&#21644;&#30010;&#20108;&#19969;&#30446;" /></node>
<node id="-143" lat="32.589231999" lon="131.686248" visible="true"><tag k="place" v="neighbourhood" /><tag k="name" v="&#26157;&#21644;&#30010;&#19977;&#19969;&#30446;" /></node>
<node id="-144" lat="32.619636999" lon="131.721898" visible="true"><tag k="place" v="quarter" /><tag k="name" v="&#30333;&#30707;&#30010;" /></node>
<node id="-145" lat="32.542949999" lon="131.678739" visible="true"><tag k="place" v="neighbourhood" /><tag k="name" v="&#22633;&#27996;&#30010;&#19968;&#19969;&#30446;" /></node>
<node id="-146" lat="32.542798999" lon="131.674038" visible="true"><tag k="place" v="neighbourhood" /><tag k="name" v="&#22633;&#27996;&#30010;&#20108;&#19969;&#30446;" /></node>
<node id="-147" lat="32.539281999" lon="131.669929" visible="true"><tag k="place" v="neighbourhood" /><tag k="name" v="&#22633;&#27996;&#30010;&#19977;&#19969;&#30446;" /></node>
<node id="-148" lat="32.537046999" lon="131.676594" visible="true"><tag k="place" v="neighbourhood" /><tag k="name" v="&#22633;&#27996;&#30010;&#22235;&#19969;&#30446;" /></node>
<node id="-149" lat="32.572482999" lon="131.664653" visible="true"><tag k="place" v="neighbourhood" /><tag k="name" v="&#26032;&#23567;&#36335;&#19968;&#19969;&#30446;" /></node>
<node id="-150" lat="32.570329999" lon="131.665957" visible="true"><tag k="place" v="neighbourhood" /><tag k="name" v="&#26032;&#23567;&#36335;&#20108;&#19969;&#30446;" /></node>
<node id="-151" lat="32.525641999" lon="131.685254" visible="true"><tag k="place" v="neighbourhood" /><tag k="name" v="&#26032;&#27996;&#30010;&#20108;&#19969;&#30446;" /></node>
<node id="-152" lat="32.580510999" lon="131.670815" visible="true"><tag k="place" v="quarter" /><tag k="name" v="&#26032;&#30010;" /></node>
<node id="-153" lat="32.581969999" lon="131.674213" visible="true"><tag k="place" v="quarter" /><tag k="name" v="&#38920;&#23822;&#30010;" /></node>
<node id="-154" lat="32.643080999" lon="131.698888" visible="true"><tag k="place" v="quarter" /><tag k="name" v="&#38920;&#20304;&#30010;" /></node>
<node id="-155" lat="32.666841999" lon="131.759758" visible="true"><tag k="place" v="quarter" /><tag k="name" v="&#38920;&#32654;&#27743;&#30010;" /></node>
<node id="-156" lat="32.585898999" lon="131.67153" visible="true"><tag k="place" v="neighbourhood" /><tag k="name" v="&#28716;&#20043;&#21475;&#30010;&#19968;&#19969;&#30446;" /></node>
<node id="-157" lat="32.585893999" lon="131.67291" visible="true"><tag k="place" v="neighbourhood" /><tag k="name" v="&#28716;&#20043;&#21475;&#30010;&#20108;&#19969;&#30446;" /></node>
<node id="-158" lat="32.580539999" lon="131.678008" visible="true"><tag k="place" v="quarter" /><tag k="name" v="&#24803;&#38936;&#30010;" /></node>
<node id="-159" lat="32.505114999" lon="131.696568" visible="true"><tag k="place" v="quarter" /><tag k="name" v="&#39899;&#21517;&#30010;" /></node>
<node id="-160" lat="32.588016999" lon="131.666303" visible="true"><tag k="place" v="quarter" /><tag k="name" v="&#39640;&#21315;&#31298;&#36890;" /></node>
<node id="-161" lat="32.585205999" lon="131.611057" visible="true"><tag k="place" v="quarter" /><tag k="name" v="&#39640;&#37326;&#30010;" /></node>
<node id="-162" lat="32.563937999" lon="131.673167" visible="true"><tag k="place" v="neighbourhood" /><tag k="name" v="&#20234;&#36948;&#30010;&#19968;&#19969;&#30446;" /></node>
<node id="-163" lat="32.561802999" lon="131.674052" visible="true"><tag k="place" v="neighbourhood" /><tag k="name" v="&#20234;&#36948;&#30010;&#20108;&#19969;&#30446;" /></node>
<node id="-164" lat="32.560523999" lon="131.67423" visible="true"><tag k="place" v="neighbourhood" /><tag k="name" v="&#20234;&#36948;&#30010;&#19977;&#19969;&#30446;" /></node>
<node id="-165" lat="32.582948999" lon="131.66878" visible="true"><tag k="place" v="neighbourhood" /><tag k="name" v="&#20013;&#22830;&#36890;&#19968;&#19969;&#30446;" /></node>
<node id="-166" lat="32.581616999" lon="131.668836" visible="true"><tag k="place" v="neighbourhood" /><tag k="name" v="&#20013;&#22830;&#36890;&#20108;&#19969;&#30446;" /></node>
<node id="-167" lat="32.580004999" lon="131.669391" visible="true"><tag k="place" v="neighbourhood" /><tag k="name" v="&#20013;&#22830;&#36890;&#19977;&#19969;&#30446;" /></node>
<node id="-168" lat="32.571178999" lon="131.662261" visible="true"><tag k="place" v="neighbourhood" /><tag k="name" v="&#24658;&#23500;&#30010;&#19968;&#19969;&#30446;" /></node>
<node id="-169" lat="32.569964999" lon="131.662822" visible="true"><tag k="place" v="neighbourhood" /><tag k="name" v="&#24658;&#23500;&#30010;&#20108;&#19969;&#30446;" /></node>
<node id="-170" lat="32.568748999" lon="131.662876" visible="true"><tag k="place" v="neighbourhood" /><tag k="name" v="&#24658;&#23500;&#30010;&#19977;&#19969;&#30446;" /></node>
<node id="-171" lat="32.566463999" lon="131.663968" visible="true"><tag k="place" v="neighbourhood" /><tag k="name" v="&#24658;&#23500;&#30010;&#22235;&#19969;&#30446;" /></node>
<node id="-172" lat="32.544471999" lon="131.674435" visible="true"><tag k="place" v="neighbourhood" /><tag k="name" v="&#40372;&#12465;&#19992;&#19968;&#19969;&#30446;" /></node>
<node id="-173" lat="32.543550999" lon="131.670985" visible="true"><tag k="place" v="neighbourhood" /><tag k="name" v="&#40372;&#12465;&#19992;&#20108;&#19969;&#30446;" /></node>
<node id="-174" lat="32.580773999" lon="131.658833" visible="true"><tag k="place" v="quarter" /><tag k="name" v="&#22825;&#31070;&#23567;&#36335;" /></node>
<node id="-175" lat="32.596812999" lon="131.713817" visible="true"><tag k="place" v="quarter" /><tag k="name" v="&#26481;&#28023;&#30010;" /></node>
<node id="-176" lat="32.516521999" lon="131.682119" visible="true"><tag k="place" v="neighbourhood" /><tag k="name" v="&#22303;&#12293;&#21570;&#30010;&#19968;&#19969;&#30446;" /></node>
<node id="-177" lat="32.512460999" lon="131.67928" visible="true"><tag k="place" v="neighbourhood" /><tag k="name" v="&#22303;&#12293;&#21570;&#30010;&#20108;&#19969;&#30446;" /></node>
<node id="-178" lat="32.511965999" lon="131.68226" visible="true"><tag k="place" v="neighbourhood" /><tag k="name" v="&#22303;&#12293;&#21570;&#30010;&#19977;&#19969;&#30446;" /></node>
<node id="-179" lat="32.508605999" lon="131.679913" visible="true"><tag k="place" v="neighbourhood" /><tag k="name" v="&#22303;&#12293;&#21570;&#30010;&#22235;&#19969;&#30446;" /></node>
<node id="-180" lat="32.508363999" lon="131.669954" visible="true"><tag k="place" v="neighbourhood" /><tag k="name" v="&#22303;&#12293;&#21570;&#30010;&#20116;&#19969;&#30446;" /></node>
<node id="-181" lat="32.503929999" lon="131.671713" visible="true"><tag k="place" v="neighbourhood" /><tag k="name" v="&#22303;&#12293;&#21570;&#30010;&#20845;&#19969;&#30446;" /></node>
<node id="-182" lat="32.596648999" lon="131.660878" visible="true"><tag k="place" v="quarter" /><tag k="name" v="&#23500;&#32654;&#23665;&#30010;" /></node>
<node id="-183" lat="32.573298999" lon="131.667633" visible="true"><tag k="place" v="neighbourhood" /><tag k="name" v="&#27704;&#27744;&#30010;&#19968;&#19969;&#30446;" /></node>
<node id="-184" lat="32.572062999" lon="131.667887" visible="true"><tag k="place" v="neighbourhood" /><tag k="name" v="&#27704;&#27744;&#30010;&#20108;&#19969;&#30446;" /></node>
<node id="-185" lat="32.593780999" lon="131.671949" visible="true"><tag k="place" v="neighbourhood" /><tag k="name" v="&#20013;&#24029;&#21407;&#30010;&#19968;&#19969;&#30446;" /></node>
<node id="-186" lat="32.594750999" lon="131.670829" visible="true"><tag k="place" v="neighbourhood" /><tag k="name" v="&#20013;&#24029;&#21407;&#30010;&#20108;&#19969;&#30446;" /></node>
<node id="-187" lat="32.595322999" lon="131.67317" visible="true"><tag k="place" v="neighbourhood" /><tag k="name" v="&#20013;&#24029;&#21407;&#30010;&#19977;&#19969;&#30446;" /></node>
<node id="-188" lat="32.598966999" lon="131.676093" visible="true"><tag k="place" v="neighbourhood" /><tag k="name" v="&#20013;&#24029;&#21407;&#30010;&#22235;&#19969;&#30446;" /></node>
<node id="-189" lat="32.599785999" lon="131.67311" visible="true"><tag k="place" v="neighbourhood" /><tag k="name" v="&#20013;&#24029;&#21407;&#30010;&#20116;&#19969;&#30446;" /></node>
<node id="-190" lat="32.577640999" lon="131.671855" visible="true"><tag k="place" v="neighbourhood" /><tag k="name" v="&#20013;&#23798;&#30010;&#19968;&#19969;&#30446;" /></node>
<node id="-191" lat="32.579325999" lon="131.67423" visible="true"><tag k="place" v="neighbourhood" /><tag k="name" v="&#20013;&#23798;&#30010;&#20108;&#19969;&#30446;" /></node>
<node id="-192" lat="32.577436999" lon="131.674881" visible="true"><tag k="place" v="neighbourhood" /><tag k="name" v="&#20013;&#23798;&#30010;&#19977;&#19969;&#30446;" /></node>
<node id="-193" lat="32.576561999" lon="131.675348" visible="true"><tag k="place" v="neighbourhood" /><tag k="name" v="&#20013;&#23798;&#30010;&#22235;&#19969;&#30446;" /></node>
<node id="-194" lat="32.598277999" lon="131.678153" visible="true"><tag k="place" v="neighbourhood" /><tag k="name" v="&#20013;&#12398;&#28716;&#30010;&#19968;&#19969;&#30446;" /></node>
<node id="-195" lat="32.595624999" lon="131.679906" visible="true"><tag k="place" v="neighbourhood" /><tag k="name" v="&#20013;&#12398;&#28716;&#30010;&#20108;&#19969;&#30446;" /></node>
<node id="-196" lat="32.576653999" lon="131.692844" visible="true"><tag k="place" v="neighbourhood" /><tag k="name" v="&#38263;&#27996;&#30010;&#19968;&#19969;&#30446;" /></node>
<node id="-197" lat="32.572542999" lon="131.691627" visible="true"><tag k="place" v="neighbourhood" /><tag k="name" v="&#38263;&#27996;&#30010;&#20108;&#19969;&#30446;" /></node>
<node id="-198" lat="32.575411999" lon="131.697106" visible="true"><tag k="place" v="neighbourhood" /><tag k="name" v="&#38263;&#27996;&#30010;&#19977;&#19969;&#30446;" /></node>
<node id="-199" lat="32.566379999" lon="131.688951" visible="true"><tag k="place" v="neighbourhood" /><tag k="name" v="&#38263;&#27996;&#30010;&#22235;&#19969;&#30446;" /></node>
<node id="-200" lat="32.581792999" lon="131.667438" visible="true"><tag k="place" v="neighbourhood" /><tag k="name" v="&#20013;&#30010;&#19968;&#19969;&#30446;" /></node>
<node id="-201" lat="32.581668999" lon="131.666096" visible="true"><tag k="place" v="neighbourhood" /><tag k="name" v="&#20013;&#30010;&#20108;&#19969;&#30446;" /></node>
<node id="-202" lat="32.546340999" lon="131.592749" visible="true"><tag k="place" v="quarter" /><tag k="name" v="&#20013;&#19977;&#36650;&#30010;" /></node>
<node id="-203" lat="32.606958999" lon="131.66981" visible="true"><tag k="place" v="quarter" /><tag k="name" v="&#22799;&#30000;&#30010;" /></node>
<node id="-204" lat="32.570669999" lon="131.641292" visible="true"><tag k="place" v="neighbourhood" /><tag k="name" v="&#35199;&#38542;&#30010;&#19968;&#19969;&#30446;" /></node>
<node id="-205" lat="32.568483999" lon="131.636905" visible="true"><tag k="place" v="neighbourhood" /><tag k="name" v="&#35199;&#38542;&#30010;&#20108;&#19969;&#30446;" /></node>
<node id="-206" lat="32.567348999" lon="131.629935" visible="true"><tag k="place" v="neighbourhood" /><tag k="name" v="&#35199;&#38542;&#30010;&#19977;&#19969;&#30446;" /></node>
<node id="-207" lat="32.574510999" lon="131.644415" visible="true"><tag k="place" v="neighbourhood" /><tag k="name" v="&#37326;&#22320;&#30010;&#19968;&#19969;&#30446;" /></node>
<node id="-208" lat="32.575693999" lon="131.642192" visible="true"><tag k="place" v="neighbourhood" /><tag k="name" v="&#37326;&#22320;&#30010;&#20108;&#19969;&#30446;" /></node>
<node id="-209" lat="32.578738999" lon="131.647232" visible="true"><tag k="place" v="neighbourhood" /><tag k="name" v="&#37326;&#22320;&#30010;&#19977;&#19969;&#30446;" /></node>
<node id="-210" lat="32.579749999" lon="131.64548" visible="true"><tag k="place" v="neighbourhood" /><tag k="name" v="&#37326;&#22320;&#30010;&#22235;&#19969;&#30446;" /></node>
<node id="-211" lat="32.582217999" lon="131.650397" visible="true"><tag k="place" v="neighbourhood" /><tag k="name" v="&#37326;&#22320;&#30010;&#20116;&#19969;&#30446;" /></node>
<node id="-212" lat="32.578956999" lon="131.640564" visible="true"><tag k="place" v="neighbourhood" /><tag k="name" v="&#37326;&#22320;&#30010;&#20845;&#19969;&#30446;" /></node>
<node id="-213" lat="32.591830999" lon="131.67174" visible="true"><tag k="place" v="quarter" /><tag k="name" v="&#33833;&#30010;" /></node>
<node id="-214" lat="32.585678999" lon="131.670082" visible="true"><tag k="place" v="quarter" /><tag k="name" v="&#21338;&#21172;&#30010;" /></node>
<node id="-215" lat="32.579978999" lon="131.681232" visible="true"><tag k="place" v="neighbourhood" /><tag k="name" v="&#27996;&#30722;&#19968;&#19969;&#30446;" /></node>
<node id="-216" lat="32.580574999" lon="131.683092" visible="true"><tag k="place" v="neighbourhood" /><tag k="name" v="&#27996;&#30722;&#20108;&#19969;&#30446;" /></node>
<node id="-217" lat="32.580704999" lon="131.68576" visible="true"><tag k="place" v="neighbourhood" /><tag k="name" v="&#27996;&#30722;&#19977;&#19969;&#30446;" /></node>
<node id="-218" lat="32.583561999" lon="131.683667" visible="true"><tag k="place" v="quarter" /><tag k="name" v="&#27996;&#30722;&#30010;" /></node>
<node id="-219" lat="32.559056999" lon="131.679988" visible="true"><tag k="place" v="quarter" /><tag k="name" v="&#27996;&#30010;" /></node>
<node id="-220" lat="32.581195999" lon="131.692814" visible="true"><tag k="place" v="quarter" /><tag k="name" v="&#26481;&#27996;&#30722;&#30010;" /></node>
<node id="-221" lat="32.581429999" lon="131.664064" visible="true"><tag k="place" v="quarter" /><tag k="name" v="&#26481;&#26412;&#23567;&#36335;" /></node>
<node id="-222" lat="32.588124999" lon="131.674613" visible="true"><tag k="place" v="neighbourhood" /><tag k="name" v="&#26085;&#12398;&#20986;&#30010;&#19968;&#19969;&#30446;" /></node>
<node id="-223" lat="32.590842999" lon="131.674251" visible="true"><tag k="place" v="neighbourhood" /><tag k="name" v="&#26085;&#12398;&#20986;&#30010;&#20108;&#19969;&#30446;" /></node>
<node id="-224" lat="32.566850999" lon="131.681281" visible="true"><tag k="place" v="quarter" /><tag k="name" v="&#21029;&#24220;&#30010;" /></node>
<node id="-225" lat="32.589270999" lon="131.602902" visible="true"><tag k="place" v="quarter" /><tag k="name" v="&#24179;&#30000;&#30010;" /></node>
<node id="-226" lat="32.555410999" lon="131.672817" visible="true"><tag k="place" v="neighbourhood" /><tag k="name" v="&#24179;&#21407;&#30010;&#19968;&#19969;&#30446;" /></node>
<node id="-227" lat="32.551691999" lon="131.673318" visible="true"><tag k="place" v="neighbourhood" /><tag k="name" v="&#24179;&#21407;&#30010;&#20108;&#19969;&#30446;" /></node>
<node id="-228" lat="32.549664999" lon="131.674336" visible="true"><tag k="place" v="neighbourhood" /><tag k="name" v="&#24179;&#21407;&#30010;&#19977;&#19969;&#30446;" /></node>
<node id="-229" lat="32.547088999" lon="131.675435" visible="true"><tag k="place" v="neighbourhood" /><tag k="name" v="&#24179;&#21407;&#30010;&#22235;&#19969;&#30446;" /></node>
<node id="-230" lat="32.549792999" lon="131.677292" visible="true"><tag k="place" v="neighbourhood" /><tag k="name" v="&#24179;&#21407;&#30010;&#20116;&#19969;&#30446;" /></node>
<node id="-231" lat="32.606458999" lon="131.700472" visible="true"><tag k="place" v="quarter" /><tag k="name" v="&#20108;&#12484;&#23798;&#30010;" /></node>
<node id="-232" lat="32.582398999" lon="131.669848" visible="true"><tag k="place" v="neighbourhood" /><tag k="name" v="&#33337;&#20489;&#30010;&#19968;&#19969;&#30446;" /></node>
<node id="-233" lat="32.582497999" lon="131.671268" visible="true"><tag k="place" v="neighbourhood" /><tag k="name" v="&#33337;&#20489;&#30010;&#20108;&#19969;&#30446;" /></node>
<node id="-234" lat="32.588395999" lon="131.649324" visible="true"><tag k="place" v="quarter" /><tag k="name" v="&#21476;&#24029;&#30010;" /></node>
<node id="-235" lat="32.571941999" lon="131.658136" visible="true"><tag k="place" v="neighbourhood" /><tag k="name" v="&#21476;&#22478;&#30010;&#19968;&#19969;&#30446;" /></node>
<node id="-236" lat="32.568659999" lon="131.659539" visible="true"><tag k="place" v="neighbourhood" /><tag k="name" v="&#21476;&#22478;&#30010;&#20108;&#19969;&#30446;" /></node>
<node id="-237" lat="32.569090999" lon="131.656117" visible="true"><tag k="place" v="neighbourhood" /><tag k="name" v="&#21476;&#22478;&#30010;&#19977;&#19969;&#30446;" /></node>
<node id="-238" lat="32.565607999" lon="131.658958" visible="true"><tag k="place" v="neighbourhood" /><tag k="name" v="&#21476;&#22478;&#30010;&#22235;&#19969;&#30446;" /></node>
<node id="-239" lat="32.563690999" lon="131.654113" visible="true"><tag k="place" v="neighbourhood" /><tag k="name" v="&#21476;&#22478;&#30010;&#20116;&#19969;&#30446;" /></node>
<node id="-240" lat="32.586672999" lon="131.694367" visible="true"><tag k="place" v="quarter" /><tag k="name" v="&#26041;&#36001;&#30010;" /></node>
<node id="-241" lat="32.610409999" lon="131.648144" visible="true"><tag k="place" v="quarter" /><tag k="name" v="&#31069;&#23376;&#30010;" /></node>
<node id="-242" lat="32.569790999" lon="131.583533" visible="true"><tag k="place" v="quarter" /><tag k="name" v="&#32048;&#35211;&#30010;" /></node>
<node id="-243" lat="32.582092999" lon="131.661326" visible="true"><tag k="place" v="quarter" /><tag k="name" v="&#26412;&#23567;&#36335;" /></node>
<node id="-244" lat="32.580147999" lon="131.667557" visible="true"><tag k="place" v="neighbourhood" /><tag k="name" v="&#26412;&#30010;&#19968;&#19969;&#30446;" /></node>
<node id="-245" lat="32.579415999" lon="131.665755" visible="true"><tag k="place" v="neighbourhood" /><tag k="name" v="&#26412;&#30010;&#20108;&#19969;&#30446;" /></node>
<node id="-246" lat="32.580028999" lon="131.591785" visible="true"><tag k="place" v="quarter" /><tag k="name" v="&#33310;&#37326;&#30010;" /></node>
<node id="-247" lat="32.600703999" lon="131.696112" visible="true"><tag k="place" v="quarter" /><tag k="name" v="&#29287;&#30010;" /></node>
<node id="-248" lat="32.523284999" lon="131.683372" visible="true"><tag k="place" v="neighbourhood" /><tag k="name" v="&#26494;&#21407;&#30010;&#19968;&#19969;&#30446;" /></node>
<node id="-249" lat="32.523021999" lon="131.681396" visible="true"><tag k="place" v="neighbourhood" /><tag k="name" v="&#26494;&#21407;&#30010;&#20108;&#19969;&#30446;" /></node>
<node id="-250" lat="32.519667999" lon="131.68596" visible="true"><tag k="place" v="neighbourhood" /><tag k="name" v="&#26494;&#21407;&#30010;&#19977;&#19969;&#30446;" /></node>
<node id="-251" lat="32.520509999" lon="131.681708" visible="true"><tag k="place" v="neighbourhood" /><tag k="name" v="&#26494;&#21407;&#30010;&#22235;&#19969;&#30446;" /></node>
<node id="-252" lat="32.589116999" lon="131.636966" visible="true"><tag k="place" v="quarter" /><tag k="name" v="&#26494;&#23665;&#30010;" /></node>
<node id="-253" lat="32.607540999" lon="131.712488" visible="true"><tag k="place" v="quarter" /><tag k="name" v="&#27700;&#23611;&#30010;" /></node>
<node id="-254" lat="32.561557999" lon="131.641976" visible="true"><tag k="place" v="quarter" /><tag k="name" v="&#19977;&#38920;&#30010;" /></node>
<node id="-255" lat="32.575107999" lon="131.667259" visible="true"><tag k="place" v="neighbourhood" /><tag k="name" v="&#19977;&#12484;&#28716;&#30010;&#19968;&#19969;&#30446;" /></node>
<node id="-256" lat="32.574210999" lon="131.667327" visible="true"><tag k="place" v="neighbourhood" /><tag k="name" v="&#19977;&#12484;&#28716;&#30010;&#20108;&#19969;&#30446;" /></node>
<node id="-257" lat="32.560196999" lon="131.685914" visible="true"><tag k="place" v="neighbourhood" /><tag k="name" v="&#32209;&#12465;&#19992;&#19968;&#19969;&#30446;" /></node>
<node id="-258" lat="32.555904999" lon="131.684205" visible="true"><tag k="place" v="neighbourhood" /><tag k="name" v="&#32209;&#12465;&#19992;&#20108;&#19969;&#30446;" /></node>
<node id="-259" lat="32.552325999" lon="131.682518" visible="true"><tag k="place" v="neighbourhood" /><tag k="name" v="&#32209;&#12465;&#19992;&#19977;&#19969;&#30446;" /></node>
<node id="-260" lat="32.549877999" lon="131.681771" visible="true"><tag k="place" v="neighbourhood" /><tag k="name" v="&#32209;&#12465;&#19992;&#22235;&#19969;&#30446;" /></node>
<node id="-261" lat="32.545157999" lon="131.681577" visible="true"><tag k="place" v="neighbourhood" /><tag k="name" v="&#32209;&#12465;&#19992;&#20116;&#19969;&#30446;" /></node>
<node id="-262" lat="32.520903999" lon="131.679889" visible="true"><tag k="place" v="neighbourhood" /><tag k="name" v="&#21335;&#19968;&#12465;&#23713;&#19968;&#19969;&#30446;" /></node>
<node id="-263" lat="32.521226999" lon="131.677928" visible="true"><tag k="place" v="neighbourhood" /><tag k="name" v="&#21335;&#19968;&#12465;&#23713;&#20108;&#19969;&#30446;" /></node>
<node id="-264" lat="32.521198999" lon="131.675326" visible="true"><tag k="place" v="neighbourhood" /><tag k="name" v="&#21335;&#19968;&#12465;&#23713;&#19977;&#19969;&#30446;" /></node>
<node id="-265" lat="32.517586999" lon="131.677365" visible="true"><tag k="place" v="neighbourhood" /><tag k="name" v="&#21335;&#19968;&#12465;&#23713;&#22235;&#19969;&#30446;" /></node>
<node id="-266" lat="32.515691999" lon="131.679214" visible="true"><tag k="place" v="neighbourhood" /><tag k="name" v="&#21335;&#19968;&#12465;&#23713;&#20116;&#19969;&#30446;" /></node>
<node id="-267" lat="32.518634999" lon="131.680154" visible="true"><tag k="place" v="neighbourhood" /><tag k="name" v="&#21335;&#19968;&#12465;&#23713;&#20845;&#19969;&#30446;" /></node>
<node id="-268" lat="32.514479999" lon="131.676694" visible="true"><tag k="place" v="neighbourhood" /><tag k="name" v="&#21335;&#19968;&#12465;&#23713;&#19971;&#19969;&#30446;" /></node>
<node id="-269" lat="32.580922999" lon="131.667512" visible="true"><tag k="place" v="neighbourhood" /><tag k="name" v="&#21335;&#30010;&#19968;&#19969;&#30446;" /></node>
<node id="-270" lat="32.580439999" lon="131.6658" visible="true"><tag k="place" v="neighbourhood" /><tag k="name" v="&#21335;&#30010;&#20108;&#19969;&#30446;" /></node>
<node id="-271" lat="32.499595999" lon="131.687187" visible="true"><tag k="place" v="quarter" /><tag k="name" v="&#22937;&#35211;&#30010;" /></node>
<node id="-272" lat="32.633835999" lon="131.62682" visible="true"><tag k="place" v="quarter" /><tag k="name" v="&#22937;&#30010;" /></node>
<node id="-273" lat="32.612575999" lon="131.581168" visible="true"><tag k="place" v="quarter" /><tag k="name" v="&#34892;&#32290;&#30010;" /></node>
<node id="-274" lat="32.610928999" lon="131.686103" visible="true"><tag k="place" v="neighbourhood" /><tag k="name" v="&#28961;&#40575;&#30010;&#19968;&#19969;&#30446;" /></node>
<node id="-275" lat="32.608232999" lon="131.691537" visible="true"><tag k="place" v="neighbourhood" /><tag k="name" v="&#28961;&#40575;&#30010;&#20108;&#19969;&#30446;" /></node>
<node id="-276" lat="32.610516999" lon="131.748904" visible="true"><tag k="place" v="quarter" /><tag k="name" v="&#23433;&#20117;&#30010;" /></node>
<node id="-277" lat="32.579116999" lon="131.667962" visible="true"><tag k="place" v="neighbourhood" /><tag k="name" v="&#26611;&#27810;&#30010;&#19968;&#19969;&#30446;" /></node>
<node id="-278" lat="32.578659999" lon="131.665695" visible="true"><tag k="place" v="neighbourhood" /><tag k="name" v="&#26611;&#27810;&#30010;&#20108;&#19969;&#30446;" /></node>
<node id="-279" lat="32.588344999" lon="131.668583" visible="true"><tag k="place" v="neighbourhood" /><tag k="name" v="&#23665;&#19979;&#30010;&#19968;&#19969;&#30446;" /></node>
<node id="-280" lat="32.590121999" lon="131.66823" visible="true"><tag k="place" v="neighbourhood" /><tag k="name" v="&#23665;&#19979;&#30010;&#20108;&#19969;&#30446;" /></node>
<node id="-281" lat="32.592409999" lon="131.669004" visible="true"><tag k="place" v="neighbourhood" /><tag k="name" v="&#23665;&#19979;&#30010;&#19977;&#19969;&#30446;" /></node>
<node id="-282" lat="32.594315999" lon="131.668859" visible="true"><tag k="place" v="neighbourhood" /><tag k="name" v="&#23665;&#26376;&#30010;&#19968;&#19969;&#30446;" /></node>
<node id="-283" lat="32.596697999" lon="131.668935" visible="true"><tag k="place" v="neighbourhood" /><tag k="name" v="&#23665;&#26376;&#30010;&#20108;&#19969;&#30446;" /></node>
<node id="-284" lat="32.598474999" lon="131.669418" visible="true"><tag k="place" v="neighbourhood" /><tag k="name" v="&#23665;&#26376;&#30010;&#19977;&#19969;&#30446;" /></node>
<node id="-285" lat="32.600040999" lon="131.668792" visible="true"><tag k="place" v="neighbourhood" /><tag k="name" v="&#23665;&#26376;&#30010;&#22235;&#19969;&#30446;" /></node>
<node id="-286" lat="32.601160999" lon="131.664102" visible="true"><tag k="place" v="neighbourhood" /><tag k="name" v="&#23665;&#26376;&#30010;&#20116;&#19969;&#30446;" /></node>
<node id="-287" lat="32.599520999" lon="131.652361" visible="true"><tag k="place" v="quarter" /><tag k="name" v="&#26586;&#26408;&#30010;" /></node>
<node id="-288" lat="32.601968999" lon="131.68752" visible="true"><tag k="place" v="quarter" /><tag k="name" v="&#26586;&#12398;&#26408;&#30000;&#30010;" /></node>
<node id="-289" lat="32.568106999" lon="131.614357" visible="true"><tag k="place" v="quarter" /><tag k="name" v="&#21513;&#37326;&#30010;" /></node>
<node id="-290" lat="32.553578999" lon="131.666668" visible="true"><tag k="place" v="neighbourhood" /><tag k="name" v="&#33509;&#33865;&#30010;&#19968;&#19969;&#30446;" /></node>
<node id="-291" lat="32.550604999" lon="131.668037" visible="true"><tag k="place" v="neighbourhood" /><tag k="name" v="&#33509;&#33865;&#30010;&#20108;&#19969;&#30446;" /></node>
<node id="-292" lat="32.579143999" lon="131.635203" visible="true"><tag k="place" v="neighbourhood" /><tag k="name" v="&#37326;&#30000;&#19968;&#19969;&#30446;" /></node>
<node id="-293" lat="32.578986999" lon="131.632305" visible="true"><tag k="place" v="neighbourhood" /><tag k="name" v="&#37326;&#30000;&#20108;&#19969;&#30446;" /></node>
<node id="-294" lat="32.576251999" lon="131.63441" visible="true"><tag k="place" v="neighbourhood" /><tag k="name" v="&#37326;&#30000;&#19977;&#19969;&#30446;" /></node>
<node id="-295" lat="32.575713999" lon="131.636936" visible="true"><tag k="place" v="quarter" /><tag k="name" v="&#37326;&#30000;&#30010;" /></node>
<node id="-296" lat="32.650956999" lon="131.560037" visible="true"><tag k="place" v="quarter" /><tag k="name" v="&#21271;&#26041;&#30010;&#20108;&#32929;" /></node>
<node id="-297" lat="32.760993999" lon="131.668009" visible="true"><tag k="place" v="quarter" /><tag k="name" v="&#21271;&#24029;&#30010;&#24029;&#20869;&#21517;" /></node>
<node id="-298" lat="32.672407999" lon="131.612716" visible="true"><tag k="place" v="quarter" /><tag k="name" v="&#23470;&#38263;&#30010;" /></node>
<node id="-299" lat="32.684588999" lon="131.589608" visible="true"><tag k="place" v="quarter" /><tag k="name" v="&#27292;&#23665;" /></node>
<node id="-300" lat="32.586977999" lon="131.62315" visible="true"><tag k="place" v="quarter" /><tag k="name" v="&#23567;&#23792;&#30010;" /></node>
<node id="-301" lat="32.607605999" lon="131.611407" visible="true"><tag k="place" v="quarter" /><tag k="name" v="&#40575;&#29417;&#28716;&#30010;" /></node>
<node id="-302" lat="32.604539999" lon="131.637439" visible="true"><tag k="place" v="quarter" /><tag k="name" v="&#23431;&#21644;&#30000;&#30010;" /></node>
<node id="-303" lat="32.535577999" lon="131.680869" visible="true"><tag k="place" v="neighbourhood" /><tag k="name" v="&#26032;&#27996;&#30010;&#19968;&#19969;&#30446;" /></node>
<node id="-304" lat="32.534601999" lon="131.678296" visible="true"><tag k="place" v="quarter" /><tag k="name" v="&#26093;&#12465;&#19992;" /></node>
<node id="-305" lat="32.532829999" lon="131.678449" visible="true"><tag k="place" v="neighbourhood" /><tag k="name" v="&#26093;&#12465;&#19992;&#19977;&#19969;&#30446;" /></node>
</osm>